[{
  "area_code": 340102,
  "name": "合肥育英高级中学",
  "code": 34010201,
  "addition": null
}, {
  "area_code": 340102,
  "name": "合肥市第二十四中学",
  "code": 34010202,
  "addition": null
}, {
  "area_code": 340102,
  "name": "合肥市第三中学",
  "code": 34010203,
  "addition": null
}, {
  "area_code": 340102,
  "name": "合肥市第九中学",
  "code": 34010204,
  "addition": null
}, {
  "area_code": 340102,
  "name": "合肥大志高级中学",
  "code": 34010205,
  "addition": null
}, {
  "area_code": 340102,
  "name": "合肥市第五中学",
  "code": 34010206,
  "addition": null
}, {
  "area_code": 340102,
  "name": "合肥市第四中学",
  "code": 34010207,
  "addition": null
}, {
  "area_code": 340102,
  "name": "合肥市第二十二中学",
  "code": 34010208,
  "addition": null
}, {
  "area_code": 340102,
  "name": "合肥市第十中学",
  "code": 34010209,
  "addition": null
}, {
  "area_code": 340102,
  "name": "合肥市第十三中学",
  "code": 34010210,
  "addition": null
}, {
  "area_code": 340102,
  "name": "合肥市第六中学",
  "code": 34010211,
  "addition": null
}, {
  "area_code": 340102,
  "name": "合肥市第二十六中学",
  "code": 34010212,
  "addition": null
}, {
  "area_code": 340102,
  "name": "合肥市第十一中学",
  "code": 34010213,
  "addition": null
}, {
  "area_code": 340102,
  "name": "合肥市第一中学",
  "code": 34010214,
  "addition": null
}, {
  "area_code": 340102,
  "name": "合肥市第八中学",
  "code": 34010215,
  "addition": null
}, {
  "area_code": 340102,
  "name": "合肥百花中学",
  "code": 34010216,
  "addition": null
}, {
  "area_code": 340103,
  "name": "合肥市第三十六中学",
  "code": 34010301,
  "addition": null
}, {
  "area_code": 340103,
  "name": "庐阳高级中学",
  "code": 34010302,
  "addition": null
}, {
  "area_code": 340103,
  "name": "合肥八中",
  "code": 34010303,
  "addition": null
}, {
  "area_code": 340103,
  "name": "合肥一中",
  "code": 34010304,
  "addition": null
}, {
  "area_code": 340103,
  "name": "合肥六中",
  "code": 34010305,
  "addition": null
}, {
  "area_code": 340103,
  "name": "合肥九中",
  "code": 34010306,
  "addition": null
}, {
  "area_code": 340103,
  "name": "合肥三中",
  "code": 34010307,
  "addition": null
}, {
  "area_code": 340103,
  "name": "百花中学",
  "code": 34010308,
  "addition": null
}, {
  "area_code": 340103,
  "name": "合肥三十六中",
  "code": 34010309,
  "addition": null
}, {
  "area_code": 340103,
  "name": "合肥新华中学",
  "code": 34010310,
  "addition": null
}, {
  "area_code": 340104,
  "name": "合肥市第十七中学",
  "code": 34010401,
  "addition": null
}, {
  "area_code": 340104,
  "name": "安徽大学附属学校",
  "code": 34010402,
  "addition": null
}, {
  "area_code": 340104,
  "name": "合肥三十四中",
  "code": 34010403,
  "addition": null
}, {
  "area_code": 340104,
  "name": "解放军炮院附中",
  "code": 34010404,
  "addition": null
}, {
  "area_code": 340104,
  "name": "合肥市第三十五中学",
  "code": 34010405,
  "addition": null
}, {
  "area_code": 340104,
  "name": "合肥剑桥学校",
  "code": 34010406,
  "addition": null
}, {
  "area_code": 340104,
  "name": "安徽农业大学附属中学",
  "code": 34010407,
  "addition": null
}, {
  "area_code": 340104,
  "name": "合肥七中",
  "code": 34010408,
  "addition": null
}, {
  "area_code": 340104,
  "name": "合肥第二中学",
  "code": 34010409,
  "addition": null
}, {
  "area_code": 340111,
  "name": "合肥市包河中学",
  "code": 34011101,
  "addition": null
}, {
  "area_code": 340111,
  "name": "合肥市二十八中",
  "code": 34011102,
  "addition": null
}, {
  "area_code": 340111,
  "name": "合肥华泰高级中学",
  "code": 34011103,
  "addition": null
}, {
  "area_code": 340111,
  "name": "合肥32中学",
  "code": 34011104,
  "addition": null
}, {
  "area_code": 340111,
  "name": "合肥市168中学",
  "code": 34011105,
  "addition": null
}, {
  "area_code": 340111,
  "name": "合肥市第五十一中学",
  "code": 34011106,
  "addition": null
}, {
  "area_code": 340111,
  "name": "中国科学技术大学附属中学",
  "code": 34011107,
  "addition": null
}, {
  "area_code": 340121,
  "name": "安徽省长淮高级中学",
  "code": 34012101,
  "addition": null
}, {
  "area_code": 340121,
  "name": "长丰县吴山中学",
  "code": 34012102,
  "addition": null
}, {
  "area_code": 340121,
  "name": "合肥双凤高级中学",
  "code": 34012103,
  "addition": null
}, {
  "area_code": 340121,
  "name": "长丰县第一中学",
  "code": 34012104,
  "addition": null
}, {
  "area_code": 340121,
  "name": "长丰县下塘中学",
  "code": 34012105,
  "addition": null
}, {
  "area_code": 340121,
  "name": "长丰县第二中学",
  "code": 34012106,
  "addition": null
}, {
  "area_code": 340121,
  "name": "长丰县双墩中学",
  "code": 34012107,
  "addition": null
}, {
  "area_code": 340121,
  "name": "长丰县实验高级中学",
  "code": 34012108,
  "addition": null
}, {
  "area_code": 340121,
  "name": "长丰县朱巷中学",
  "code": 34012109,
  "addition": null
}, {
  "area_code": 340122,
  "name": "肥东县城关中学",
  "code": 34012201,
  "addition": null
}, {
  "area_code": 340122,
  "name": "肥东县撮镇中学",
  "code": 34012202,
  "addition": null
}, {
  "area_code": 340122,
  "name": "肥东圣泉中学",
  "code": 34012203,
  "addition": null
}, {
  "area_code": 340122,
  "name": "肥东第一中学",
  "code": 34012204,
  "addition": null
}, {
  "area_code": 340122,
  "name": "肥东县古城中学",
  "code": 34012205,
  "addition": null
}, {
  "area_code": 340122,
  "name": "长临河中学",
  "code": 34012206,
  "addition": null
}, {
  "area_code": 340122,
  "name": "安徽省肥东县第二中学",
  "code": 34012207,
  "addition": null
}, {
  "area_code": 340122,
  "name": "安徽省肥东县白龙中学",
  "code": 34012208,
  "addition": null
}, {
  "area_code": 340123,
  "name": "肥西中学",
  "code": 34012301,
  "addition": null
}, {
  "area_code": 340123,
  "name": "合肥长江中学",
  "code": 34012302,
  "addition": null
}, {
  "area_code": 340123,
  "name": "安徽省肥西高刘中学",
  "code": 34012303,
  "addition": null
}, {
  "area_code": 340123,
  "name": "安徽省肥西丰乐中学",
  "code": 34012304,
  "addition": 08 年高中部停止招生
}, {
  "area_code": 340123,
  "name": "安徽省肥西第二中学",
  "code": 34012305,
  "addition": null
}, {
  "area_code": 340123,
  "name": "肥西宏图中学",
  "code": 34012306,
  "addition": null
}, {
  "area_code": 340123,
  "name": "安徽省肥西农兴中学",
  "code": 34012307,
  "addition": null
}, {
  "area_code": 340123,
  "name": "安徽省肥西第三中学",
  "code": 34012308,
  "addition": null
}, {
  "area_code": 340123,
  "name": "安徽省肥西三河中学",
  "code": 34012309,
  "addition": null
}, {
  "area_code": 340123,
  "name": "肥西小庙中学",
  "code": 34012310,
  "addition": null
}, {
  "area_code": 340123,
  "name": "安徽省肥西肥光中学",
  "code": 34012311,
  "addition": null
}, {
  "area_code": 340123,
  "name": "花岗职业高级中学",
  "code": 34012312,
  "addition": 原名： 花岗中学
}, {
  "area_code": 340123,
  "name": "肥西山南中学",
  "code": 34012313,
  "addition": null
}, {
  "area_code": 340201,
  "name": "安徽师范大学附属中学",
  "code": 34020101,
  "addition": null
}, {
  "area_code": 340201,
  "name": "芜湖市第三中学",
  "code": 34020102,
  "addition": null
}, {
  "area_code": 340201,
  "name": "芜湖市徽文中学",
  "code": 34020103,
  "addition": null
}, {
  "area_code": 340201,
  "name": "芜湖市田家炳实验中学",
  "code": 34020104,
  "addition": null
}, {
  "area_code": 340201,
  "name": "芜糊市第一中学",
  "code": 34020105,
  "addition": null
}, {
  "area_code": 340201,
  "name": "芜湖市第十一中学",
  "code": 34020106,
  "addition": null
}, {
  "area_code": 340201,
  "name": "芜湖市第二中学",
  "code": 34020107,
  "addition": null
}, {
  "area_code": 340203,
  "name": "芜湖市第十二中学",
  "code": 34020301,
  "addition": null
}, {
  "area_code": 340203,
  "name": "芜湖市火龙岗中学",
  "code": 34020302,
  "addition": null
}, {
  "area_code": 340203,
  "name": "芜湖市第十三中学",
  "code": 34020303,
  "addition": null
}, {
  "area_code": 340207,
  "name": "芜湖市第七中学",
  "code": 34020701,
  "addition": null
}, {
  "area_code": 340207,
  "name": "芜湖锦文中学",
  "code": 34020702,
  "addition": null
}, {
  "area_code": 340207,
  "name": "芜湖泰文中学",
  "code": 34020703,
  "addition": null
}, {
  "area_code": 340207,
  "name": "芜湖市清水河中学",
  "code": 34020704,
  "addition": null
}, {
  "area_code": 340208,
  "name": "芜湖市三山中学",
  "code": 34020801,
  "addition": null
}, {
  "area_code": 340200,
  "name": "芜湖县第一中学",
  "code": 34020001,
  "addition": null
}, {
  "area_code": 340200,
  "name": "芜湖县第二中学",
  "code": 34020002,
  "addition": null
}, {
  "area_code": 340200,
  "name": "芜湖市火龙岗中学",
  "code": 34020003,
  "addition": null
}, {
  "area_code": 340200,
  "name": "徽文中学",
  "code": 34020004,
  "addition": null
}, {
  "area_code": 340200,
  "name": "芜湖三中",
  "code": 34020005,
  "addition": null
}, {
  "area_code": 340200,
  "name": "芜湖泰文中学",
  "code": 34020006,
  "addition": null
}, {
  "area_code": 340200,
  "name": "清水河中学",
  "code": 34020007,
  "addition": null
}, {
  "area_code": 340200,
  "name": "芜湖市田家炳实验中学",
  "code": 34020008,
  "addition": null
}, {
  "area_code": 340200,
  "name": "清水河中学",
  "code": 34020009,
  "addition": null
}, {
  "area_code": 340200,
  "name": "芜湖市城南实验中学",
  "code": 34020010,
  "addition": null
}, {
  "area_code": 340200,
  "name": "芜湖市三山中学",
  "code": 34020011,
  "addition": null
}, {
  "area_code": 340222,
  "name": "繁昌第一中学",
  "code": 34022201,
  "addition": null
}, {
  "area_code": 340222,
  "name": "繁昌县第二中学",
  "code": 34022202,
  "addition": null
}, {
  "area_code": 340222,
  "name": "繁昌皖江中学",
  "code": 34022203,
  "addition": null
}, {
  "area_code": 340222,
  "name": "繁昌恒杰双语学校",
  "code": 34022204,
  "addition": null
}, {
  "area_code": 340222,
  "name": "繁昌县第三中学",
  "code": 34022205,
  "addition": null
}, {
  "area_code": 340223,
  "name": "南陵县第一中学",
  "code": 34022301,
  "addition": null
}, {
  "area_code": 340223,
  "name": "南陵县博文中学",
  "code": 34022302,
  "addition": null
}, {
  "area_code": 340223,
  "name": "南陵县萃英园中学",
  "code": 34022303,
  "addition": null
}, {
  "area_code": 340223,
  "name": "芜湖市南陵三中",
  "code": 34022304,
  "addition": null
}, {
  "area_code": 340223,
  "name": "南陵县第四中学",
  "code": 34022305,
  "addition": null
}, {
  "area_code": 340223,
  "name": "南陵县第二中学",
  "code": 34022306,
  "addition": null
}, {
  "area_code": 340300,
  "name": "蚌埠市第三中学",
  "code": 34030001,
  "addition": null
}, {
  "area_code": 340300,
  "name": "蚌埠市铁路中学",
  "code": 34030002,
  "addition": null
}, {
  "area_code": 340300,
  "name": "安徽省蚌埠第十一中学",
  "code": 34030003,
  "addition": null
}, {
  "area_code": 340300,
  "name": "安徽省蚌埠第一中学",
  "code": 34030004,
  "addition": null
}, {
  "area_code": 340300,
  "name": "安徽省蚌埠市第十二中学",
  "code": 34030005,
  "addition": null
}, {
  "area_code": 340300,
  "name": "安徽省蚌埠第二中学",
  "code": 34030006,
  "addition": null
}, {
  "area_code": 340300,
  "name": "安徽省蚌埠市第四中学",
  "code": 34030007,
  "addition": null
}, {
  "area_code": 340302,
  "name": "安徽省蚌埠市三十六中学",
  "code": 34030201,
  "addition": null
}, {
  "area_code": 340302,
  "name": "蚌埠铁路分局蚌埠子弟中学",
  "code": 34030202,
  "addition": null
}, {
  "area_code": 340302,
  "name": "第二十七中学",
  "code": 34030203,
  "addition": null
}, {
  "area_code": 340302,
  "name": "蚌埠市第七中学",
  "code": 34030204,
  "addition": null
}, {
  "area_code": 340303,
  "name": "蚌埠二中",
  "code": 34030301,
  "addition": null
}, {
  "area_code": 340304,
  "name": "蚌埠第二十八中学",
  "code": 34030401,
  "addition": null
}, {
  "area_code": 340311,
  "name": "蚌埠市行知普通高级中学",
  "code": 34031101,
  "addition": null
}, {
  "area_code": 340311,
  "name": "安徽省蚌埠美佛儿国际学校",
  "code": 34031102,
  "addition": null
}, {
  "area_code": 340311,
  "name": "蚌埠市第十九中学",
  "code": 34031103,
  "addition": null
}, {
  "area_code": 340321,
  "name": "安徽省怀远第一中学",
  "code": 34032101,
  "addition": null
}, {
  "area_code": 340321,
  "name": "怀远县常坟中学",
  "code": 34032102,
  "addition": null
}, {
  "area_code": 340321,
  "name": "安徽省怀远第二中学",
  "code": 34032103,
  "addition": null
}, {
  "area_code": 340321,
  "name": "安徽省怀远第三中学",
  "code": 34032104,
  "addition": null
}, {
  "area_code": 340321,
  "name": "蚌埠市怀远县包集中学",
  "code": 34032105,
  "addition": null
}, {
  "area_code": 340321,
  "name": "民办怀远育人普通高级中学",
  "code": 34032106,
  "addition": null
}, {
  "area_code": 340321,
  "name": "安徽省国营龙亢农场中学",
  "code": 34032107,
  "addition": null
}, {
  "area_code": 340322,
  "name": "安徽蚌埠五河一中",
  "code": 34032201,
  "addition": null
}, {
  "area_code": 340322,
  "name": "安徽蚌埠五河二中",
  "code": 34032202,
  "addition": null
}, {
  "area_code": 340322,
  "name": "安徽省五河县新集中学",
  "code": 34032203,
  "addition": null
}, {
  "area_code": 340322,
  "name": "五河县沫河口中学",
  "code": 34032204,
  "addition": null
}, {
  "area_code": 340323,
  "name": "固镇县英华中学",
  "code": 34032301,
  "addition": null
}, {
  "area_code": 340323,
  "name": "固镇县谷阳中学",
  "code": 34032302,
  "addition": null
}, {
  "area_code": 340323,
  "name": "固镇县新马桥中学",
  "code": 34032303,
  "addition": null
}, {
  "area_code": 340323,
  "name": "固镇县第一中学",
  "code": 34032304,
  "addition": null
}, {
  "area_code": 340323,
  "name": "固镇县石湖乡石湖中学",
  "code": 34032305,
  "addition": null
}, {
  "area_code": 340323,
  "name": "固镇县第二中学",
  "code": 34032306,
  "addition": null
}, {
  "area_code": 340402,
  "name": "淮南市第八中学",
  "code": 34040201,
  "addition": null
}, {
  "area_code": 340402,
  "name": "淮南市九龙中学",
  "code": 34040202,
  "addition": null
}, {
  "area_code": 340402,
  "name": "淮南市十一中学",
  "code": 34040203,
  "addition": null
}, {
  "area_code": 340402,
  "name": "淮南市毛集中学",
  "code": 34040204,
  "addition": null
}, {
  "area_code": 340402,
  "name": "淮南市第十四中学",
  "code": 34040205,
  "addition": null
}, {
  "area_code": 340403,
  "name": "淮南市龙泉中学",
  "code": 34040301,
  "addition": null
}, {
  "area_code": 340403,
  "name": "安徽省淮南第二十四中学",
  "code": 34040302,
  "addition": null
}, {
  "area_code": 340403,
  "name": "安徽省淮南第一中学",
  "code": 34040303,
  "addition": null
}, {
  "area_code": 340403,
  "name": "安徽省淮南第二中学",
  "code": 34040304,
  "addition": null
}, {
  "area_code": 340403,
  "name": "淮南市四中",
  "code": 34040305,
  "addition": null
}, {
  "area_code": 340403,
  "name": "安徽省淮南第三中学",
  "code": 34040306,
  "addition": null
}, {
  "area_code": 340403,
  "name": "安徽省淮南建业中学",
  "code": 34040307,
  "addition": null
}, {
  "area_code": 340404,
  "name": "谢家集区第四中学",
  "code": 34040401,
  "addition": null
}, {
  "area_code": 340404,
  "name": "安徽省淮南市第十六中学",
  "code": 34040402,
  "addition": null
}, {
  "area_code": 340404,
  "name": "安徽省淮南市第五中学",
  "code": 34040403,
  "addition": null
}, {
  "area_code": 340404,
  "name": "淮南市私立文山高级中学",
  "code": 34040404,
  "addition": null
}, {
  "area_code": 340404,
  "name": "安徽省淮南市第六中学",
  "code": 34040405,
  "addition": null
}, {
  "area_code": 340404,
  "name": "淮南市杨公中学",
  "code": 34040406,
  "addition": null
}, {
  "area_code": 340404,
  "name": "安徽省淮南市第十中学",
  "code": 34040407,
  "addition": null
}, {
  "area_code": 340405,
  "name": "淮南市八公山区第一中学",
  "code": 34040501,
  "addition": null
}, {
  "area_code": 340405,
  "name": "安徽省淮南第九中学",
  "code": 34040502,
  "addition": null
}, {
  "area_code": 340405,
  "name": "安徽省淮南第十三中",
  "code": 34040503,
  "addition": null
}, {
  "area_code": 340405,
  "name": "安徽省淮南第十七中学",
  "code": 34040504,
  "addition": null
}, {
  "area_code": 340405,
  "name": "淮南矿业集团第二十一中学",
  "code": 34040505,
  "addition": null
}, {
  "area_code": 340406,
  "name": "淮南市古沟民族中学",
  "code": 34040601,
  "addition": null
}, {
  "area_code": 340406,
  "name": "淮南市第二十一中学",
  "code": 34040602,
  "addition": null
}, {
  "area_code": 340406,
  "name": "淮南二十中",
  "code": 34040603,
  "addition": null
}, {
  "area_code": 340406,
  "name": "淮南市潘集中学",
  "code": 34040604,
  "addition": null
}, {
  "area_code": 340406,
  "name": "淮南矿业集团第二十二中学",
  "code": 34040605,
  "addition": null
}, {
  "area_code": 340421,
  "name": "凤台县第二中学",
  "code": 34042101,
  "addition": null
}, {
  "area_code": 340421,
  "name": "凤台县第一中学",
  "code": 34042102,
  "addition": null
}, {
  "area_code": 340421,
  "name": "淮南行知中学",
  "code": 34042103,
  "addition": null
}, {
  "area_code": 340421,
  "name": "毛集中学",
  "code": 34042104,
  "addition": null
}, {
  "area_code": 340421,
  "name": "凤台七中",
  "code": 34042105,
  "addition": 安徽省凤台县第七中学
}, {
  "area_code": 340421,
  "name": "桂集中学",
  "code": 34042106,
  "addition": null
}, {
  "area_code": 340501,
  "name": "安徽省马鞍山市第十一中学",
  "code": 34050101,
  "addition": null
}, {
  "area_code": 340501,
  "name": "马鞍山市第二十二中学",
  "code": 34050102,
  "addition": null
}, {
  "area_code": 340501,
  "name": "马鞍山市红星中学",
  "code": 34050103,
  "addition": null
}, {
  "area_code": 340501,
  "name": "安徽省马鞍山市第二中学",
  "code": 34050104,
  "addition": null
}, {
  "area_code": 340501,
  "name": "马鞍山市实验中学",
  "code": 34050105,
  "addition": 被二十二中合并了
}, {
  "area_code": 340501,
  "name": "安徽工业大学附属中学",
  "code": 34050106,
  "addition": null
}, {
  "area_code": 340501,
  "name": "马鞍山培正学校",
  "code": 34050107,
  "addition": null
}, {
  "area_code": 340501,
  "name": "马鞍山市外国语学校",
  "code": 34050108,
  "addition": null
}, {
  "area_code": 340501,
  "name": "安徽省马鞍山市第六中学",
  "code": 34050109,
  "addition": null
}, {
  "area_code": 340501,
  "name": "马鞍山市第四中学",
  "code": 34050110,
  "addition": null
}, {
  "area_code": 340521,
  "name": "马鞍山中加双语学校",
  "code": 34052101,
  "addition": null
}, {
  "area_code": 340521,
  "name": "当涂县丹阳中学",
  "code": 34052102,
  "addition": null
}, {
  "area_code": 340521,
  "name": "安徽省马鞍山市第四中学",
  "code": 34052103,
  "addition": null
}, {
  "area_code": 340521,
  "name": "马鞍山市当涂县一中",
  "code": 34052104,
  "addition": null
}, {
  "area_code": 340521,
  "name": "当涂县石桥中学",
  "code": 34052105,
  "addition": null
}, {
  "area_code": 340521,
  "name": "马鞍山市当涂县二中",
  "code": 34052106,
  "addition": 马鞍山市第二中学当涂分校
}, {
  "area_code": 340521,
  "name": "当涂县鸿志学校",
  "code": 34052107,
  "addition": null
}, {
  "area_code": 340503,
  "name": "马鞍山市第十九中学",
  "code": 34050301,
  "addition": null
}, {
  "area_code": 340503,
  "name": "马鞍山市第十三中学",
  "code": 34050302,
  "addition": null
}, {
  "area_code": 340503,
  "name": "马钢集团控股有限公司红星中学",
  "code": 34050303,
  "addition": null
}, {
  "area_code": 340601,
  "name": "淮北市第一中学",
  "code": 34060101,
  "addition": null
}, {
  "area_code": 340601,
  "name": "淮北市实验高级中学",
  "code": 34060102,
  "addition": null
}, {
  "area_code": 340601,
  "name": "淮北市国泰中学",
  "code": 34060103,
  "addition": null
}, {
  "area_code": 340601,
  "name": "淮北煤炭师范附属实验中学",
  "code": 34060104,
  "addition": null
}, {
  "area_code": 340601,
  "name": "淮北市淮海中学",
  "code": 34060105,
  "addition": null
}, {
  "area_code": 340601,
  "name": "淮北市第十二中学",
  "code": 34060106,
  "addition": null
}, {
  "area_code": 340601,
  "name": "淮北市树人高级中学",
  "code": 34060107,
  "addition": null
}, {
  "area_code": 340601,
  "name": "淮北市第五中学",
  "code": 34060108,
  "addition": null
}, {
  "area_code": 340601,
  "name": "淮北市同仁中学",
  "code": 34060109,
  "addition": null
}, {
  "area_code": 340602,
  "name": "淮北市开渠中学",
  "code": 34060201,
  "addition": null
}, {
  "area_code": 340602,
  "name": "淮北市第八高级中学",
  "code": 34060202,
  "addition": null
}, {
  "area_code": 340602,
  "name": "安徽省肖县新城中学",
  "code": 34060203,
  "addition": null
}, {
  "area_code": 340603,
  "name": "淮北市第四中学",
  "code": 34060301,
  "addition": null
}, {
  "area_code": 340603,
  "name": "淮北市梅苑学校",
  "code": 34060302,
  "addition": null
}, {
  "area_code": 340603,
  "name": "淮北十一中",
  "code": 34060303,
  "addition": null
}, {
  "area_code": 340603,
  "name": "淮北六中",
  "code": 34060304,
  "addition": null
}, {
  "area_code": 340604,
  "name": "淮北市第七中学",
  "code": 34060401,
  "addition": null
}, {
  "area_code": 340604,
  "name": "淮北市古饶中学",
  "code": 34060402,
  "addition": null
}, {
  "area_code": 340604,
  "name": "淮北矿业集团公司杨庄煤矿高级中学",
  "code": 34060403,
  "addition": null
}, {
  "area_code": 340621,
  "name": "安徽省濉溪中学",
  "code": 34062101,
  "addition": null
}, {
  "area_code": 340621,
  "name": "淮北市濉溪县孙疃中学",
  "code": 34062102,
  "addition": null
}, {
  "area_code": 340621,
  "name": "安徽省濉溪县第二中学",
  "code": 34062103,
  "addition": null
}, {
  "area_code": 340621,
  "name": "濉溪县惠民高级中学",
  "code": 34062104,
  "addition": null
}, {
  "area_code": 340621,
  "name": "濉溪县临涣中学",
  "code": 34062105,
  "addition": null
}, {
  "area_code": 340701,
  "name": "铜陵市私立行知学校",
  "code": 34070101,
  "addition": null
}, {
  "area_code": 340701,
  "name": "铜陵市第二中学",
  "code": 34070102,
  "addition": null
}, {
  "area_code": 340701,
  "name": "铜陵市正阳高级中学",
  "code": 34070103,
  "addition": null
}, {
  "area_code": 340701,
  "name": "铜陵市第三中学",
  "code": 34070104,
  "addition": null
}, {
  "area_code": 340701,
  "name": "铜陵市第十七中学",
  "code": 34070105,
  "addition": null
}, {
  "area_code": 340701,
  "name": "铜陵市第一中学",
  "code": 34070106,
  "addition": null
}, {
  "area_code": 340701,
  "name": "铜陵市十八中学",
  "code": 34070107,
  "addition": null
}, {
  "area_code": 340721,
  "name": "安徽省铜陵县第一中学",
  "code": 34072101,
  "addition": null
}, {
  "area_code": 340721,
  "name": "安徽省铜陵县第二中学",
  "code": 34072102,
  "addition": null
}, {
  "area_code": 340721,
  "name": "英才学校",
  "code": 34072103,
  "addition": null
}, {
  "area_code": 340702,
  "name": "铜陵一中",
  "code": 34070201,
  "addition": null
}, {
  "area_code": 340802,
  "name": "安徽省安庆市田家炳中学",
  "code": 34080201,
  "addition": 原安庆市第十中学
}, {
  "area_code": 340802,
  "name": "安庆市第二中学",
  "code": 34080202,
  "addition": null
}, {
  "area_code": 340802,
  "name": "安庆市洪运学校",
  "code": 34080203,
  "addition": null
}, {
  "area_code": 340802,
  "name": "安庆二中碧桂园分校",
  "code": 34080204,
  "addition": 原安庆市第三中学
}, {
  "area_code": 340802,
  "name": "安庆市菱南普通高级中学",
  "code": 34080205,
  "addition": null
}, {
  "area_code": 340802,
  "name": "安庆市第十一中学",
  "code": 34080206,
  "addition": null
}, {
  "area_code": 340803,
  "name": "安庆市第一中学",
  "code": 34080301,
  "addition": null
}, {
  "area_code": 340803,
  "name": "安庆市私立龙门高级中学",
  "code": 34080302,
  "addition": null
}, {
  "area_code": 340803,
  "name": "安庆市第五中学",
  "code": 34080303,
  "addition": null
}, {
  "area_code": 340803,
  "name": "安庆市第七中学",
  "code": 34080304,
  "addition": null
}, {
  "area_code": 340803,
  "name": "安庆市石化第一中学",
  "code": 34080305,
  "addition": null
}, {
  "area_code": 340811,
  "name": "安庆市杨桥中学",
  "code": 34081101,
  "addition": null
}, {
  "area_code": 340811,
  "name": "安庆市舒州普通高级中学",
  "code": 34081102,
  "addition": null
}, {
  "area_code": 340811,
  "name": "安庆市白泽湖中学",
  "code": 34081103,
  "addition": null
}, {
  "area_code": 340811,
  "name": "安庆市第九中学",
  "code": 34081104,
  "addition": null
}, {
  "area_code": 340811,
  "name": "安庆市第十六中学",
  "code": 34081105,
  "addition": null
}, {
  "area_code": 340822,
  "name": "安徽省怀宁中学",
  "code": 34082201,
  "addition": null
}, {
  "area_code": 340822,
  "name": "高河中学",
  "code": 34082202,
  "addition": null
}, {
  "area_code": 340822,
  "name": "月山镇民办东升高中",
  "code": 34082203,
  "addition": null
}, {
  "area_code": 340822,
  "name": "月山高级中学",
  "code": 34082204,
  "addition": null
}, {
  "area_code": 340822,
  "name": "怀宁县石牌高级中学",
  "code": 34082205,
  "addition": null
}, {
  "area_code": 340822,
  "name": "怀宁县新安中学",
  "code": 34082206,
  "addition": null
}, {
  "area_code": 340822,
  "name": "安徽省怀宁县第二中学",
  "code": 34082207,
  "addition": null
}, {
  "area_code": 340822,
  "name": "皖江高中",
  "code": 34082208,
  "addition": null
}, {
  "area_code": 340823,
  "name": "私立枞阳实验中学",
  "code": 34082301,
  "addition": null
}, {
  "area_code": 340823,
  "name": "安徽省枞阳县其林中学",
  "code": 34082302,
  "addition": null
}, {
  "area_code": 340823,
  "name": "安徽省枞阳县周潭中学",
  "code": 34082303,
  "addition": null
}, {
  "area_code": 340823,
  "name": "安徽省枞阳县白云中学",
  "code": 34082304,
  "addition": null
}, {
  "area_code": 340823,
  "name": "安徽省枞阳县钱桥中学",
  "code": 34082305,
  "addition": null
}, {
  "area_code": 340823,
  "name": "安徽省枞阳县第三中学",
  "code": 34082306,
  "addition": null
}, {
  "area_code": 340823,
  "name": "安徽省枞阳县浮山中学",
  "code": 34082307,
  "addition": null
}, {
  "area_code": 340823,
  "name": "枞阳县民办振阳高级中学",
  "code": 34082308,
  "addition": null
}, {
  "area_code": 340824,
  "name": "安徽省潜山中学",
  "code": 34082401,
  "addition": null
}, {
  "area_code": 340824,
  "name": "潜山县黄铺中学",
  "code": 34082402,
  "addition": null
}, {
  "area_code": 340824,
  "name": "安徽省潜山二中",
  "code": 34082403,
  "addition": null
}, {
  "area_code": 340824,
  "name": "潜山县野寨中学",
  "code": 34082404,
  "addition": null
}, {
  "area_code": 340824,
  "name": "民办三环普通高级中学",
  "code": 34082405,
  "addition": null
}, {
  "area_code": 340824,
  "name": "潜山县槎水中学",
  "code": 34082406,
  "addition": null
}, {
  "area_code": 340824,
  "name": "潜山县源潭中学",
  "code": 34082407,
  "addition": null
}, {
  "area_code": 340825,
  "name": "安徽省太湖县二中",
  "code": 34082501,
  "addition": null
}, {
  "area_code": 340825,
  "name": "太湖县新仓高中",
  "code": 34082502,
  "addition": null
}, {
  "area_code": 340825,
  "name": "太湖县北中高中",
  "code": 34082503,
  "addition": null
}, {
  "area_code": 340825,
  "name": "太湖县弥陀高中",
  "code": 34082504,
  "addition": null
}, {
  "area_code": 340825,
  "name": "太湖县徐桥高中",
  "code": 34082505,
  "addition": null
}, {
  "area_code": 340825,
  "name": "太湖县熙湖高中",
  "code": 34082506,
  "addition": null
}, {
  "area_code": 340825,
  "name": "太湖县牛镇高中",
  "code": 34082507,
  "addition": null
}, {
  "area_code": 340825,
  "name": "安徽省太湖中学",
  "code": 34082508,
  "addition": null
}, {
  "area_code": 340825,
  "name": "太湖县小池高中",
  "code": 34082509,
  "addition": null
}, {
  "area_code": 340826,
  "name": "宿松县复兴中学",
  "code": 34082601,
  "addition": null
}, {
  "area_code": 340826,
  "name": "宿松县凉亭中学",
  "code": 34082602,
  "addition": null
}, {
  "area_code": 340826,
  "name": "宿松县九姑中学",
  "code": 34082603,
  "addition": null
}, {
  "area_code": 340826,
  "name": "安庆慧德高级中学",
  "code": 34082604,
  "addition": null
}, {
  "area_code": 340826,
  "name": "宿松县程集中学",
  "code": 34082605,
  "addition": null
}, {
  "area_code": 340827,
  "name": "安徽省望江中学",
  "code": 34082701,
  "addition": null
}, {
  "area_code": 340827,
  "name": "安徽省望江县第二中学",
  "code": 34082702,
  "addition": null
}, {
  "area_code": 340827,
  "name": "望江县太慈中学",
  "code": 34082703,
  "addition": null
}, {
  "area_code": 340827,
  "name": "安徽省望江县鸦滩中学",
  "code": 34082704,
  "addition": null
}, {
  "area_code": 340827,
  "name": "高士中学",
  "code": 34082705,
  "addition": null
}, {
  "area_code": 340828,
  "name": "岳西县岳西中学",
  "code": 34082801,
  "addition": null
}, {
  "area_code": 340828,
  "name": "岳西县店前中学",
  "code": 34082802,
  "addition": null
}, {
  "area_code": 340828,
  "name": "岳西县南岳中学",
  "code": 34082803,
  "addition": null
}, {
  "area_code": 340881,
  "name": "安徽省桐城中学",
  "code": 34088101,
  "addition": null
}, {
  "area_code": 340881,
  "name": "桐城市第七中学",
  "code": 34088102,
  "addition": 原范岗高中
}, {
  "area_code": 340881,
  "name": "桐城市第十中学",
  "code": 34088103,
  "addition": 原名金神高中
}, {
  "area_code": 340881,
  "name": "桐城市第十一中学",
  "code": 34088104,
  "addition": null
}, {
  "area_code": 340881,
  "name": "安徽省桐城市天城高级中学",
  "code": 34088105,
  "addition": null
}, {
  "area_code": 340881,
  "name": "桐城市第五中学",
  "code": 34088106,
  "addition": null
}, {
  "area_code": 340881,
  "name": "桐城市第六中学",
  "code": 34088107,
  "addition": 原青草高中
}, {
  "area_code": 340881,
  "name": "安徽桐城吴汝纶公学",
  "code": 34088108,
  "addition": null
}, {
  "area_code": 340881,
  "name": "桐城市第九中学",
  "code": 34088109,
  "addition": null
}, {
  "area_code": 340881,
  "name": "桐城市第八中学",
  "code": 34088110,
  "addition": null
}, {
  "area_code": 341002,
  "name": "黄山市屯溪第一中学",
  "code": 34100201,
  "addition": null
}, {
  "area_code": 341002,
  "name": "黄山市屯溪第二中学",
  "code": 34100202,
  "addition": null
}, {
  "area_code": 341002,
  "name": "黄山市黄山学校",
  "code": 34100203,
  "addition": null
}, {
  "area_code": 341003,
  "name": "黄山区第一中学",
  "code": 34100301,
  "addition": null
}, {
  "area_code": 341003,
  "name": "黄山市田家炳实验中学",
  "code": 34100302,
  "addition": null
}, {
  "area_code": 341004,
  "name": "黄山市徽州区第一中学",
  "code": 34100401,
  "addition": null
}, {
  "area_code": 341004,
  "name": "黄山市徽州中学",
  "code": 34100402,
  "addition": null
}, {
  "area_code": 341021,
  "name": "安徽省歙县中学",
  "code": 34102101,
  "addition": null
}, {
  "area_code": 341021,
  "name": "安徽省歙县二中",
  "code": 34102102,
  "addition": null
}, {
  "area_code": 341021,
  "name": "黄山市歙州学校",
  "code": 34102103,
  "addition": null
}, {
  "area_code": 341022,
  "name": "安徽省休宁中学",
  "code": 34102201,
  "addition": null
}, {
  "area_code": 341022,
  "name": "休宁县海阳中学",
  "code": 34102202,
  "addition": null
}, {
  "area_code": 341022,
  "name": "黄山市天都中学",
  "code": 34102203,
  "addition": null
}, {
  "area_code": 341023,
  "name": "安徽省黟县中学",
  "code": 34102301,
  "addition": null
}, {
  "area_code": 341024,
  "name": "祁门县第一中学",
  "code": 34102401,
  "addition": null
}, {
  "area_code": 341101,
  "name": "安徽省滁州中学",
  "code": 34110101,
  "addition": null
}, {
  "area_code": 341101,
  "name": "滁州市第二中学",
  "code": 34110102,
  "addition": null
}, {
  "area_code": 341102,
  "name": "滁州实验中学",
  "code": 34110201,
  "addition": null
}, {
  "area_code": 341102,
  "name": "滁州市第四中学",
  "code": 34110202,
  "addition": null
}, {
  "area_code": 341103,
  "name": "滁州市乌衣中学",
  "code": 34110301,
  "addition": null
}, {
  "area_code": 341103,
  "name": "滁州市沙河中学",
  "code": 34110302,
  "addition": null
}, {
  "area_code": 341103,
  "name": "滁州市施集中学",
  "code": 34110303,
  "addition": null
}, {
  "area_code": 341122,
  "name": "安徽省来安中学",
  "code": 34112201,
  "addition": null
}, {
  "area_code": 341122,
  "name": "安徽省来安县大英中学",
  "code": 34112202,
  "addition": null
}, {
  "area_code": 341122,
  "name": "来安县第三中学",
  "code": 34112203,
  "addition": null
}, {
  "area_code": 341122,
  "name": "来安县半塔中学",
  "code": 34112204,
  "addition": null
}, {
  "area_code": 341122,
  "name": "安徽省来安县水口中学",
  "code": 34112205,
  "addition": null
}, {
  "area_code": 341122,
  "name": "半塔中学",
  "code": 34112206,
  "addition": null
}, {
  "area_code": 341124,
  "name": "安徽省全椒中学",
  "code": 34112401,
  "addition": null
}, {
  "area_code": 341124,
  "name": "安徽省全椒县马厂中学",
  "code": 34112402,
  "addition": null
}, {
  "area_code": 341124,
  "name": "全椒慈济中学",
  "code": 34112403,
  "addition": null
}, {
  "area_code": 341124,
  "name": "全椒县城东中学",
  "code": 34112404,
  "addition": null
}, {
  "area_code": 341124,
  "name": "全椒县三圣中学",
  "code": 34112405,
  "addition": null
}, {
  "area_code": 341124,
  "name": "全椒县古河中学",
  "code": 34112406,
  "addition": null
}, {
  "area_code": 341125,
  "name": "安徽省定远中学",
  "code": 34112501,
  "addition": null
}, {
  "area_code": 341125,
  "name": "定远县炉桥中学",
  "code": 34112502,
  "addition": null
}, {
  "area_code": 341125,
  "name": "安徽省定远县藕塘中学",
  "code": 34112503,
  "addition": null
}, {
  "area_code": 341125,
  "name": "安徽省定远县第二中学",
  "code": 34112504,
  "addition": null
}, {
  "area_code": 341125,
  "name": "安徽省定远县张桥中学",
  "code": 34112505,
  "addition": null
}, {
  "area_code": 341125,
  "name": "安徽省定远县第三中学",
  "code": 34112506,
  "addition": null
}, {
  "area_code": 341125,
  "name": "定远县池河中学",
  "code": 34112507,
  "addition": null
}, {
  "area_code": 341125,
  "name": "定远县永康中学",
  "code": 34112508,
  "addition": null
}, {
  "area_code": 341126,
  "name": "安徽省凤阳中学",
  "code": 34112601,
  "addition": null
}, {
  "area_code": 341126,
  "name": "凤阳县总铺中学",
  "code": 34112602,
  "addition": null
}, {
  "area_code": 341126,
  "name": "凤阳县第二中学",
  "code": 34112603,
  "addition": null
}, {
  "area_code": 341126,
  "name": "凤阳县临淮中学",
  "code": 34112604,
  "addition": null
}, {
  "area_code": 341126,
  "name": "凤阳县武店中学",
  "code": 34112605,
  "addition": null
}, {
  "area_code": 341181,
  "name": "天长市铜城中学",
  "code": 34118101,
  "addition": null
}, {
  "area_code": 341181,
  "name": "安徽省天长中学",
  "code": 34118102,
  "addition": null
}, {
  "area_code": 341181,
  "name": "天长市汊涧中学",
  "code": 34118103,
  "addition": null
}, {
  "area_code": 341181,
  "name": "天长市第二中学",
  "code": 34118104,
  "addition": null
}, {
  "area_code": 341181,
  "name": "天长市仁和中学",
  "code": 34118105,
  "addition": null
}, {
  "area_code": 341181,
  "name": "天长市关塘中学",
  "code": 34118106,
  "addition": null
}, {
  "area_code": 341181,
  "name": "天长市平安中学",
  "code": 34118107,
  "addition": null
}, {
  "area_code": 341182,
  "name": "安徽省明光中学",
  "code": 34118201,
  "addition": null
}, {
  "area_code": 341182,
  "name": "明光市第二中学",
  "code": 34118202,
  "addition": null
}, {
  "area_code": 341182,
  "name": "明光市第三中学",
  "code": 34118203,
  "addition": null
}, {
  "area_code": 341182,
  "name": "明光市龙山高级中学",
  "code": 34118204,
  "addition": null
}, {
  "area_code": 341202,
  "name": "颍州区希望高级中学",
  "code": 34120201,
  "addition": null
}, {
  "area_code": 341202,
  "name": "阜阳市第三中学",
  "code": 34120202,
  "addition": null
}, {
  "area_code": 341202,
  "name": "阜阳汇文中学",
  "code": 34120203,
  "addition": null
}, {
  "area_code": 341202,
  "name": "阜阳颍州学村一中",
  "code": 34120204,
  "addition": null
}, {
  "area_code": 341202,
  "name": "阜阳师范附中",
  "code": 34120205,
  "addition": null
}, {
  "area_code": 341202,
  "name": "阜阳市西苑高级中学",
  "code": 34120206,
  "addition": null
}, {
  "area_code": 341203,
  "name": "颍东区河东办城郊中学",
  "code": 34120301,
  "addition": null
}, {
  "area_code": 341203,
  "name": "阜阳市颍东区插花中学",
  "code": 34120302,
  "addition": null
}, {
  "area_code": 341203,
  "name": "阜阳市颍东区第十一中学",
  "code": 34120303,
  "addition": null
}, {
  "area_code": 341203,
  "name": "安徽省阜阳市第十中学",
  "code": 34120304,
  "addition": null
}, {
  "area_code": 341204,
  "name": "安徽省阜阳市一中",
  "code": 34120401,
  "addition": null
}, {
  "area_code": 341204,
  "name": "阜阳市颍河中学",
  "code": 34120402,
  "addition": null
}, {
  "area_code": 341204,
  "name": "阜阳市颍泉区二中",
  "code": 34120403,
  "addition": null
}, {
  "area_code": 341204,
  "name": "阜阳市第四中学",
  "code": 34120404,
  "addition": null
}, {
  "area_code": 341204,
  "name": "阜阳市耀云中学",
  "code": 34120405,
  "addition": null
}, {
  "area_code": 341204,
  "name": "颍泉区伍明中学",
  "code": 34120406,
  "addition": null
}, {
  "area_code": 341204,
  "name": "宁老庄职业高级中学",
  "code": 34120407,
  "addition": null
}, {
  "area_code": 341222,
  "name": "安徽省太和中学",
  "code": 34122201,
  "addition": null
}, {
  "area_code": 341222,
  "name": "太和县第六中学",
  "code": 34122202,
  "addition": null
}, {
  "area_code": 341222,
  "name": "安徽省太和一中",
  "code": 34122203,
  "addition": null
}, {
  "area_code": 341222,
  "name": "腾华私立高中",
  "code": 34122204,
  "addition": null
}, {
  "area_code": 341222,
  "name": "太和第二中学",
  "code": 34122205,
  "addition": null
}, {
  "area_code": 341222,
  "name": "太和县第五中学",
  "code": 34122206,
  "addition": null
}, {
  "area_code": 341221,
  "name": "安徽省临泉一中",
  "code": 34122101,
  "addition": null
}, {
  "area_code": 341221,
  "name": "临泉县郁文中学",
  "code": 34122102,
  "addition": null
}, {
  "area_code": 341221,
  "name": "临泉县第二中学",
  "code": 34122103,
  "addition": null
}, {
  "area_code": 341221,
  "name": "临泉县田家炳实验中学",
  "code": 34122104,
  "addition": null
}, {
  "area_code": 341221,
  "name": "临泉县靖波中学",
  "code": 34122105,
  "addition": null
}, {
  "area_code": 341221,
  "name": "安徽省临泉县高塘中学",
  "code": 34122106,
  "addition": null
}, {
  "area_code": 341225,
  "name": "阜南县第一完全中学",
  "code": 34122501,
  "addition": null
}, {
  "area_code": 341225,
  "name": "阜南县春晖中学",
  "code": 34122502,
  "addition": null
}, {
  "area_code": 341225,
  "name": "安徽省阜南县第三中学",
  "code": 34122503,
  "addition": null
}, {
  "area_code": 341225,
  "name": "阜南县实验中学",
  "code": 34122504,
  "addition": null
}, {
  "area_code": 341226,
  "name": "安徽省颍上第一中学",
  "code": 34122601,
  "addition": null
}, {
  "area_code": 341226,
  "name": "安徽省颍上第二中学",
  "code": 34122602,
  "addition": null
}, {
  "area_code": 341226,
  "name": "耿棚镇耿棚中学",
  "code": 34122603,
  "addition": null
}, {
  "area_code": 341282,
  "name": "安徽省界首市第一中学",
  "code": 34128201,
  "addition": null
}, {
  "area_code": 341282,
  "name": "安徽省界首市界首中学",
  "code": 34128202,
  "addition": null
}, {
  "area_code": 341282,
  "name": "界首市西城朝阳高级中学",
  "code": 34128203,
  "addition": null
}, {
  "area_code": 341301,
  "name": "安徽省宿城第一中学",
  "code": 34130101,
  "addition": null
}, {
  "area_code": 341301,
  "name": "宿州市蕴才中学",
  "code": 34130102,
  "addition": null
}, {
  "area_code": 341301,
  "name": "安徽省宿州第二中学",
  "code": 34130103,
  "addition": null
}, {
  "area_code": 341301,
  "name": "安徽省宿州学院附属实验中学",
  "code": 34130104,
  "addition": null
}, {
  "area_code": 341301,
  "name": "宿州矿建中学",
  "code": 34130105,
  "addition": null
}, {
  "area_code": 341302,
  "name": "宿州市下关中学",
  "code": 34130201,
  "addition": null
}, {
  "area_code": 341302,
  "name": "安徽省宿州市第三中学",
  "code": 34130202,
  "addition": null
}, {
  "area_code": 341302,
  "name": "宿州市北方中学",
  "code": 34130203,
  "addition": null
}, {
  "area_code": 341302,
  "name": "安徽省宿州市褚兰中学",
  "code": 34130204,
  "addition": null
}, {
  "area_code": 341321,
  "name": "安徽省砀山中学",
  "code": 34132101,
  "addition": null
}, {
  "area_code": 341321,
  "name": "安徽省砀山县第二中学",
  "code": 34132102,
  "addition": null
}, {
  "area_code": 341321,
  "name": "安徽省砀山第四中学",
  "code": 34132103,
  "addition": null
}, {
  "area_code": 341322,
  "name": "安徽省萧县中学",
  "code": 34132201,
  "addition": null
}, {
  "area_code": 341322,
  "name": "萧县虎山中学",
  "code": 34132202,
  "addition": null
}, {
  "area_code": 341322,
  "name": "安徽省萧城一中",
  "code": 34132203,
  "addition": null
}, {
  "area_code": 341322,
  "name": "萧县凤山中学",
  "code": 34132204,
  "addition": null
}, {
  "area_code": 341322,
  "name": "萧县鹏程中学",
  "code": 34132205,
  "addition": null
}, {
  "area_code": 341322,
  "name": "萧县王寨中学",
  "code": 34132206,
  "addition": null
}, {
  "area_code": 341322,
  "name": "安徽省萧县新城中学",
  "code": 34132207,
  "addition": null
}, {
  "area_code": 341322,
  "name": "萧县黄口中学",
  "code": 34132208,
  "addition": null
}, {
  "area_code": 341323,
  "name": "安徽省灵璧一中",
  "code": 34132301,
  "addition": null
}, {
  "area_code": 341323,
  "name": "安徽省灵璧中学",
  "code": 34132302,
  "addition": null
}, {
  "area_code": 341323,
  "name": "灵璧县黄湾中学",
  "code": 34132303,
  "addition": null
}, {
  "area_code": 341323,
  "name": "灵壁县渔沟中学",
  "code": 34132304,
  "addition": null
}, {
  "area_code": 341323,
  "name": "广志外国语学校",
  "code": 34132305,
  "addition": null
}, {
  "area_code": 341323,
  "name": "灵璧县高楼中学",
  "code": 34132306,
  "addition": null
}, {
  "area_code": 341323,
  "name": "下楼镇下楼中学",
  "code": 34132307,
  "addition": null
}, {
  "area_code": 341324,
  "name": "安徽省泗县第一中学",
  "code": 34132401,
  "addition": null
}, {
  "area_code": 341324,
  "name": "泗州双语中学",
  "code": 34132402,
  "addition": null
}, {
  "area_code": 341324,
  "name": "安徽省泗县第二中学",
  "code": 34132403,
  "addition": null
}, {
  "area_code": 341324,
  "name": "安徽省泗县三中",
  "code": 34132404,
  "addition": null
}, {
  "area_code": 341324,
  "name": "泗县新集高中",
  "code": 34132405,
  "addition": null
}, {
  "area_code": 340181,
  "name": "巢湖市第一中学",
  "code": 34018101,
  "addition": null
}, {
  "area_code": 340181,
  "name": "巢湖市居巢区第六中学",
  "code": 34018102,
  "addition": null
}, {
  "area_code": 340181,
  "name": "巢湖市居巢区烔炀中学",
  "code": 34018103,
  "addition": null
}, {
  "area_code": 340181,
  "name": "巢湖市老骥学校",
  "code": 34018104,
  "addition": null
}, {
  "area_code": 340181,
  "name": "巢湖市第二中学",
  "code": 34018105,
  "addition": null
}, {
  "area_code": 340181,
  "name": "巢湖市居巢区柘皋中学",
  "code": 34018106,
  "addition": null
}, {
  "area_code": 340181,
  "name": "巢湖市皖光高级中学",
  "code": 34018107,
  "addition": null
}, {
  "area_code": 340181,
  "name": "巢湖市居巢区第三中学",
  "code": 34018108,
  "addition": null
}, {
  "area_code": 340181,
  "name": "巢湖市黄山中学",
  "code": 34018109,
  "addition": null
}, {
  "area_code": 340181,
  "name": "巢湖市皖维学校",
  "code": 34018110,
  "addition": null
}, {
  "area_code": 340181,
  "name": "安徽省巢湖市四中",
  "code": 34018111,
  "addition": null
}, {
  "area_code": 340181,
  "name": "巢湖市居巢区槐林中学",
  "code": 34018112,
  "addition": null
}, {
  "area_code": 340181,
  "name": "巢湖学院附中",
  "code": 34018113,
  "addition": null
}, {
  "area_code": 340124,
  "name": "安徽省庐江中学",
  "code": 34012401,
  "addition": null
}, {
  "area_code": 340124,
  "name": "庐江泥河中学",
  "code": 34012402,
  "addition": null
}, {
  "area_code": 340124,
  "name": "安徽省庐江裴岗中学",
  "code": 34012403,
  "addition": null
}, {
  "area_code": 340124,
  "name": "巢湖市庐江县矾山中学",
  "code": 34012404,
  "addition": null
}, {
  "area_code": 340124,
  "name": "庐江县第二中学",
  "code": 34012405,
  "addition": null
}, {
  "area_code": 340124,
  "name": "庐江庐南高级中学",
  "code": 34012406,
  "addition": null
}, {
  "area_code": 340124,
  "name": "安徽省白湖第一中学",
  "code": 34012407,
  "addition": null
}, {
  "area_code": 340124,
  "name": "庐江兴华高级中学",
  "code": 34012408,
  "addition": null
}, {
  "area_code": 340124,
  "name": "庐江第三中学",
  "code": 34012409,
  "addition": null
}, {
  "area_code": 340124,
  "name": "安徽省庐江金牛中学",
  "code": 34012410,
  "addition": null
}, {
  "area_code": 340124,
  "name": "安徽省庐江县盛桥中学",
  "code": 34012411,
  "addition": null
}, {
  "area_code": 340124,
  "name": "安徽省庐江汤池中学",
  "code": 34012412,
  "addition": null
}, {
  "area_code": 340124,
  "name": "安徽省庐江白山中学",
  "code": 34012413,
  "addition": null
}, {
  "area_code": 340124,
  "name": "安徽省庐江乐桥中学",
  "code": 34012414,
  "addition": null
}, {
  "area_code": 340225,
  "name": "安徽省无为中学",
  "code": 34022501,
  "addition": null
}, {
  "area_code": 340225,
  "name": "安徽华星学校",
  "code": 34022502,
  "addition": null
}, {
  "area_code": 340225,
  "name": "无为县严桥中学",
  "code": 34022503,
  "addition": null
}, {
  "area_code": 340225,
  "name": "无为县大江中学",
  "code": 34022504,
  "addition": null
}, {
  "area_code": 340225,
  "name": "安徽省无为第一中学",
  "code": 34022505,
  "addition": null
}, {
  "area_code": 340225,
  "name": "无为县襄安中学",
  "code": 34022506,
  "addition": null
}, {
  "area_code": 340225,
  "name": "安徽省无为县开城中学",
  "code": 34022507,
  "addition": null
}, {
  "area_code": 340225,
  "name": "无为县六洲中学",
  "code": 34022508,
  "addition": null
}, {
  "area_code": 340225,
  "name": "安徽省无为第二中学",
  "code": 34022509,
  "addition": null
}, {
  "area_code": 340225,
  "name": "无为汤沟中学",
  "code": 34022510,
  "addition": null
}, {
  "area_code": 340225,
  "name": "无为县蜀山中学",
  "code": 34022511,
  "addition": null
}, {
  "area_code": 340225,
  "name": "安徽省无为陡沟中学",
  "code": 34022512,
  "addition": null
}, {
  "area_code": 340225,
  "name": "安徽省无为第三中学",
  "code": 34022513,
  "addition": null
}, {
  "area_code": 340225,
  "name": "安徽省石涧中学",
  "code": 34022514,
  "addition": null
}, {
  "area_code": 340225,
  "name": "无为县牛埠中学",
  "code": 34022515,
  "addition": null
}, {
  "area_code": 340225,
  "name": "无为县英博中学",
  "code": 34022516,
  "addition": null
}, {
  "area_code": 340522,
  "name": "安徽省含山中学",
  "code": 34052201,
  "addition": null
}, {
  "area_code": 340522,
  "name": "含山县仙踪中学",
  "code": 34052202,
  "addition": null
}, {
  "area_code": 340522,
  "name": "含山县第二中学",
  "code": 34052203,
  "addition": null
}, {
  "area_code": 340522,
  "name": "含山县运漕中学",
  "code": 34052204,
  "addition": null
}, {
  "area_code": 340522,
  "name": "含山县林头中学",
  "code": 34052205,
  "addition": null
}, {
  "area_code": 340523,
  "name": "和县第一中学",
  "code": 34052301,
  "addition": null
}, {
  "area_code": 340523,
  "name": "和县第二中学",
  "code": 34052302,
  "addition": null
}, {
  "area_code": 340523,
  "name": "和县第三中学",
  "code": 34052303,
  "addition": null
}, {
  "area_code": 340523,
  "name": "和县沈巷中学",
  "code": 34052304,
  "addition": null
}, {
  "area_code": 341501,
  "name": "安徽省六安一中",
  "code": 34150101,
  "addition": null
}, {
  "area_code": 341501,
  "name": "六安市田家炳实验中学",
  "code": 34150102,
  "addition": null
}, {
  "area_code": 341501,
  "name": "安徽省六安二中",
  "code": 34150103,
  "addition": null
}, {
  "area_code": 341501,
  "name": "安徽省六安中学",
  "code": 34150104,
  "addition": null
}, {
  "area_code": 341501,
  "name": "六安市第五中学",
  "code": 34150105,
  "addition": null
}, {
  "area_code": 341502,
  "name": "六安市毛坦厂中学",
  "code": 34150201,
  "addition": null
}, {
  "area_code": 341502,
  "name": "六安市双河中学",
  "code": 34150202,
  "addition": null
}, {
  "area_code": 341502,
  "name": "六安市三十铺中学",
  "code": 34150203,
  "addition": null
}, {
  "area_code": 341502,
  "name": "六安市张店中学",
  "code": 34150204,
  "addition": null
}, {
  "area_code": 341502,
  "name": "六安市金安区木厂中学",
  "code": 34150205,
  "addition": null
}, {
  "area_code": 341502,
  "name": "金安区淠东乡皖西立人中学",
  "code": 34150206,
  "addition": null
}, {
  "area_code": 341502,
  "name": "六安市金安高级中学",
  "code": 34150207,
  "addition": null
}, {
  "area_code": 341521,
  "name": "安徽省寿县第一中学",
  "code": 34152101,
  "addition": null
}, {
  "area_code": 341521,
  "name": "寿县安丰高级中学",
  "code": 34152102,
  "addition": null
}, {
  "area_code": 341521,
  "name": "寿县第二中学",
  "code": 34152103,
  "addition": null
}, {
  "area_code": 341521,
  "name": "寿县炎刘中学",
  "code": 34152104,
  "addition": null
}, {
  "area_code": 341521,
  "name": "寿县正阳中学",
  "code": 34152105,
  "addition": null
}, {
  "area_code": 341521,
  "name": "寿县瓦埠中学",
  "code": 34152106,
  "addition": null
}, {
  "area_code": 341521,
  "name": "寿县迎河中学",
  "code": 34152107,
  "addition": null
}, {
  "area_code": 341503,
  "name": "安徽六安新安中学",
  "code": 34150301,
  "addition": null
}, {
  "area_code": 341503,
  "name": "六安市徐集中学",
  "code": 34150302,
  "addition": null
}, {
  "area_code": 341503,
  "name": "六安市城南中学",
  "code": 34150303,
  "addition": null
}, {
  "area_code": 341503,
  "name": "六安市裕安区丁集中学",
  "code": 34150304,
  "addition": null
}, {
  "area_code": 341503,
  "name": "六安市独山中学",
  "code": 34150305,
  "addition": null
}, {
  "area_code": 341503,
  "name": "六安市苏埠中学",
  "code": 34150306,
  "addition": null
}, {
  "area_code": 341522,
  "name": "安徽省霍邱县第一中学",
  "code": 34152201,
  "addition": null
}, {
  "area_code": 341522,
  "name": "霍邱县河口中学",
  "code": 34152202,
  "addition": null
}, {
  "area_code": 341522,
  "name": "安徽省霍邱县第二中学",
  "code": 34152203,
  "addition": null
}, {
  "area_code": 341522,
  "name": "霍邱县周集中学",
  "code": 34152204,
  "addition": null
}, {
  "area_code": 341522,
  "name": "安徽省霍邱县第三中学",
  "code": 34152205,
  "addition": null
}, {
  "area_code": 341522,
  "name": "霍邱县潘集中学",
  "code": 34152206,
  "addition": null
}, {
  "area_code": 341522,
  "name": "霍邱县长集中学",
  "code": 34152207,
  "addition": null
}, {
  "area_code": 341522,
  "name": "安徽省霍邱陈埠职业高级中学",
  "code": 34152208,
  "addition": null
}, {
  "area_code": 341523,
  "name": "安徽省舒城中学",
  "code": 34152301,
  "addition": null
}, {
  "area_code": 341523,
  "name": "舒城县干汊河中学",
  "code": 34152302,
  "addition": null
}, {
  "area_code": 341523,
  "name": "舒城县龙河中学",
  "code": 34152303,
  "addition": null
}, {
  "area_code": 341523,
  "name": "舒城第一中学",
  "code": 34152304,
  "addition": null
}, {
  "area_code": 341523,
  "name": "舒城县汤池中学",
  "code": 34152305,
  "addition": null
}, {
  "area_code": 341523,
  "name": "舒城县千人桥中学",
  "code": 34152306,
  "addition": null
}, {
  "area_code": 341523,
  "name": "安徽省舒城晓天中学",
  "code": 34152307,
  "addition": null
}, {
  "area_code": 341523,
  "name": "舒城县桃溪中学",
  "code": 34152308,
  "addition": null
}, {
  "area_code": 341523,
  "name": "安徽舒城晨光学校",
  "code": 34152309,
  "addition": null
}, {
  "area_code": 341524,
  "name": "安徽省金寨第一中学",
  "code": 34152401,
  "addition": null
}, {
  "area_code": 341524,
  "name": "金寨县燕子河中学",
  "code": 34152402,
  "addition": null
}, {
  "area_code": 341524,
  "name": "金寨县青山中学",
  "code": 34152403,
  "addition": null
}, {
  "area_code": 341524,
  "name": "金寨县南溪中学",
  "code": 34152404,
  "addition": null
}, {
  "area_code": 341524,
  "name": "金寨县斑竹园中学",
  "code": 34152405,
  "addition": null
}, {
  "area_code": 341524,
  "name": "金寨县古碑中学",
  "code": 34152406,
  "addition": null
}, {
  "area_code": 341525,
  "name": "安徽省霍山中学",
  "code": 34152501,
  "addition": null
}, {
  "area_code": 341525,
  "name": "霍山县上土市中学",
  "code": 34152502,
  "addition": null
}, {
  "area_code": 341525,
  "name": "霍山县诸佛庵中学",
  "code": 34152503,
  "addition": null
}, {
  "area_code": 341525,
  "name": "霍山县磨子潭中学",
  "code": 34152504,
  "addition": null
}, {
  "area_code": 341525,
  "name": "霍山县与儿街中学",
  "code": 34152505,
  "addition": null
}, {
  "area_code": 341602,
  "name": "亳州市第一高级中学",
  "code": 34160201,
  "addition": null
}, {
  "area_code": 341602,
  "name": "亳州市第二高级中学",
  "code": 34160202,
  "addition": null
}, {
  "area_code": 341602,
  "name": "亳州市第三完全中学",
  "code": 34160203,
  "addition": null
}, {
  "area_code": 341602,
  "name": "亳州市第五完全中学",
  "code": 34160204,
  "addition": null
}, {
  "area_code": 341602,
  "name": "亳州市大寺完全中学",
  "code": 34160205,
  "addition": null
}, {
  "area_code": 341602,
  "name": "亳州市第三完全中学",
  "code": 34160206,
  "addition": null
}, {
  "area_code": 341621,
  "name": "安徽省涡阳县一中",
  "code": 34162101,
  "addition": null
}, {
  "area_code": 341621,
  "name": "安徽省涡阳二中",
  "code": 34162102,
  "addition": null
}, {
  "area_code": 341621,
  "name": "涡阳县曙光中学",
  "code": 34162103,
  "addition": null
}, {
  "area_code": 341621,
  "name": "涡阳县第三中学",
  "code": 34162104,
  "addition": null
}, {
  "area_code": 341621,
  "name": "安徽省涡阳县第四中学",
  "code": 34162105,
  "addition": null
}, {
  "area_code": 341622,
  "name": "安徽省蒙城一中",
  "code": 34162201,
  "addition": null
}, {
  "area_code": 341622,
  "name": "蒙城县第九中学",
  "code": 34162202,
  "addition": null
}, {
  "area_code": 341622,
  "name": "安徽省蒙城二中",
  "code": 34162203,
  "addition": null
}, {
  "area_code": 341622,
  "name": "蒙城县第六中学",
  "code": 34162204,
  "addition": null
}, {
  "area_code": 341622,
  "name": "蒙城县创新中学",
  "code": 34162205,
  "addition": null
}, {
  "area_code": 341622,
  "name": "蒙城县第八中学",
  "code": 34162206,
  "addition": null
}, {
  "area_code": 341623,
  "name": "利辛县第一中学",
  "code": 34162301,
  "addition": null
}, {
  "area_code": 341623,
  "name": "利辛县第二中学",
  "code": 34162302,
  "addition": null
}, {
  "area_code": 341623,
  "name": "利辛县启明中学",
  "code": 34162303,
  "addition": null
}, {
  "area_code": 341623,
  "name": "利辛县阚疃中学",
  "code": 34162304,
  "addition": null
}, {
  "area_code": 341702,
  "name": "池州市贵池区殷汇中学",
  "code": 34170201,
  "addition": null
}, {
  "area_code": 341702,
  "name": "贵池区第二中学",
  "code": 34170202,
  "addition": null
}, {
  "area_code": 341702,
  "name": "池州市杏花村中学",
  "code": 34170203,
  "addition": null
}, {
  "area_code": 341702,
  "name": "贵池德明私立中学",
  "code": 34170204,
  "addition": null
}, {
  "area_code": 341702,
  "name": "池州市第三中学",
  "code": 34170205,
  "addition": 原贵池第三中学
}, {
  "area_code": 341702,
  "name": "安徽省贵池区中学",
  "code": 34170206,
  "addition": null
}, {
  "area_code": 341721,
  "name": "安徽省东至县第一中学",
  "code": 34172101,
  "addition": null
}, {
  "area_code": 341721,
  "name": "东至县昭潭完全中学",
  "code": 34172102,
  "addition": null
}, {
  "area_code": 341721,
  "name": "安徽省东至二中",
  "code": 34172103,
  "addition": null
}, {
  "area_code": 341721,
  "name": "东至县大渡口中学",
  "code": 34172104,
  "addition": null
}, {
  "area_code": 341721,
  "name": "安徽省东至三中",
  "code": 34172105,
  "addition": null
}, {
  "area_code": 341721,
  "name": "东至县龙门中学",
  "code": 34172106,
  "addition": null
}, {
  "area_code": 341721,
  "name": "东至县东流中学",
  "code": 34172107,
  "addition": null
}, {
  "area_code": 341722,
  "name": "安徽省石台中学",
  "code": 34172201,
  "addition": null
}, {
  "area_code": 341723,
  "name": "安徽省青阳中学",
  "code": 34172301,
  "addition": null
}, {
  "area_code": 341723,
  "name": "青阳县木镇中学",
  "code": 34172302,
  "addition": null
}, {
  "area_code": 341723,
  "name": "青阳县九华中学",
  "code": 34172303,
  "addition": null
}, {
  "area_code": 341723,
  "name": "安徽省青华公学",
  "code": 34172304,
  "addition": null
}, {
  "area_code": 341802,
  "name": "宣城市第二中学",
  "code": 34180201,
  "addition": null
}, {
  "area_code": 341802,
  "name": "宣城市宣州区孙埠高级中学",
  "code": 34180202,
  "addition": null
}, {
  "area_code": 341802,
  "name": "宣城市第十三中学",
  "code": 34180203,
  "addition": null
}, {
  "area_code": 341802,
  "name": "安徽省宣城中学",
  "code": 34180204,
  "addition": null
}, {
  "area_code": 341802,
  "name": "宣城市宣州杨柳高级中学",
  "code": 34180205,
  "addition": null
}, {
  "area_code": 341802,
  "name": "宣城市华星外国语学校",
  "code": 34180206,
  "addition": null
}, {
  "area_code": 341802,
  "name": "安徽省宣城市第三中学",
  "code": 34180207,
  "addition": null
}, {
  "area_code": 341802,
  "name": "宣城市第四中学",
  "code": 34180208,
  "addition": null
}, {
  "area_code": 341802,
  "name": "宣城市宣州水阳高级中学",
  "code": 34180209,
  "addition": null
}, {
  "area_code": 341821,
  "name": "郎溪县郎溪中学",
  "code": 34182101,
  "addition": null
}, {
  "area_code": 341821,
  "name": "郎溪县梅诸中学",
  "code": 34182102,
  "addition": null
}, {
  "area_code": 341821,
  "name": "郎溪县十字中学",
  "code": 34182103,
  "addition": null
}, {
  "area_code": 341822,
  "name": "安徽省广德中学",
  "code": 34182201,
  "addition": null
}, {
  "area_code": 341822,
  "name": "安徽省广德县流洞中学",
  "code": 34182202,
  "addition": null
}, {
  "area_code": 341822,
  "name": "广德县实验中学",
  "code": 34182203,
  "addition": null
}, {
  "area_code": 341823,
  "name": "安徽省泾县中学",
  "code": 34182301,
  "addition": null
}, {
  "area_code": 341823,
  "name": "安徽省泾县二中",
  "code": 34182302,
  "addition": null
}, {
  "area_code": 341824,
  "name": "安徽省绩溪中学",
  "code": 34182401,
  "addition": null
}, {
  "area_code": 341824,
  "name": "绩溪县华阳中学",
  "code": 34182402,
  "addition": null
}, {
  "area_code": 341825,
  "name": "安徽省旌德中学",
  "code": 34182501,
  "addition": null
}, {
  "area_code": 341881,
  "name": "安徽省宁国中学",
  "code": 34188101,
  "addition": null
}, {
  "area_code": 341881,
  "name": "宁国市海螺学校",
  "code": 34188102,
  "addition": null
}, {
  "area_code": 341881,
  "name": "宁国市河沥中学",
  "code": 34188103,
  "addition": null
}, {
  "area_code": 341881,
  "name": "宁国市津河中学",
  "code": 34188104,
  "addition": null
}, {
  "area_code": 341881,
  "name": "宁国市三津中学",
  "code": 34188105,
  "addition": null
}, {
  "area_code": 371726,
  "name": "鄄城县第一中学",
  "code": 37172601,
  "addition": null
}, {
  "area_code": 371726,
  "name": "鄄城县实验中学",
  "code": 37172602,
  "addition": null
}, {
  "area_code": 371726,
  "name": "鄄城县第二中学",
  "code": 37172603,
  "addition": null
}, {
  "area_code": 371726,
  "name": "鄄城育英中学",
  "code": 37172604,
  "addition": null
}, {
  "area_code": 371726,
  "name": "鄄城县闫什镇中学",
  "code": 37172605,
  "addition": null
}, {
  "area_code": 371727,
  "name": "定陶县第一中学",
  "code": 37172701,
  "addition": null
}, {
  "area_code": 371727,
  "name": "定陶县第二中学",
  "code": 37172702,
  "addition": null
}, {
  "area_code": 371727,
  "name": "定陶县博文中学",
  "code": 37172703,
  "addition": null
}, {
  "area_code": 371728,
  "name": "东明县第一中学",
  "code": 37172801,
  "addition": null
}, {
  "area_code": 371728,
  "name": "东明县实验中学",
  "code": 37172802,
  "addition": null
}, {
  "area_code": 411602,
  "name": "周口颍河高级中学",
  "code": 41160208,
  "addition": null
}, {
  "area_code": 411625,
  "name": "郸城县才源高中",
  "code": 41162501,
  "addition": null
}, {
  "area_code": 411625,
  "name": "郸城县第二高级中学",
  "code": 41162502,
  "addition": null
}, {
  "area_code": 411625,
  "name": "郸城县第三高级中学",
  "code": 41162503,
  "addition": null
}, {
  "area_code": 411625,
  "name": "郸城县第一高级中学",
  "code": 41162504,
  "addition": null
}, {
  "area_code": 411625,
  "name": "郸城县希望高中",
  "code": 41162505,
  "addition": null
}, {
  "area_code": 411625,
  "name": "郸城县一高东校",
  "code": 41162506,
  "addition": null
}, {
  "area_code": 411621,
  "name": "扶沟县包屯高级中学",
  "code": 41162101,
  "addition": null
}, {
  "area_code": 411621,
  "name": "扶沟县第二高级中学",
  "code": 41162102,
  "addition": null
}, {
  "area_code": 411621,
  "name": "扶沟县高级中学",
  "code": 41162103,
  "addition": null
}, {
  "area_code": 411621,
  "name": "扶沟县韭园高级中学",
  "code": 41162104,
  "addition": null
}, {
  "area_code": 411621,
  "name": "扶沟县秋实高中",
  "code": 41162105,
  "addition": null
}, {
  "area_code": 411621,
  "name": "扶沟县县直高中",
  "code": 41162106,
  "addition": null
}, {
  "area_code": 411626,
  "name": "淮阳县第一高级中学",
  "code": 41162601,
  "addition": null
}, {
  "area_code": 411626,
  "name": "淮阳县第一中学",
  "code": 41162602,
  "addition": null
}, {
  "area_code": 411626,
  "name": "淮阳县淮阳一中分校",
  "code": 41162603,
  "addition": null
}, {
  "area_code": 411626,
  "name": "淮阳县淮阳中学",
  "code": 41162604,
  "addition": null
}, {
  "area_code": 411626,
  "name": "淮阳县淮阳中学分校",
  "code": 41162605,
  "addition": null
}, {
  "area_code": 411626,
  "name": "淮阳县实验高中",
  "code": 41162606,
  "addition": null
}, {
  "area_code": 411626,
  "name": "淮阳县朱集高中",
  "code": 41162607,
  "addition": null
}, {
  "area_code": 411628,
  "name": "鹿邑县伯阳双语学校",
  "code": 41162801,
  "addition": null
}, {
  "area_code": 411628,
  "name": "鹿邑县第二高级中学",
  "code": 41162802,
  "addition": null
}, {
  "area_code": 411628,
  "name": "鹿邑县第三高级中学",
  "code": 41162803,
  "addition": null
}, {
  "area_code": 411628,
  "name": "鹿邑县高级中学",
  "code": 41162804,
  "addition": null
}, {
  "area_code": 411628,
  "name": "鹿邑县远志高级中学",
  "code": 41162805,
  "addition": null
}, {
  "area_code": 411623,
  "name": "商水县第二高级中学",
  "code": 41162301,
  "addition": null
}, {
  "area_code": 411623,
  "name": "商水县第三中学",
  "code": 41162302,
  "addition": null
}, {
  "area_code": 411623,
  "name": "商水县第一高级中学",
  "code": 41162303,
  "addition": null
}, {
  "area_code": 411623,
  "name": "商水县中英文学校",
  "code": 41162304,
  "addition": null
}, {
  "area_code": 411624,
  "name": "沈丘县第二高级中学",
  "code": 41162401,
  "addition": null
}, {
  "area_code": 411624,
  "name": "沈丘县第七高级中学",
  "code": 41162402,
  "addition": null
}, {
  "area_code": 411624,
  "name": "沈丘县第三高级中学",
  "code": 41162403,
  "addition": null
}, {
  "area_code": 411624,
  "name": "沈丘县第四高级中学",
  "code": 41162404,
  "addition": null
}, {
  "area_code": 411624,
  "name": "沈丘县第五高级中学",
  "code": 41162405,
  "addition": null
}, {
  "area_code": 411624,
  "name": "沈丘县第一高级中学",
  "code": 41162406,
  "addition": null
}, {
  "area_code": 411624,
  "name": "沈丘县万龙高中",
  "code": 41162407,
  "addition": null
}, {
  "area_code": 411624,
  "name": "沈丘县县直高中",
  "code": 41162408,
  "addition": null
}, {
  "area_code": 411624,
  "name": "沈丘县醒民高级中学",
  "code": 41162409,
  "addition": null
}, {
  "area_code": 411627,
  "name": "河南华夏外国语高级中学",
  "code": 41162701,
  "addition": null
}, {
  "area_code": 411627,
  "name": "太康县第二高级中学",
  "code": 41162702,
  "addition": null
}, {
  "area_code": 411627,
  "name": "太康县第三高级中学",
  "code": 41162703,
  "addition": null
}, {
  "area_code": 411627,
  "name": "太康县第一高级中学",
  "code": 41162704,
  "addition": null
}, {
  "area_code": 411622,
  "name": "西华县第二高级中学",
  "code": 41162201,
  "addition": null
}, {
  "area_code": 411622,
  "name": "西华县第三高级中学",
  "code": 41162202,
  "addition": null
}, {
  "area_code": 411622,
  "name": "西华县第一高级中学",
  "code": 41162203,
  "addition": null
}, {
  "area_code": 411622,
  "name": "西华县黄泛区农场高级中学",
  "code": 41162204,
  "addition": null
}, {
  "area_code": 411622,
  "name": "西华县箕城高中",
  "code": 41162205,
  "addition": null
}, {
  "area_code": 411681,
  "name": "项城市第二高级中学",
  "code": 41168101,
  "addition": null
}, {
  "area_code": 411681,
  "name": "项城市第三高级中学",
  "code": 41168102,
  "addition": null
}, {
  "area_code": 411681,
  "name": "项城市第一高级中学",
  "code": 41168103,
  "addition": null
}, {
  "area_code": 411681,
  "name": "项城市第一高级中学分校",
  "code": 41168104,
  "addition": null
}, {
  "area_code": 411681,
  "name": "项城市二高分校",
  "code": 41168105,
  "addition": null
}, {
  "area_code": 411681,
  "name": "项城市老城高级中学",
  "code": 41168106,
  "addition": null
}, {
  "area_code": 411726,
  "name": "泌阳县第二高级中学",
  "code": 41172601,
  "addition": null
}, {
  "area_code": 411726,
  "name": "泌阳县第一高级中学",
  "code": 41172602,
  "addition": null
}, {
  "area_code": 411726,
  "name": "泌阳县官庄高级中学校",
  "code": 41172603,
  "addition": null
}, {
  "area_code": 411723,
  "name": "平舆县第二高级中学",
  "code": 41172301,
  "addition": null
}, {
  "area_code": 411723,
  "name": "平舆县第三高级中学",
  "code": 41172302,
  "addition": null
}, {
  "area_code": 411723,
  "name": "平舆县第一高级中学",
  "code": 41172303,
  "addition": null
}, {
  "area_code": 411723,
  "name": "平舆县实验中学",
  "code": 41172304,
  "addition": 原名平舆四高
}, {
  "area_code": 411725,
  "name": "确山县第一高级中学",
  "code": 41172501,
  "addition": null
}, {
  "area_code": 411725,
  "name": "驻马店市确山县二高",
  "code": 41172502,
  "addition": null
}, {
  "area_code": 411727,
  "name": "河南省汝南双语学校",
  "code": 41172701,
  "addition": null
}, {
  "area_code": 411727,
  "name": "汝南县第二高级中学",
  "code": 41172702,
  "addition": null
}, {
  "area_code": 411727,
  "name": "汝南县第一高级中学",
  "code": 41172703,
  "addition": null
}, {
  "area_code": 411722,
  "name": "上蔡县第二高级中学",
  "code": 41172201,
  "addition": null
}, {
  "area_code": 411722,
  "name": "河南省上蔡县第一高级中学",
  "code": 41172202,
  "addition": null
}, {
  "area_code": 411722,
  "name": "上蔡一高分校",
  "code": 41172203,
  "addition": null
}, {
  "area_code": 411728,
  "name": "遂平县第二高级中学",
  "code": 41172801,
  "addition": null
}, {
  "area_code": 411728,
  "name": "遂平县第一高级中学",
  "code": 41172802,
  "addition": null
}, {
  "area_code": 411721,
  "name": "西平县高级中学",
  "code": 41172101,
  "addition": null
}, {
  "area_code": 411721,
  "name": "西平县文成中学",
  "code": 41172102,
  "addition": null
}, {
  "area_code": 411721,
  "name": "西平县杨庄高级中学",
  "code": 41172103,
  "addition": null
}, {
  "area_code": 411729,
  "name": "新蔡县第二高级中学",
  "code": 41172901,
  "addition": null
}, {
  "area_code": 411729,
  "name": "新蔡县第一高级中学",
  "code": 41172902,
  "addition": null
}, {
  "area_code": 411729,
  "name": "新蔡县第一高级中学新校区（高三）",
  "code": 41172903,
  "addition": null
}, {
  "area_code": 411702,
  "name": "驻马店高级中学",
  "code": 41170201,
  "addition": null
}, {
  "area_code": 411702,
  "name": "驻马店敬业高中",
  "code": 41170202,
  "addition": null
}, {
  "area_code": 411702,
  "name": "驻马店市第二高级中学",
  "code": 41170203,
  "addition": null
}, {
  "area_code": 411702,
  "name": "驻马店市第三高级中学",
  "code": 41170204,
  "addition": null
}, {
  "area_code": 411702,
  "name": "驻马店市第一高级中学",
  "code": 41170205,
  "addition": null
}, {
  "area_code": 411702,
  "name": "驻马店市高级中学（分校）",
  "code": 41170206,
  "addition": null
}, {
  "area_code": 411702,
  "name": "驻马店市育秀高级中学",
  "code": 41170207,
  "addition": null
}, {
  "area_code": 411702,
  "name": "驻马店驿城高中",
  "code": 41170208,
  "addition": null
}, {
  "area_code": 411724,
  "name": "正阳县县直二高",
  "code": 41172401,
  "addition": null
}, {
  "area_code": 411724,
  "name": "正阳县县直一高",
  "code": 41172402,
  "addition": null
}, {
  "area_code": 411724,
  "name": "正阳育才外国语学校",
  "code": 41172403,
  "addition": null
}, {
  "area_code": 411724,
  "name": "驻马店市正阳县高级中学",
  "code": 41172404,
  "addition": null
}]
