[{
  "area_code": 110101,
  "name": "北京市第二十五中学 ",
  "code": 11010101,
  "addition": null
}, {
  "area_code": 110101,
  "name": "北京市第二十七中学",
  "code": 11010102,
  "addition": null
}, {
  "area_code": 110101,
  "name": "北京市第一六五中学 ",
  "code": 11010103,
  "addition": null
}, {
  "area_code": 110101,
  "name": "北京市第二十一中学 ",
  "code": 11010104,
  "addition": null
}, {
  "area_code": 110101,
  "name": "北京市第一二五中学 ",
  "code": 11010105,
  "addition": null
}, {
  "area_code": 110101,
  "name": "北京市第一四二中学 ",
  "code": 11010106,
  "addition": null
}, {
  "area_code": 110101,
  "name": "北京经济开发区实验学校 ",
  "code": 11010107,
  "addition": null
}, {
  "area_code": 110101,
  "name": "北京市第五十中学 ",
  "code": 11010108,
  "addition": null
}, {
  "area_code": 110101,
  "name": "北京市第十一中学 ",
  "code": 11010109,
  "addition": null
}, {
  "area_code": 110101,
  "name": "北京景山学校 ",
  "code": 11010110,
  "addition": null
}, {
  "area_code": 110101,
  "name": "北京市第一中学 ",
  "code": 11010111,
  "addition": null
}, {
  "area_code": 110101,
  "name": "北京市第二十四中学 ",
  "code": 11010112,
  "addition": null
}, {
  "area_code": 110101,
  "name": "中央工艺美术学院附属中学 ",
  "code": 11010113,
  "addition": 北京市美术职业学校
}, {
  "area_code": 110101,
  "name": "北京市翔宇中学 ",
  "code": 11010114,
  "addition": null
}, {
  "area_code": 110101,
  "name": "北京汇文中学 ",
  "code": 11010115,
  "addition": null
}, {
  "area_code": 110101,
  "name": "北京市第一零九中学 ",
  "code": 11010116,
  "addition": null
}, {
  "area_code": 110101,
  "name": "北京市第六十五中学 ",
  "code": 11010117,
  "addition": null
}, {
  "area_code": 110101,
  "name": "北京市第五中学 ",
  "code": 11010118,
  "addition": null
}, {
  "area_code": 110101,
  "name": "北京市东直门中学 ",
  "code": 11010119,
  "addition": null
}, {
  "area_code": 110101,
  "name": "北京市第五十五中学 ",
  "code": 11010120,
  "addition": null
}, {
  "area_code": 110101,
  "name": "北京市第一七一中学 ",
  "code": 11010121,
  "addition": null
}, {
  "area_code": 110101,
  "name": "北京市第九十六中学 ",
  "code": 11010122,
  "addition": null
}, {
  "area_code": 110101,
  "name": "北京市龙潭中学 ",
  "code": 11010123,
  "addition": null
}, {
  "area_code": 110101,
  "name": "北京市第五十中学分校 ",
  "code": 11010124,
  "addition": 原北京市第九十二中学
}, {
  "area_code": 110101,
  "name": "北京市第一六六中学",
  "code": 11010125,
  "addition": null
}, {
  "area_code": 110101,
  "name": "北京市第二十二中学",
  "code": 11010126,
  "addition": null
}, {
  "area_code": 110101,
  "name": "北京市第二中学",
  "code": 11010127,
  "addition": null
}, {
  "area_code": 110101,
  "name": "北京市第五十四中学",
  "code": 11010128,
  "addition": null
}, {
  "area_code": 110101,
  "name": "北京市第一七七中学",
  "code": 11010129,
  "addition": null
}, {
  "area_code": 110101,
  "name": "北京市崇文门中学",
  "code": 11010130,
  "addition": 原崇文区幼儿师范学校
}, {
  "area_code": 110101,
  "name": "北京市广渠门中学",
  "code": 11010131,
  "addition": null
}, {
  "area_code": 110101,
  "name": "北京市外国语学校",
  "code": 11010132,
  "addition": null
}, {
  "area_code": 110102,
  "name": "北京市第三十一中学 ",
  "code": 11010201,
  "addition": null
}, {
  "area_code": 110102,
  "name": "北京市第一六一中学 ",
  "code": 11010202,
  "addition": null
}, {
  "area_code": 110102,
  "name": "北京市第一五六中学 ",
  "code": 11010203,
  "addition": null
}, {
  "area_code": 110102,
  "name": "北京市第一五九中学 ",
  "code": 11010204,
  "addition": null
}, {
  "area_code": 110102,
  "name": "北京市鲁迅中学 ",
  "code": 11010205,
  "addition": null
}, {
  "area_code": 110102,
  "name": "北京市月坛中学 ",
  "code": 11010206,
  "addition": null
}, {
  "area_code": 110102,
  "name": "北京市第五十六中学 ",
  "code": 11010207,
  "addition": null
}, {
  "area_code": 110102,
  "name": "北京师范大学第二附属中学 ",
  "code": 11010208,
  "addition": null
}, {
  "area_code": 110102,
  "name": "北京市第十四中学 ",
  "code": 11010209,
  "addition": null
}, {
  "area_code": 110102,
  "name": "北京市回民学校 ",
  "code": 11010210,
  "addition": null
}, {
  "area_code": 110102,
  "name": "宣武区外国语实验学校 ",
  "code": 11010211,
  "addition": null
}, {
  "area_code": 110102,
  "name": "北京市第三十九中学 ",
  "code": 11010212,
  "addition": null
}, {
  "area_code": 110102,
  "name": "北京市第四十一中学 ",
  "code": 11010213,
  "addition": null
}, {
  "area_code": 110102,
  "name": "北京市二龙路中学 ",
  "code": 11010214,
  "addition": null
}, {
  "area_code": 110102,
  "name": "北京市第二一四中学 ",
  "code": 11010215,
  "addition": null
}, {
  "area_code": 110102,
  "name": "北京市第一五四中学 ",
  "code": 11010216,
  "addition": null
}, {
  "area_code": 110102,
  "name": "北京市西城区实验学校 ",
  "code": 11010217,
  "addition": null
}, {
  "area_code": 110102,
  "name": "北京市第四十三中学 ",
  "code": 11010218,
  "addition": null
}, {
  "area_code": 110102,
  "name": "北京市第六十六中学 ",
  "code": 11010219,
  "addition": null
}, {
  "area_code": 110102,
  "name": "北京市第六十三中学 ",
  "code": 11010220,
  "addition": null
}, {
  "area_code": 110102,
  "name": "北京第四中学 ",
  "code": 11010221,
  "addition": null
}, {
  "area_code": 110102,
  "name": "北京教育学院西城分院附属中学",
  "code": 11010222,
  "addition": null
}, {
  "area_code": 110102,
  "name": "北京市第八中学 ",
  "code": 11010223,
  "addition": null
}, {
  "area_code": 110102,
  "name": "北京师范大学附属实验中学 ",
  "code": 11010224,
  "addition": null
}, {
  "area_code": 110102,
  "name": "北京市铁路第二中学 ",
  "code": 11010225,
  "addition": null
}, {
  "area_code": 110102,
  "name": "北京市西城外国语学校 ",
  "code": 11010226,
  "addition": null
}, {
  "area_code": 110102,
  "name": "北京师范大学附属中学 ",
  "code": 11010227,
  "addition": null
}, {
  "area_code": 110102,
  "name": "北京市第十五中学 ",
  "code": 11010228,
  "addition": null
}, {
  "area_code": 110102,
  "name": "北京教育学院宣武分院附属中学 ",
  "code": 11010229,
  "addition": null
}, {
  "area_code": 110102,
  "name": "北京市徐悲鸿中学 ",
  "code": 11010230,
  "addition": null
}, {
  "area_code": 110102,
  "name": "北京市第十三中学",
  "code": 11010231,
  "addition": null
}, {
  "area_code": 110102,
  "name": "北京市第三中学",
  "code": 11010232,
  "addition": null
}, {
  "area_code": 110102,
  "name": "北京市第三十五中学",
  "code": 11010233,
  "addition": null
}, {
  "area_code": 110102,
  "name": "北京市第四十四中学",
  "code": 11010234,
  "addition": null
}, {
  "area_code": 110102,
  "name": "北京市铁路第三中学",
  "code": 11010235,
  "addition": null
}, {
  "area_code": 110102,
  "name": "北京市第七中学",
  "code": 11010236,
  "addition": null
}, {
  "area_code": 110102,
  "name": "北京市育才学校",
  "code": 11010237,
  "addition": null
}, {
  "area_code": 110102,
  "name": "北京市第六十二中学",
  "code": 11010238,
  "addition": null
}, {
  "area_code": 110102,
  "name": "北京市第一四0中学",
  "code": 11010239,
  "addition": null
}, {
  "area_code": 110102,
  "name": "北京市华夏女子中学",
  "code": 11010240,
  "addition": null
}, {
  "area_code": 110105,
  "name": "北京市日坛中学 ",
  "code": 11010501,
  "addition": null
}, {
  "area_code": 110105,
  "name": "北京市第一一九中学 ",
  "code": 11010502,
  "addition": null
}, {
  "area_code": 110105,
  "name": "北京市呼家楼中学 ",
  "code": 11010503,
  "addition": null
}, {
  "area_code": 110105,
  "name": "北京市实验外国语学校 ",
  "code": 11010504,
  "addition": null
}, {
  "area_code": 110105,
  "name": "北京轻工职院附属鸿阳中学 ",
  "code": 11010505,
  "addition": null
}, {
  "area_code": 110105,
  "name": "北京市垂杨柳中学 ",
  "code": 11010506,
  "addition": null
}, {
  "area_code": 110105,
  "name": "北京市第十七中学 ",
  "code": 11010507,
  "addition": null
}, {
  "area_code": 110105,
  "name": "北京市私立新亚中学 ",
  "code": 11010508,
  "addition": null
}, {
  "area_code": 110105,
  "name": "清华大学附属中学朝阳分校 ",
  "code": 11010509,
  "addition": null
}, {
  "area_code": 110105,
  "name": "北京国际艺术与科学学校 ",
  "code": 11010510,
  "addition": null
}, {
  "area_code": 110105,
  "name": "北京市第八十中学 ",
  "code": 11010511,
  "addition": null
}, {
  "area_code": 110105,
  "name": "北京市新源里中学 ",
  "code": 11010512,
  "addition": null
}, {
  "area_code": 110105,
  "name": "北京化工大学附属中学 ",
  "code": 11010513,
  "addition": null
}, {
  "area_code": 110105,
  "name": "北京工业大学附属中学 ",
  "code": 11010514,
  "addition": null
}, {
  "area_code": 110105,
  "name": "中国建筑材料科学研究院附属中学",
  "code": 11010515,
  "addition": null
}, {
  "area_code": 110105,
  "name": "北京市第九十四中学 ",
  "code": 11010516,
  "addition": null
}, {
  "area_code": 110105,
  "name": "中国人大附属中学朝阳学校 ",
  "code": 11010517,
  "addition": null
}, {
  "area_code": 110105,
  "name": "华中师大第一附中朝阳学校 ",
  "code": 11010518,
  "addition": null
}, {
  "area_code": 110105,
  "name": "北京市私立北方中学 ",
  "code": 11010519,
  "addition": null
}, {
  "area_code": 110105,
  "name": "北京市三里屯一中 ",
  "code": 11010520,
  "addition": 曾更名为北京机械工程学院附属中学
}, {
  "area_code": 110105,
  "name": "北京市和平街第一中学 ",
  "code": 11010521,
  "addition": null
}, {
  "area_code": 110105,
  "name": "北京青年政治学院附属中学 ",
  "code": 11010522,
  "addition": null
}, {
  "area_code": 110105,
  "name": "北京市劲松第四中学 ",
  "code": 11010523,
  "addition": null
}, {
  "area_code": 110105,
  "name": "北京信息工程学院附属中学 ",
  "code": 11010524,
  "addition": null
}, {
  "area_code": 110105,
  "name": "北京拔萃双语学校 ",
  "code": 11010525,
  "addition": null
}, {
  "area_code": 110105,
  "name": "北京市劲松职业高级中学",
  "code": 11010526,
  "addition": null
}, {
  "area_code": 110105,
  "name": "北京市亚奥学校 ",
  "code": 11010527,
  "addition": null
}, {
  "area_code": 110105,
  "name": "北京市陈经纶中学",
  "code": 11010528,
  "addition": null
}, {
  "area_code": 110105,
  "name": "北京服装学院附属中学",
  "code": 11010529,
  "addition": null
}, {
  "area_code": 110105,
  "name": "北京中医学院附属中学",
  "code": 11010530,
  "addition": null
}, {
  "area_code": 110105,
  "name": "北京市东方德才学校",
  "code": 11010531,
  "addition": null
}, {
  "area_code": 110105,
  "name": "北京西藏中学",
  "code": 11010532,
  "addition": null
}, {
  "area_code": 110105,
  "name": "北京市朝阳外国语学校",
  "code": 11010533,
  "addition": null
}, {
  "area_code": 110105,
  "name": "团结湖第三中学",
  "code": 11010534,
  "addition": null
}, {
  "area_code": 110105,
  "name": "北京市华侨城黄冈中学",
  "code": 11010535,
  "addition": null
}, {
  "area_code": 110105,
  "name": "北京实验外国语学校",
  "code": 11010536,
  "addition": null
}, {
  "area_code": 110106,
  "name": "首都医科大学附属中学 ",
  "code": 11010601,
  "addition": null
}, {
  "area_code": 110106,
  "name": "北京市明德中学 ",
  "code": 11010602,
  "addition": null
}, {
  "area_code": 110106,
  "name": "丰台区东铁匠营第一中学 ",
  "code": 11010603,
  "addition": null
}, {
  "area_code": 110106,
  "name": "北京市丰台区丰台第一中学 ",
  "code": 11010604,
  "addition": null
}, {
  "area_code": 110106,
  "name": "北京市第十中学 ",
  "code": 11010605,
  "addition": null
}, {
  "area_code": 110106,
  "name": "北京市第十八中学 ",
  "code": 11010606,
  "addition": null
}, {
  "area_code": 110106,
  "name": "北京市航天中学 ",
  "code": 11010607,
  "addition": null
}, {
  "area_code": 110106,
  "name": "北京市第十二中学 ",
  "code": 11010608,
  "addition": null
}, {
  "area_code": 110106,
  "name": "北京八中怡海分校 ",
  "code": 11010609,
  "addition": null
}, {
  "area_code": 110106,
  "name": "北京市云岗中学 ",
  "code": 11010610,
  "addition": null
}, {
  "area_code": 110106,
  "name": "北京市中桥外国语学校 ",
  "code": 11010611,
  "addition": null
}, {
  "area_code": 110106,
  "name": "北京市大成学校 ",
  "code": 11010612,
  "addition": null
}, {
  "area_code": 110106,
  "name": "北京市丰台区丰台第二中学 ",
  "code": 11010613,
  "addition": null
}, {
  "area_code": 110106,
  "name": "北京长辛店铁路学校 ",
  "code": 11010614,
  "addition": null
}, {
  "area_code": 110106,
  "name": "北大附属实验学校",
  "code": 11010615,
  "addition": null
}, {
  "area_code": 110106,
  "name": "丰台区东高地第一中学",
  "code": 11010616,
  "addition": null
}, {
  "area_code": 110106,
  "name": "北京市丰台实验学校",
  "code": 11010617,
  "addition": null
}, {
  "area_code": 110106,
  "name": "首都师范大学附属丽泽中学",
  "code": 11010618,
  "addition": null
}, {
  "area_code": 110106,
  "name": "北京市丰华中学",
  "code": 11010619,
  "addition": null
}, {
  "area_code": 110107,
  "name": "北京市京源学校 ",
  "code": 11010701,
  "addition": null
}, {
  "area_code": 110107,
  "name": "北京市礼文中学 ",
  "code": 11010702,
  "addition": null
}, {
  "area_code": 110107,
  "name": "首钢矿业一中 ",
  "code": 11010703,
  "addition": null
}, {
  "area_code": 110107,
  "name": "北京市第九中学 ",
  "code": 11010704,
  "addition": null
}, {
  "area_code": 110107,
  "name": "北京市古城高级中学 ",
  "code": 11010705,
  "addition": null
}, {
  "area_code": 110107,
  "name": "北师大励耘实验学校",
  "code": 11010706,
  "addition": null
}, {
  "area_code": 110107,
  "name": "北京市苹果园中学",
  "code": 11010707,
  "addition": null
}, {
  "area_code": 110108,
  "name": "北京市育英中学 ",
  "code": 11010801,
  "addition": null
}, {
  "area_code": 110108,
  "name": "北京市玉渊潭中学 ",
  "code": 11010802,
  "addition": null
}, {
  "area_code": 110108,
  "name": "北京理工大学附属中学分校 ",
  "code": 11010803,
  "addition": null
}, {
  "area_code": 110108,
  "name": "北京市二十一世纪实验学校 ",
  "code": 11010804,
  "addition": null
}, {
  "area_code": 110108,
  "name": "北方交通大学附属中学 ",
  "code": 11010805,
  "addition": null
}, {
  "area_code": 110108,
  "name": "中国地质大学附属中学 ",
  "code": 11010806,
  "addition": null
}, {
  "area_code": 110108,
  "name": "北京市中关村中学 ",
  "code": 11010807,
  "addition": null
}, {
  "area_code": 110108,
  "name": "北京市第十九中学 ",
  "code": 11010808,
  "addition": null
}, {
  "area_code": 110108,
  "name": "北京市一佳高级中学 ",
  "code": 11010809,
  "addition": null
}, {
  "area_code": 110108,
  "name": "北京医学院附属中学 ",
  "code": 11010810,
  "addition": null
}, {
  "area_code": 110108,
  "name": "北京农业大学附属中学 ",
  "code": 11010811,
  "addition": null
}, {
  "area_code": 110108,
  "name": "北京市师达中学 ",
  "code": 11010812,
  "addition": null
}, {
  "area_code": 110108,
  "name": "北京市翠微中学 ",
  "code": 11010813,
  "addition": null
}, {
  "area_code": 110108,
  "name": "北京市海淀实验中学 ",
  "code": 11010814,
  "addition": null
}, {
  "area_code": 110108,
  "name": "首都师范大学附属中学 ",
  "code": 11010815,
  "addition": null
}, {
  "area_code": 110108,
  "name": "中央民族大学附属中学 ",
  "code": 11010816,
  "addition": null
}, {
  "area_code": 110108,
  "name": "北京市知春里中学 ",
  "code": 11010817,
  "addition": null
}, {
  "area_code": 110108,
  "name": "北京石油学院附属中学 ",
  "code": 11010818,
  "addition": null
}, {
  "area_code": 110108,
  "name": "北京市八一中学 ",
  "code": 11010819,
  "addition": null
}, {
  "area_code": 110108,
  "name": "北京市第六十七中学 ",
  "code": 11010820,
  "addition": null
}, {
  "area_code": 110108,
  "name": "北京市陶行知中学 ",
  "code": 11010821,
  "addition": null
}, {
  "area_code": 110108,
  "name": "北京市北外附属外国语学校 ",
  "code": 11010822,
  "addition": null
}, {
  "area_code": 110108,
  "name": "人大附中第二分校",
  "code": 11010823,
  "addition": 北京市蓝靛厂中学
}, {
  "area_code": 110108,
  "name": "北京市十一学校 ",
  "code": 11010824,
  "addition": null
}, {
  "area_code": 110108,
  "name": "北京市第五十七中学 ",
  "code": 11010825,
  "addition": null
}, {
  "area_code": 110108,
  "name": "海淀区教师进修学校附属实验学校",
  "code": 11010826,
  "addition": null
}, {
  "area_code": 110108,
  "name": "北京理工大学附属中学 ",
  "code": 11010827,
  "addition": null
}, {
  "area_code": 110108,
  "name": "北京市第一0五中学 ",
  "code": 11010828,
  "addition": null
}, {
  "area_code": 110108,
  "name": "北京市钢铁学院附属中学 ",
  "code": 11010829,
  "addition": null
}, {
  "area_code": 110108,
  "name": "北京大学附属中学 ",
  "code": 11010830,
  "addition": null
}, {
  "area_code": 110108,
  "name": "中国人民大学附属中学 ",
  "code": 11010831,
  "addition": null
}, {
  "area_code": 110108,
  "name": "清华大学附属中学 ",
  "code": 11010832,
  "addition": null
}, {
  "area_code": 110108,
  "name": "北京航空航天大学附属中学 ",
  "code": 11010833,
  "addition": null
}, {
  "area_code": 110108,
  "name": "北京市永定路中学 ",
  "code": 11010834,
  "addition": null
}, {
  "area_code": 110108,
  "name": "北京市科迪实验中学 ",
  "code": 11010835,
  "addition": null
}, {
  "area_code": 110108,
  "name": "北京市太平路中学",
  "code": 11010836,
  "addition": null
}, {
  "area_code": 110108,
  "name": "首都师范大学第二附属中学",
  "code": 11010837,
  "addition": 北京市花园村中学
}, {
  "area_code": 110108,
  "name": "北京市六一中学",
  "code": 11010838,
  "addition": null
}, {
  "area_code": 110108,
  "name": "北京市万寿寺中学",
  "code": 11010839,
  "addition": null
}, {
  "area_code": 110108,
  "name": "北京市明光中学",
  "code": 11010840,
  "addition": null
}, {
  "area_code": 110108,
  "name": "北京矿业学院附属中学",
  "code": 11010841,
  "addition": null
}, {
  "area_code": 110108,
  "name": "中国人民大学附属中学分校",
  "code": 11010842,
  "addition": null
}, {
  "area_code": 110108,
  "name": "北京市第一零一中学",
  "code": 11010843,
  "addition": null
}, {
  "area_code": 110108,
  "name": "北京市第二十中学",
  "code": 11010844,
  "addition": null
}, {
  "area_code": 110108,
  "name": "首都师范大学附属育新学校",
  "code": 11010845,
  "addition": null
}, {
  "area_code": 110108,
  "name": "北京市温泉第二中学",
  "code": 11010846,
  "addition": null
}, {
  "area_code": 110108,
  "name": "北京市立新学校",
  "code": 11010847,
  "addition": null
}, {
  "area_code": 110109,
  "name": "北京市大峪中学 ",
  "code": 11010901,
  "addition": null
}, {
  "area_code": 110109,
  "name": "北京市育园中学",
  "code": 11010902,
  "addition": null
}, {
  "area_code": 110111,
  "name": "北京师范大学燕化附属中学 ",
  "code": 11011101,
  "addition": null
}, {
  "area_code": 110111,
  "name": "北京市房山区韩村河中学 ",
  "code": 11011102,
  "addition": null
}, {
  "area_code": 110111,
  "name": "北京市房山区良乡中学 ",
  "code": 11011103,
  "addition": null
}, {
  "area_code": 110111,
  "name": "北京市房山区坨里中学 ",
  "code": 11011104,
  "addition": null
}, {
  "area_code": 110111,
  "name": "首都师范大学附属良乡实验学校 ",
  "code": 11011105,
  "addition": null
}, {
  "area_code": 110111,
  "name": "北京市房山区房山中学 ",
  "code": 11011106,
  "addition": null
}, {
  "area_code": 110111,
  "name": "北京市房山区交道中学 ",
  "code": 11011107,
  "addition": null
}, {
  "area_code": 110111,
  "name": "北京电力设备总厂电业中学 ",
  "code": 11011108,
  "addition": null
}, {
  "area_code": 110111,
  "name": "北京师范大学良乡附属中学 ",
  "code": 11011109,
  "addition": null
}, {
  "area_code": 110111,
  "name": "北京市房山区周口店中学 ",
  "code": 11011110,
  "addition": null
}, {
  "area_code": 110111,
  "name": "北京市房山区南尚乐中学 ",
  "code": 11011111,
  "addition": null
}, {
  "area_code": 110111,
  "name": "北京市博文学校",
  "code": 11011112,
  "addition": null
}, {
  "area_code": 110111,
  "name": "北京市房山区实验中学",
  "code": 11011113,
  "addition": null
}, {
  "area_code": 110111,
  "name": "北京市房山区琉璃河中学",
  "code": 11011114,
  "addition": null
}, {
  "area_code": 110111,
  "name": "北京市房山区长沟中学",
  "code": 11011115,
  "addition": null
}, {
  "area_code": 110112,
  "name": "北京市通州区潞河中学 ",
  "code": 11011201,
  "addition": null
}, {
  "area_code": 110112,
  "name": "北京市通州区第二中学 ",
  "code": 11011202,
  "addition": null
}, {
  "area_code": 110112,
  "name": "北京市通州区永乐店中学 ",
  "code": 11011203,
  "addition": null
}, {
  "area_code": 110112,
  "name": "北京市通州区运河中学 ",
  "code": 11011204,
  "addition": null
}, {
  "area_code": 110112,
  "name": "北京市第二中学通州分校 ",
  "code": 11011205,
  "addition": null
}, {
  "area_code": 110112,
  "name": "北京市通州区第三中学 ",
  "code": 11011206,
  "addition": null
}, {
  "area_code": 110112,
  "name": "北京中加学校 ",
  "code": 11011207,
  "addition": null
}, {
  "area_code": 110112,
  "name": "北京市通州区第四中学",
  "code": 11011208,
  "addition": null
}, {
  "area_code": 110112,
  "name": "北京市通州区潞河中学",
  "code": 11011209,
  "addition": null
}, {
  "area_code": 110113,
  "name": "北京市顺义区第二中学 ",
  "code": 11011301,
  "addition": null
}, {
  "area_code": 110113,
  "name": "北京市顺义区第一中学 ",
  "code": 11011302,
  "addition": null
}, {
  "area_code": 110113,
  "name": "北京市第四中学顺义分校 ",
  "code": 11011303,
  "addition": null
}, {
  "area_code": 110113,
  "name": "北京市顺义牛栏山第一中学 ",
  "code": 11011304,
  "addition": null
}, {
  "area_code": 110113,
  "name": "北京市顺义区第九中学 ",
  "code": 11011305,
  "addition": null
}, {
  "area_code": 110113,
  "name": "北京市新英才学校",
  "code": 11011306,
  "addition": null
}, {
  "area_code": 110113,
  "name": "北京市顺义区杨镇第一中学",
  "code": 11011307,
  "addition": null
}, {
  "area_code": 110114,
  "name": "北京市昌平区第一中学 ",
  "code": 11011401,
  "addition": null
}, {
  "area_code": 110114,
  "name": "北京市昌平区第二中学 ",
  "code": 11011402,
  "addition": null
}, {
  "area_code": 110114,
  "name": "北京市昌平区南口学校 ",
  "code": 11011403,
  "addition": null
}, {
  "area_code": 110114,
  "name": "北京市昌平区小汤山中学 ",
  "code": 11011404,
  "addition": null
}, {
  "area_code": 110114,
  "name": "北京市昌平区前锋学校 ",
  "code": 11011405,
  "addition": null
}, {
  "area_code": 110114,
  "name": "北京市私立汇佳学校 ",
  "code": 11011406,
  "addition": null
}, {
  "area_code": 110114,
  "name": "北京市中关村外国语学校 ",
  "code": 11011407,
  "addition": null
}, {
  "area_code": 110114,
  "name": "北京市昌平区第三中学 ",
  "code": 11011408,
  "addition": null
}, {
  "area_code": 110114,
  "name": "北京市昌平区沙河中学 ",
  "code": 11011409,
  "addition": null
}, {
  "area_code": 110114,
  "name": "北京王府学校 ",
  "code": 11011410,
  "addition": null
}, {
  "area_code": 110114,
  "name": "北京市昌平实验中学",
  "code": 11011411,
  "addition": null
}, {
  "area_code": 110114,
  "name": "北京市昌平区第二中学分校",
  "code": 11011412,
  "addition": null
}, {
  "area_code": 110114,
  "name": "北京市昌平区第一中学分校",
  "code": 11011413,
  "addition": null
}, {
  "area_code": 110115,
  "name": "北京市大兴第一中学 ",
  "code": 11011501,
  "addition": null
}, {
  "area_code": 110115,
  "name": "北京师范大学大兴附属中学 ",
  "code": 11011502,
  "addition": null
}, {
  "area_code": 110115,
  "name": "北京市大兴区兴华中学 ",
  "code": 11011503,
  "addition": null
}, {
  "area_code": 110115,
  "name": "北京市大兴区榆垡中学 ",
  "code": 11011504,
  "addition": null
}, {
  "area_code": 110115,
  "name": "北京市大兴区第八中学 ",
  "code": 11011505,
  "addition": null
}, {
  "area_code": 110115,
  "name": "北京市大兴区采育中学 ",
  "code": 11011506,
  "addition": null
}, {
  "area_code": 110115,
  "name": "首都师范大学大兴附属中学 ",
  "code": 11011507,
  "addition": null
}, {
  "area_code": 110115,
  "name": "北京市大兴区第三中学 ",
  "code": 11011508,
  "addition": null
}, {
  "area_code": 110115,
  "name": "北京市私立君谊中学 ",
  "code": 11011509,
  "addition": null
}, {
  "area_code": 110115,
  "name": "北京市大兴区魏善庄中学 ",
  "code": 11011510,
  "addition": null
}, {
  "area_code": 110115,
  "name": "北京市大兴区第五中学",
  "code": 11011511,
  "addition": null
}, {
  "area_code": 110115,
  "name": "北京市大兴区旧宫中学",
  "code": 11011512,
  "addition": null
}, {
  "area_code": 110115,
  "name": "经济技术开发区实验学校",
  "code": 11011513,
  "addition": null
}, {
  "area_code": 110116,
  "name": "北京市怀柔区第一中学 ",
  "code": 11011601,
  "addition": null
}, {
  "area_code": 110116,
  "name": "北京市怀柔区第二中学 ",
  "code": 11011602,
  "addition": null
}, {
  "area_code": 110116,
  "name": "北京市怀柔区红螺寺中学 ",
  "code": 11011603,
  "addition": null
}, {
  "area_code": 110116,
  "name": "北京市怀柔区第一职业高中",
  "code": 11011604,
  "addition": null
}, {
  "area_code": 110117,
  "name": "北京市平谷中学 ",
  "code": 11011701,
  "addition": null
}, {
  "area_code": 110117,
  "name": "北京师范大学附属平谷中学 ",
  "code": 11011702,
  "addition": null
}, {
  "area_code": 110117,
  "name": "北京市平谷区育才中学",
  "code": 11011703,
  "addition": null
}, {
  "area_code": 110117,
  "name": "北京市平谷区第六中学 ",
  "code": 11011704,
  "addition": null
}, {
  "area_code": 110117,
  "name": "平谷区金海湖第一中学",
  "code": 11011705,
  "addition": null
}, {
  "area_code": 110228,
  "name": "首都师范大学附属密云中学 ",
  "code": 11022801,
  "addition": null
}, {
  "area_code": 110228,
  "name": "密云县第二中学 ",
  "code": 11022802,
  "addition": null
}, {
  "area_code": 110228,
  "name": "北京师范大学密云实验中学 ",
  "code": 11022803,
  "addition": null
}, {
  "area_code": 110228,
  "name": "密云县太师庄中学",
  "code": 11022804,
  "addition": null
}, {
  "area_code": 110229,
  "name": "北京市延庆县第一中学 ",
  "code": 11022901,
  "addition": null
}, {
  "area_code": 110229,
  "name": "北京市延庆县第二中学 ",
  "code": 11022902,
  "addition": null
}, {
  "area_code": 110229,
  "name": "北京市延庆县第三中学 ",
  "code": 11022903,
  "addition": null
}, {
  "area_code": 110229,
  "name": "北京市延庆县第五中学",
  "code": 11022904,
  "addition": null
}, {
  "area_code": 430611,
  "name": "岳阳市君山中学",
  "code": 43061102,
  "addition": null
}, {
  "area_code": 430621,
  "name": "岳阳县第一中学 ",
  "code": 43062101,
  "addition": null
}, {
  "area_code": 430621,
  "name": "岳阳县第二中学 ",
  "code": 43062102,
  "addition": null
}, {
  "area_code": 430621,
  "name": "岳阳县第三中学 ",
  "code": 43062103,
  "addition": null
}, {
  "area_code": 430621,
  "name": "岳阳县第四中学",
  "code": 43062104,
  "addition": null
}, {
  "area_code": 430623,
  "name": "华容县第一中学 ",
  "code": 43062301,
  "addition": null
}, {
  "area_code": 430623,
  "name": "华容县第二中学 ",
  "code": 43062302,
  "addition": null
}, {
  "area_code": 430623,
  "name": "华容县怀乡中学",
  "code": 43062303,
  "addition": null
}, {
  "area_code": 430623,
  "name": "华容县第三中学 ",
  "code": 43062304,
  "addition": null
}, {
  "area_code": 430623,
  "name": "华容县第五中学",
  "code": 43062305,
  "addition": null
}, {
  "area_code": 430624,
  "name": "湘阴县第一中学 ",
  "code": 43062401,
  "addition": null
}, {
  "area_code": 430624,
  "name": "湘阴县知源中学 ",
  "code": 43062402,
  "addition": null
}, {
  "area_code": 430624,
  "name": "湘阴县第二中学",
  "code": 43062403,
  "addition": null
}, {
  "area_code": 430624,
  "name": "湘阴县第四中学 ",
  "code": 43062404,
  "addition": null
}, {
  "area_code": 430624,
  "name": "湘阴县第五中学 ",
  "code": 43062405,
  "addition": null
}, {
  "area_code": 430624,
  "name": "湘阴县第六中学",
  "code": 43062406,
  "addition": null
}, {
  "area_code": 430626,
  "name": "平江县第一中学 ",
  "code": 43062601,
  "addition": null
}, {
  "area_code": 430626,
  "name": "平江县第二中学 ",
  "code": 43062602,
  "addition": null
}, {
  "area_code": 430626,
  "name": "平江县第五中学",
  "code": 43062603,
  "addition": null
}, {
  "area_code": 430626,
  "name": "平江县第三中学 ",
  "code": 43062604,
  "addition": null
}, {
  "area_code": 430626,
  "name": "平江县第四中学",
  "code": 43062605,
  "addition": null
}, {
  "area_code": 430681,
  "name": "汩罗市第一中学 ",
  "code": 43068101,
  "addition": null
}, {
  "area_code": 430681,
  "name": "汩罗市第二中学 ",
  "code": 43068102,
  "addition": null
}, {
  "area_code": 430681,
  "name": "汩罗市第三中学 ",
  "code": 43068103,
  "addition": null
}, {
  "area_code": 430681,
  "name": "汩罗市第四中学",
  "code": 43068104,
  "addition": null
}, {
  "area_code": 430681,
  "name": "汩罗市第五中学",
  "code": 43068105,
  "addition": null
}, {
  "area_code": 430682,
  "name": "临湘市第一中学 ",
  "code": 43068201,
  "addition": null
}, {
  "area_code": 430682,
  "name": "临湘市第二中学 ",
  "code": 43068202,
  "addition": null
}, {
  "area_code": 430682,
  "name": "临湘市第三中学",
  "code": 43068203,
  "addition": null
}, {
  "area_code": 430682,
  "name": "临湘市第五中学 ",
  "code": 43068204,
  "addition": null
}, {
  "area_code": 430681,
  "name": "岳阳市屈原管理区屈原一中",
  "code": 43068106,
  "addition": null
}, {
  "area_code": 430702,
  "name": "常德市第一中学 ",
  "code": 43070201,
  "addition": null
}, {
  "area_code": 430702,
  "name": "常德市第二中学 ",
  "code": 43070202,
  "addition": null
}, {
  "area_code": 430702,
  "name": "常德市芷兰实验学校 ",
  "code": 43070203,
  "addition": null
}, {
  "area_code": 430702,
  "name": "常德市第七中学 ",
  "code": 43070204,
  "addition": null
}, {
  "area_code": 430702,
  "name": "常德市第三中学 ",
  "code": 43070205,
  "addition": null
}, {
  "area_code": 430702,
  "name": "湖南常德市汇文中学 ",
  "code": 43070206,
  "addition": null
}, {
  "area_code": 430702,
  "name": "常德市第六中学",
  "code": 43070207,
  "addition": null
}, {
  "area_code": 430702,
  "name": "常德市三闾实验学校",
  "code": 43070208,
  "addition": null
}, {
  "area_code": 430703,
  "name": "常德市鼎城区一中 ",
  "code": 43070301,
  "addition": null
}, {
  "area_code": 430703,
  "name": "常德市鼎城区二中 ",
  "code": 43070302,
  "addition": null
}, {
  "area_code": 430703,
  "name": "湖南省常德淮阳中学 ",
  "code": 43070303,
  "addition": null
}, {
  "area_code": 430703,
  "name": "常德市鼎城区九中 ",
  "code": 43070304,
  "addition": 2003 年前为常德市鼎城区武陵完全中学
}, {
  "area_code": 430703,
  "name": "常德市鼎城区三中 ",
  "code": 43070305,
  "addition": null
}, {
  "area_code": 430703,
  "name": "常德市西洞庭一中",
  "code": 43070306,
  "addition": null
}, {
  "area_code": 430703,
  "name": "常德市鼎城区六中",
  "code": 43070307,
  "addition": null
}, {
  "area_code": 430721,
  "name": "安乡县第一中学 ",
  "code": 43072101,
  "addition": null
}, {
  "area_code": 430721,
  "name": "安乡县第二中学 ",
  "code": 43072102,
  "addition": null
}, {
  "area_code": 430721,
  "name": "安乡县第三中学",
  "code": 43072103,
  "addition": null
}, {
  "area_code": 430721,
  "name": "安乡县第五中学 ",
  "code": 43072104,
  "addition": null
}, {
  "area_code": 430722,
  "name": "汉寿县第一中学 ",
  "code": 43072201,
  "addition": null
}, {
  "area_code": 430722,
  "name": "汉寿县第二中学 ",
  "code": 43072202,
  "addition": null
}, {
  "area_code": 430722,
  "name": "汉寿县第三中学 ",
  "code": 43072203,
  "addition": null
}, {
  "area_code": 430722,
  "name": "汉寿县第五中学",
  "code": 43072204,
  "addition": null
}, {
  "area_code": 430723,
  "name": "湖南省澧县第一中学 ",
  "code": 43072301,
  "addition": null
}, {
  "area_code": 430723,
  "name": "湖南省澧县第二中学",
  "code": 43072302,
  "addition": null
}, {
  "area_code": 430723,
  "name": "湖南省澧县第三中学",
  "code": 43072303,
  "addition": null
}, {
  "area_code": 430723,
  "name": "湖南省澧县第四中学",
  "code": 43072304,
  "addition": null
}, {
  "area_code": 430723,
  "name": "湖南省澧县第六中学",
  "code": 43072305,
  "addition": null
}, {
  "area_code": 430724,
  "name": "临澧县第一中学 ",
  "code": 43072401,
  "addition": null
}, {
  "area_code": 430724,
  "name": "临澧县第二中学 ",
  "code": 43072402,
  "addition": null
}, {
  "area_code": 430724,
  "name": "临澧县第四中学",
  "code": 43072403,
  "addition": null
}, {
  "area_code": 430725,
  "name": "桃源县第一中学 ",
  "code": 43072501,
  "addition": null
}, {
  "area_code": 430725,
  "name": "桃源县第二中学 ",
  "code": 43072502,
  "addition": null
}, {
  "area_code": 430725,
  "name": "桃源县第四中学 ",
  "code": 43072503,
  "addition": null
}, {
  "area_code": 430725,
  "name": "桃源县第八中学",
  "code": 43072504,
  "addition": null
}, {
  "area_code": 430725,
  "name": "桃源县第九中学",
  "code": 43072505,
  "addition": null
}, {
  "area_code": 430726,
  "name": "湖南省石门县第一中学 ",
  "code": 43072601,
  "addition": null
}, {
  "area_code": 430726,
  "name": "湖南省石门县第二中学 ",
  "code": 43072602,
  "addition": null
}, {
  "area_code": 430726,
  "name": "湖南省石门县第五中学 ",
  "code": 43072603,
  "addition": null
}, {
  "area_code": 430726,
  "name": "湖南省石门县第六中学",
  "code": 43072604,
  "addition": null
}, {
  "area_code": 430726,
  "name": "石门县瑜远中学",
  "code": 43072605,
  "addition": null
}, {
  "area_code": 430781,
  "name": "津市市第一中学 ",
  "code": 43078101,
  "addition": null
}, {
  "area_code": 430781,
  "name": "湖南高平教育集团津市三中 ",
  "code": 43078102,
  "addition": null
}, {
  "area_code": 430722,
  "name": "西湖区第一中学 ",
  "code": 43072205,
  "addition": null
}, {
  "area_code": 430802,
  "name": "湖南省张家界市一中 ",
  "code": 43080201,
  "addition": null
}, {
  "area_code": 430802,
  "name": "张家界天门中学 ",
  "code": 43080202,
  "addition": null
}, {
  "area_code": 430802,
  "name": "张家界桥辉中学",
  "code": 43080203,
  "addition": null
}, {
  "area_code": 430811,
  "name": "张家界市武陵源一中 ",
  "code": 43081101,
  "addition": null
}, {
  "area_code": 430822,
  "name": "桑植县第一中学 ",
  "code": 43082201,
  "addition": null
}, {
  "area_code": 430822,
  "name": "桑植县第四中学",
  "code": 43082202,
  "addition": null
}, {
  "area_code": 430822,
  "name": "湖南省贺龙中学 ",
  "code": 43082203,
  "addition": null
}, {
  "area_code": 430821,
  "name": "慈利县第一中学 ",
  "code": 43082101,
  "addition": null
}, {
  "area_code": 430821,
  "name": "慈利县第四中学 ",
  "code": 43082102,
  "addition": null
}, {
  "area_code": 430821,
  "name": "慈利县第三中学 ",
  "code": 43082103,
  "addition": null
}, {
  "area_code": 430821,
  "name": "慈利县第二中学",
  "code": 43082104,
  "addition": null
}, {
  "area_code": 430821,
  "name": "慈利县第六中学",
  "code": 43082105,
  "addition": null
}, {
  "area_code": 430902,
  "name": "益阳市第一中学 ",
  "code": 43090201,
  "addition": null
}, {
  "area_code": 430902,
  "name": "益阳市六中高中部 ",
  "code": 43090202,
  "addition": null
}, {
  "area_code": 430902,
  "name": "益阳市第十五中学 ",
  "code": 43090203,
  "addition": null
}, {
  "area_code": 430902,
  "name": "资阳区迎风镇高平迎风中学 ",
  "code": 43090204,
  "addition": null
}, {
  "area_code": 430902,
  "name": "益阳市第十三中学 ",
  "code": 43090205,
  "addition": null
}, {
  "area_code": 430902,
  "name": "益阳市高坪中学 ",
  "code": 43090206,
  "addition": null
}, {
  "area_code": 430902,
  "name": "益阳市第十四中学 ",
  "code": 43090207,
  "addition": null
}, {
  "area_code": 430902,
  "name": "益阳市第十六中学 ",
  "code": 43090208,
  "addition": null
}, {
  "area_code": 430902,
  "name": "湖南益阳国基实验学校 ",
  "code": 43090209,
  "addition": null
}, {
  "area_code": 430902,
  "name": "益阳市第十二中学",
  "code": 43090210,
  "addition": null
}, {
  "area_code": 430902,
  "name": "益阳市第十七中学",
  "code": 43090211,
  "addition": null
}, {
  "area_code": 430902,
  "name": "益阳市朝阳国际实验学校",
  "code": 43090212,
  "addition": null
}, {
  "area_code": 430903,
  "name": "益阳市箴言中学 ",
  "code": 43090301,
  "addition": null
}, {
  "area_code": 430921,
  "name": "湖南省南县第一中学 ",
  "code": 43092101,
  "addition": null
}, {
  "area_code": 430921,
  "name": "益阳大通湖区千山红镇中学 ",
  "code": 43092102,
  "addition": null
}, {
  "area_code": 430921,
  "name": "湖南省南县方谷学校 ",
  "code": 43092103,
  "addition": null
}, {
  "area_code": 430921,
  "name": "湖南省南县第六中学 ",
  "code": 43092104,
  "addition": null
}, {
  "area_code": 430921,
  "name": "益阳市大通湖区一中",
  "code": 43092105,
  "addition": null
}, {
  "area_code": 430922,
  "name": "湖南省桃江县第一中学 ",
  "code": 43092201,
  "addition": null
}, {
  "area_code": 430922,
  "name": "湖南省桃江县第六中学 ",
  "code": 43092202,
  "addition": null
}, {
  "area_code": 430922,
  "name": "湖南省桃江县第四中学 ",
  "code": 43092203,
  "addition": null
}, {
  "area_code": 430922,
  "name": "湖南省桃江县第三中学",
  "code": 43092204,
  "addition": null
}, {
  "area_code": 430922,
  "name": "湖南省桃江县第七中学",
  "code": 43092205,
  "addition": null
}, {
  "area_code": 430923,
  "name": "安化县第一中学 ",
  "code": 43092301,
  "addition": null
}, {
  "area_code": 430923,
  "name": "安化县第二中学 ",
  "code": 43092302,
  "addition": null
}, {
  "area_code": 430923,
  "name": "安化县实验高级中学 ",
  "code": 43092303,
  "addition": null
}, {
  "area_code": 430923,
  "name": "安化县第五中学",
  "code": 43092304,
  "addition": null
}, {
  "area_code": 430981,
  "name": "沅江市第一中学 ",
  "code": 43098101,
  "addition": null
}, {
  "area_code": 430981,
  "name": "沅江市第二中学 ",
  "code": 43098102,
  "addition": null
}, {
  "area_code": 430981,
  "name": "沅江市茶盘洲镇中学",
  "code": 43098103,
  "addition": null
}, {
  "area_code": 430981,
  "name": "沅江市第七中学 ",
  "code": 43098104,
  "addition": null
}, {
  "area_code": 430981,
  "name": "沅江市第三中学 ",
  "code": 43098105,
  "addition": null
}, {
  "area_code": 430981,
  "name": "沅江市第四中学",
  "code": 43098106,
  "addition": null
}, {
  "area_code": 431002,
  "name": "郴州市第一完全中学 ",
  "code": 43100201,
  "addition": null
}, {
  "area_code": 431002,
  "name": "郴州市第三完全中学 ",
  "code": 43100202,
  "addition": null
}, {
  "area_code": 431002,
  "name": "郴州市明星学校 ",
  "code": 43100203,
  "addition": null
}, {
  "area_code": 431002,
  "name": "郴州菁华园学校",
  "code": 43100204,
  "addition": null
}, {
  "area_code": 431003,
  "name": "郴州市第二中学 ",
  "code": 43100301,
  "addition": null
}, {
  "area_code": 431003,
  "name": "郴州市第十一中学 ",
  "code": 43100302,
  "addition": null
}, {
  "area_code": 431003,
  "name": "郴州市湘南中学",
  "code": 43100303,
  "addition": null
}, {
  "area_code": 431003,
  "name": "郴州市第十二中学 ",
  "code": 43100304,
  "addition": null
}, {
  "area_code": 431021,
  "name": "桂阳县第三中学 ",
  "code": 43102101,
  "addition": null
}, {
  "area_code": 431021,
  "name": "桂阳县第一中学 ",
  "code": 43102102,
  "addition": null
}, {
  "area_code": 431021,
  "name": "桂阳县第二中学",
  "code": 43102103,
  "addition": null
}, {
  "area_code": 431022,
  "name": "宜章县第六中学 ",
  "code": 43102201,
  "addition": null
}, {
  "area_code": 431022,
  "name": "宜章县第四中学 ",
  "code": 43102202,
  "addition": null
}, {
  "area_code": 431022,
  "name": "宜章县第一中学",
  "code": 43102203,
  "addition": null
}, {
  "area_code": 431023,
  "name": "永兴县第一中学 ",
  "code": 43102301,
  "addition": null
}, {
  "area_code": 431023,
  "name": "永兴县第二中学 ",
  "code": 43102302,
  "addition": null
}, {
  "area_code": 431023,
  "name": "永兴县第三中学",
  "code": 43102303,
  "addition": null
}, {
  "area_code": 431023,
  "name": "永兴县第五中学",
  "code": 43102304,
  "addition": null
}, {
  "area_code": 431024,
  "name": "嘉禾县第一中学 ",
  "code": 43102401,
  "addition": null
}, {
  "area_code": 431025,
  "name": "临武县第一中学 ",
  "code": 43102501,
  "addition": null
}, {
  "area_code": 431025,
  "name": "临武县第二中学 ",
  "code": 43102502,
  "addition": null
}, {
  "area_code": 431026,
  "name": "汝城县第一中学 ",
  "code": 43102601,
  "addition": null
}, {
  "area_code": 431026,
  "name": "汝城县第二中学 ",
  "code": 43102602,
  "addition": null
}, {
  "area_code": 431027,
  "name": "桂东县第一中学 ",
  "code": 43102701,
  "addition": null
}, {
  "area_code": 431028,
  "name": "安仁县第一中学 ",
  "code": 43102801,
  "addition": null
}, {
  "area_code": 431028,
  "name": "安仁县第三中学 ",
  "code": 43102802,
  "addition": null
}, {
  "area_code": 431081,
  "name": "资兴市第一中学 ",
  "code": 43108101,
  "addition": null
}, {
  "area_code": 431081,
  "name": "资兴市市立中学",
  "code": 43108102,
  "addition": null
}, {
  "area_code": 431102,
  "name": "永州市第一中学 ",
  "code": 43110201,
  "addition": null
}, {
  "area_code": 431102,
  "name": "永州市第三中学 ",
  "code": 43110202,
  "addition": null
}, {
  "area_code": 431102,
  "name": "湖南省永州五中 ",
  "code": 43110203,
  "addition": null
}, {
  "area_code": 431102,
  "name": "湖南省永州七中",
  "code": 43110204,
  "addition": null
}, {
  "area_code": 431103,
  "name": "永州市第二中学 ",
  "code": 43110301,
  "addition": null
}, {
  "area_code": 431103,
  "name": "湖南省永州四中 ",
  "code": 43110302,
  "addition": null
}, {
  "area_code": 431103,
  "name": "永州市第六中学 ",
  "code": 43110303,
  "addition": null
}, {
  "area_code": 431103,
  "name": "永州市第八中学",
  "code": 43110304,
  "addition": null
}, {
  "area_code": 431121,
  "name": "祁阳县第一中学 ",
  "code": 43112101,
  "addition": null
}, {
  "area_code": 431121,
  "name": "祁阳县第二中学 ",
  "code": 43112102,
  "addition": null
}, {
  "area_code": 431121,
  "name": "祁阳县云龙中学",
  "code": 43112103,
  "addition": null
}, {
  "area_code": 431121,
  "name": "祁阳县陶铸中学 ",
  "code": 43112104,
  "addition": null
}, {
  "area_code": 431121,
  "name": "祁阳县第四中学 ",
  "code": 43112105,
  "addition": null
}, {
  "area_code": 431121,
  "name": "祁阳县第七中学",
  "code": 43112106,
  "addition": null
}, {
  "area_code": 431122,
  "name": "东安县第一中学 ",
  "code": 43112201,
  "addition": null
}, {
  "area_code": 431122,
  "name": "东安县耀祥中学 ",
  "code": 43112202,
  "addition": null
}, {
  "area_code": 431123,
  "name": "双牌县第二中学",
  "code": 43112301,
  "addition": null
}, {
  "area_code": 431124,
  "name": "湖南省道县第一中学 ",
  "code": 43112401,
  "addition": null
}, {
  "area_code": 431124,
  "name": "湖南省道县第二中学 ",
  "code": 43112402,
  "addition": null
}, {
  "area_code": 431124,
  "name": "湖南省道县第五中学",
  "code": 43112403,
  "addition": null
}, {
  "area_code": 431125,
  "name": "江永县第一中学 ",
  "code": 43112501,
  "addition": null
}, {
  "area_code": 431125,
  "name": "江永县第二中学 ",
  "code": 43112502,
  "addition": null
}, {
  "area_code": 431125,
  "name": "江永县第三中学",
  "code": 43112503,
  "addition": null
}, {
  "area_code": 431126,
  "name": "湖南省宁远县第一中学 ",
  "code": 43112601,
  "addition": null
}, {
  "area_code": 431126,
  "name": "湖南省宁远县第二中学 ",
  "code": 43112602,
  "addition": null
}, {
  "area_code": 431126,
  "name": "湖南省宁远县第三中学 ",
  "code": 43112603,
  "addition": null
}, {
  "area_code": 431128,
  "name": "湖南省新田县第一中学 ",
  "code": 43112801,
  "addition": null
}, {
  "area_code": 431128,
  "name": "新田县二中",
  "code": 43112802,
  "addition": null
}, {
  "area_code": 431127,
  "name": "蓝山县第二中学 ",
  "code": 43112701,
  "addition": null
}, {
  "area_code": 431127,
  "name": "蓝山县第四中学",
  "code": 43112702,
  "addition": null
}, {
  "area_code": 431129,
  "name": "江华瑶族自治县第一中学 ",
  "code": 43112901,
  "addition": null
}, {
  "area_code": 431129,
  "name": "江华瑶族自治县第二中学 ",
  "code": 43112902,
  "addition": null
}, {
  "area_code": 431129,
  "name": "江华瑶族自治县第三中学 ",
  "code": 43112903,
  "addition": null
}, {
  "area_code": 431201,
  "name": "怀化市第一中学",
  "code": 43120101,
  "addition": null
}, {
  "area_code": 431201,
  "name": "怀化市第五中学 ",
  "code": 43120102,
  "addition": null
}, {
  "area_code": 431201,
  "name": "怀化市第三中学 ",
  "code": 43120103,
  "addition": null
}, {
  "area_code": 431201,
  "name": "湖南省怀化铁路第一中学",
  "code": 43120104,
  "addition": null
}, {
  "area_code": 431221,
  "name": "中方县第一中学 ",
  "code": 43122101,
  "addition": null
}, {
  "area_code": 431221,
  "name": "中方县第二中学",
  "code": 43122102,
  "addition": null
}, {
  "area_code": 431222,
  "name": "沅陵县第一中学 ",
  "code": 43122201,
  "addition": null
}, {
  "area_code": 431222,
  "name": "沅陵县第二中学 ",
  "code": 43122202,
  "addition": null
}, {
  "area_code": 431222,
  "name": "沅陵县第六中学",
  "code": 43122203,
  "addition": null
}, {
  "area_code": 431222,
  "name": "沅陵县第七中学 ",
  "code": 43122204,
  "addition": null
}, {
  "area_code": 431222,
  "name": "沅陵县第四中学",
  "code": 43122205,
  "addition": null
}, {
  "area_code": 431223,
  "name": "辰溪县第一中学 ",
  "code": 43122301,
  "addition": null
}, {
  "area_code": 431223,
  "name": "辰溪县第二中学",
  "code": 43122302,
  "addition": null
}, {
  "area_code": 431224,
  "name": "溆浦县第一中学 ",
  "code": 43122401,
  "addition": null
}, {
  "area_code": 431224,
  "name": "溆浦县第二中学 ",
  "code": 43122402,
  "addition": null
}, {
  "area_code": 431224,
  "name": "溆浦县楚才高中 ",
  "code": 43122403,
  "addition": null
}, {
  "area_code": 431224,
  "name": "溆浦县江维中学 ",
  "code": 43122404,
  "addition": null
}, {
  "area_code": 431224,
  "name": "溆浦县第三中学 ",
  "code": 43122405,
  "addition": null
}, {
  "area_code": 431224,
  "name": "溆浦县凯文高级中学",
  "code": 43122406,
  "addition": null
}, {
  "area_code": 431224,
  "name": "溆浦县第四中学",
  "code": 43122407,
  "addition": null
}, {
  "area_code": 431225,
  "name": "会同县第一中学",
  "code": 43122501,
  "addition": null
}, {
  "area_code": 431225,
  "name": "会同县第二中学",
  "code": 43122502,
  "addition": null
}, {
  "area_code": 431225,
  "name": "会同县第三中学",
  "code": 43122503,
  "addition": null
}, {
  "area_code": 431226,
  "name": "麻阳苗族自治县第一中学 ",
  "code": 43122601,
  "addition": null
}, {
  "area_code": 431226,
  "name": "麻阳苗族自治县民族中学 ",
  "code": 43122602,
  "addition": null
}, {
  "area_code": 431226,
  "name": "麻阳县松竹园学校",
  "code": 43122603,
  "addition": null
}, {
  "area_code": 431227,
  "name": "新晃县第一中学 ",
  "code": 43122701,
  "addition": null
}, {
  "area_code": 431228,
  "name": "芷江侗族自治县第一中学 ",
  "code": 43122801,
  "addition": null
}, {
  "area_code": 431229,
  "name": "靖州苗族侗族自治县第一中学",
  "code": 43122901,
  "addition": null
}, {
  "area_code": 431230,
  "name": "通道侗族自治县第一中学 ",
  "code": 43123001,
  "addition": null
}, {
  "area_code": 431230,
  "name": "通道侗族自治县城关中学",
  "code": 43123002,
  "addition": null
}, {
  "area_code": 431281,
  "name": "洪江市黔阳一中 ",
  "code": 43128101,
  "addition": null
}, {
  "area_code": 431281,
  "name": "洪江市黔阳二中 ",
  "code": 43128102,
  "addition": null
}, {
  "area_code": 431281,
  "name": "怀化市洪江区第一中学",
  "code": 43128103,
  "addition": null
}, {
  "area_code": 431281,
  "name": "洪江市黔阳三中 ",
  "code": 43128104,
  "addition": null
}, {
  "area_code": 431281,
  "name": "洪江市芙蓉中学",
  "code": 43128105,
  "addition": null
}, {
  "area_code": 431302,
  "name": "娄底市第一中学 ",
  "code": 43130201,
  "addition": null
}, {
  "area_code": 431302,
  "name": "娄底市第二中学 ",
  "code": 43130202,
  "addition": null
}, {
  "area_code": 431302,
  "name": "娄底市第六中学 ",
  "code": 43130203,
  "addition": null
}, {
  "area_code": 431302,
  "name": "娄底市第五中学 ",
  "code": 43130204,
  "addition": null
}, {
  "area_code": 431302,
  "name": "娄底市第三中学 ",
  "code": 43130205,
  "addition": null
}, {
  "area_code": 431302,
  "name": "湖南省娄底市春元中学 ",
  "code": 43130206,
  "addition": null
}, {
  "area_code": 431302,
  "name": "娄底市第四中学",
  "code": 43130207,
  "addition": null
}, {
  "area_code": 431302,
  "name": "娄底市蓝圃学校",
  "code": 43130208,
  "addition": null
}, {
  "area_code": 431321,
  "name": "湖南省双峰一中 ",
  "code": 43132101,
  "addition": null
}, {
  "area_code": 431321,
  "name": "湖南省双峰二中 ",
  "code": 43132102,
  "addition": null
}, {
  "area_code": 431321,
  "name": "湖南省双峰七中 ",
  "code": 43132103,
  "addition": null
}, {
  "area_code": 431321,
  "name": "湖南省双峰五中 ",
  "code": 43132104,
  "addition": null
}, {
  "area_code": 431321,
  "name": "双峰县开源中学",
  "code": 43132105,
  "addition": null
}, {
  "area_code": 431321,
  "name": "湖南省双峰三中 ",
  "code": 43132106,
  "addition": null
}, {
  "area_code": 431321,
  "name": "双峰县第八中学 ",
  "code": 43132107,
  "addition": null
}, {
  "area_code": 431321,
  "name": "湖南省双峰四中",
  "code": 43132108,
  "addition": null
}, {
  "area_code": 431321,
  "name": "曾国藩实验学校",
  "code": 43132109,
  "addition": null
}, {
  "area_code": 431322,
  "name": "新化县第一中学 ",
  "code": 43132201,
  "addition": null
}, {
  "area_code": 431322,
  "name": "新化县第二中学 ",
  "code": 43132202,
  "addition": null
}, {
  "area_code": 431322,
  "name": "新化县上梅中学 ",
  "code": 43132203,
  "addition": null
}, {
  "area_code": 431322,
  "name": "新化县第五中学 ",
  "code": 43132204,
  "addition": null
}, {
  "area_code": 431322,
  "name": "新化县第十六中学",
  "code": 43132205,
  "addition": null
}, {
  "area_code": 431322,
  "name": "新化县第三中学 ",
  "code": 43132206,
  "addition": null
}, {
  "area_code": 431322,
  "name": "新化县第十一中学 ",
  "code": 43132207,
  "addition": null
}, {
  "area_code": 431322,
  "name": "新化县第四中学",
  "code": 43132208,
  "addition": null
}, {
  "area_code": 431322,
  "name": "新化县第十二中学",
  "code": 43132209,
  "addition": null
}, {
  "area_code": 431381,
  "name": "冷水江市第一中学 ",
  "code": 43138101,
  "addition": null
}, {
  "area_code": 431381,
  "name": "冷水江市第六中学 ",
  "code": 43138102,
  "addition": null
}, {
  "area_code": 431381,
  "name": "冷水江市第七中学 ",
  "code": 43138103,
  "addition": null
}, {
  "area_code": 431381,
  "name": "冷水江市欧健双语学校",
  "code": 43138104,
  "addition": null
}, {
  "area_code": 431382,
  "name": "湖南省涟源市第一中学 ",
  "code": 43138201,
  "addition": null
}, {
  "area_code": 431382,
  "name": "涟源市私立行知中学 ",
  "code": 43138202,
  "addition": null
}, {
  "area_code": 431382,
  "name": "涟源市第六中学",
  "code": 43138203,
  "addition": null
}, {
  "area_code": 431382,
  "name": "涟源市第四中学 ",
  "code": 43138204,
  "addition": null
}, {
  "area_code": 431382,
  "name": "涟源市第二中学 ",
  "code": 43138205,
  "addition": null
}, {
  "area_code": 431382,
  "name": "涟源市第三中学",
  "code": 43138206,
  "addition": null
}, {
  "area_code": 433101,
  "name": "湖南湘西州民族中学 ",
  "code": 43310101,
  "addition": null
}, {
  "area_code": 433101,
  "name": "吉首市第一中学 ",
  "code": 43310102,
  "addition": null
}, {
  "area_code": 433101,
  "name": "湘西博雅高级中学",
  "code": 43310103,
  "addition": null
}, {
  "area_code": 433101,
  "name": "吉首市民族中学 ",
  "code": 43310104,
  "addition": null
}, {
  "area_code": 433101,
  "name": "吉首市小溪桥中学",
  "code": 43310105,
  "addition": null
}, {
  "area_code": 433122,
  "name": "泸溪县第一中学 ",
  "code": 43312201,
  "addition": null
}, {
  "area_code": 433122,
  "name": "泸溪县第二中学 ",
  "code": 43312202,
  "addition": null
}, {
  "area_code": 433122,
  "name": "泸溪县第五中学",
  "code": 43312203,
  "addition": null
}, {
  "area_code": 433123,
  "name": "凤凰县高级中学 ",
  "code": 43312301,
  "addition": null
}, {
  "area_code": 433123,
  "name": "凤凰县文昌实验中学 ",
  "code": 43312302,
  "addition": null
}, {
  "area_code": 433123,
  "name": "凤凰县华鑫实验中学",
  "code": 43312303,
  "addition": 凤凰县华鑫中学
}, {
  "area_code": 433124,
  "name": "花垣县边城高级中学 ",
  "code": 43312401,
  "addition": null
}, {
  "area_code": 433124,
  "name": "花垣县民族中学 ",
  "code": 43312402,
  "addition": null
}, {
  "area_code": 433125,
  "name": "保靖县民族中学 ",
  "code": 43312501,
  "addition": null
}, {
  "area_code": 433126,
  "name": "古丈县第一中学",
  "code": 43312601,
  "addition": null
}, {
  "area_code": 433127,
  "name": "永顺县第一中学 ",
  "code": 43312701,
  "addition": null
}, {
  "area_code": 433127,
  "name": "永顺县第二中学 ",
  "code": 43312702,
  "addition": null
}, {
  "area_code": 433127,
  "name": "永顺县第三中学",
  "code": 43312703,
  "addition": null
}, {
  "area_code": 433127,
  "name": "湘西州第二民族中学 ",
  "code": 43312704,
  "addition": null
}, {
  "area_code": 433130,
  "name": "龙山县高级中学 ",
  "code": 43313001,
  "addition": null
}, {
  "area_code": 433130,
  "name": "龙山县里耶民族中学",
  "code": 43313002,
  "addition": null
}, {
  "area_code": 433130,
  "name": "皇仓中学 ",
  "code": 43313003,
  "addition": null
}, {
  "area_code": 410103,
  "name": "郑州市第五十三中学",
  "code": 41010310,
  "addition": null
}, {
  "area_code": 410103,
  "name": "郑州市第一0一中学",
  "code": 41010311,
  "addition": 原郑州铁路一中
}, {
  "area_code": 410181,
  "name": "巩义市第一高级中学",
  "code": 41018101,
  "addition": null
}, {
  "area_code": 410181,
  "name": "巩义市第二高级中学",
  "code": 41018102,
  "addition": null
}, {
  "area_code": 410181,
  "name": "巩义市第三高级中学",
  "code": 41018103,
  "addition": null
}, {
  "area_code": 410181,
  "name": "巩义市第四高级中学",
  "code": 41018104,
  "addition": null
}, {
  "area_code": 410181,
  "name": "巩义市第五高级中学",
  "code": 41018105,
  "addition": null
}, {
  "area_code": 410181,
  "name": "巩义市第六高级中学",
  "code": 41018106,
  "addition": null
}, {
  "area_code": 410181,
  "name": "巩义市第七高级中学",
  "code": 41018107,
  "addition": null
}, {
  "area_code": 410181,
  "name": "巩义市第八高级中学",
  "code": 41018108,
  "addition": null
}, {
  "area_code": 410181,
  "name": "巩义市市直高中",
  "code": 41018109,
  "addition": 原巩县县城高中
}, {
  "area_code": 410181,
  "name": "河南省巩义中学",
  "code": 41018110,
  "addition": null
}, {
  "area_code": 410104,
  "name": "郑州市第二十九中学",
  "code": 41010401,
  "addition": null
}, {
  "area_code": 410104,
  "name": "郑州市第十中学",
  "code": 41010402,
  "addition": null
}, {
  "area_code": 410104,
  "name": "郑州市第五中学",
  "code": 41010403,
  "addition": null
}, {
  "area_code": 410104,
  "name": "郑州市扶轮外国语学校",
  "code": 41010404,
  "addition": null
}, {
  "area_code": 410108,
  "name": "郑州市第二十中学",
  "code": 41010801,
  "addition": null
}, {
  "area_code": 410108,
  "name": "郑州市第十二中学",
  "code": 41010802,
  "addition": null
}, {
  "area_code": 410105,
  "name": "河南建业外国语中学",
  "code": 41010501,
  "addition": null
}, {
  "area_code": 410105,
  "name": "河南省实验中学",
  "code": 41010502,
  "addition": null
}, {
  "area_code": 410105,
  "name": " 河南省实验文博学校",
  "code": 41010503,
  "addition": 河南省实验中学分校
}, {
  "area_code": 410105,
  "name": "郑州大学第二附属中学",
  "code": 41010504,
  "addition": null
}, {
  "area_code": 410105,
  "name": "郑州金山桥学校",
  "code": 41010505,
  "addition": null
}, {
  "area_code": 410105,
  "name": "郑州九中分校",
  "code": 41010506,
  "addition": null
}, {
  "area_code": 410105,
  "name": "郑州女子高级中学",
  "code": 41010507,
  "addition": null
}, {
  "area_code": 410105,
  "name": "郑州市第103中学",
  "code": 41010508,
  "addition": null
}, {
  "area_code": 410105,
  "name": "郑州市第二十六中学",
  "code": 41010509,
  "addition": null
}, {
  "area_code": 410105,
  "name": "郑州市第二十三中学",
  "code": 41010510,
  "addition": null
}, {
  "area_code": 410105,
  "name": "郑州市第九中学",
  "code": 41010511,
  "addition": null
}, {
  "area_code": 410105,
  "name": "郑州市第七中学",
  "code": 41010512,
  "addition": null
}, {
  "area_code": 410105,
  "name": "郑州市第七中学分校",
  "code": 41010513,
  "addition": null
}, {
  "area_code": 410105,
  "name": "郑州市第三十一中学",
  "code": 41010514,
  "addition": null
}, {
  "area_code": 410105,
  "name": "郑州市第十七中学",
  "code": 41010515,
  "addition": null
}, {
  "area_code": 410105,
  "name": "郑州市第十一中学",
  "code": 41010516,
  "addition": null
}, {
  "area_code": 410105,
  "name": "郑州市第十一中学实验分校",
  "code": 41010517,
  "addition": null
}, {
  "area_code": 410105,
  "name": "郑州市第四十七中学",
  "code": 41010518,
  "addition": null
}, {
  "area_code": 410105,
  "name": "郑州市第四十七中学分校",
  "code": 41010519,
  "addition": null
}, {
  "area_code": 410105,
  "name": "郑州市回民中学",
  "code": 41010520,
  "addition": 又称郑州市六中， 回民六中
}, {
  "area_code": 410106,
  "name": "上街区实验高中",
  "code": 41010601,
  "addition": null
}, {
  "area_code": 410106,
  "name": "郑州市第二外国语学校",
  "code": 41010602,
  "addition": null
}, {
  "area_code": 410101,
  "name": "河南省郑州中学",
  "code": 41010101,
  "addition": null
}, {
  "area_code": 410101,
  "name": "郑州市第三十六中学",
  "code": 41010102,
  "addition": null
}, {
  "area_code": 410183,
  "name": "新密市第二高级中学",
  "code": 41018301,
  "addition": null
}, {
  "area_code": 410183,
  "name": "新密市第一高级中学",
  "code": 41018302,
  "addition": null
}, {
  "area_code": 410183,
  "name": "新密市实验高中",
  "code": 41018303,
  "addition": null
}, {
  "area_code": 410183,
  "name": "新密市英华中学",
  "code": 41018304,
  "addition": null
}, {
  "area_code": 410184,
  "name": "北大附中河南分校",
  "code": 41018401,
  "addition": null
}, {
  "area_code": 410184,
  "name": "河南省新郑市第三中学",
  "code": 41018402,
  "addition": null
}, {
  "area_code": 410184,
  "name": "新郑市第二中学",
  "code": 41018403,
  "addition": null
}, {
  "area_code": 410184,
  "name": "新郑市第二中学分校",
  "code": 41018404,
  "addition": null
}, {
  "area_code": 410184,
  "name": "新郑市第一中学",
  "code": 41018405,
  "addition": null
}, {
  "area_code": 410184,
  "name": "新郑市第一中学分校",
  "code": 41018406,
  "addition": null
}, {
  "area_code": 410184,
  "name": "新郑市外国语高级中学",
  "code": 41018407,
  "addition": null
}, {
  "area_code": 410182,
  "name": "河南省荥阳市第三高级中学",
  "code": 41018201,
  "addition": null
}, {
  "area_code": 410182,
  "name": "河南省荥阳市高级中学",
  "code": 41018202,
  "addition": null
}, {
  "area_code": 410182,
  "name": "荥阳市第二高级中学",
  "code": 41018203,
  "addition": null
}, {
  "area_code": 410182,
  "name": "荥阳市实验高中",
  "code": 41018204,
  "addition": null
}, {
  "area_code": 410122,
  "name": "中牟县第一高级中学",
  "code": 41012201,
  "addition": null
}, {
  "area_code": 410122,
  "name": "中牟县第二高级中学",
  "code": 41012202,
  "addition": null
}, {
  "area_code": 410122,
  "name": "中牟县第四高级中学",
  "code": 41012203,
  "addition": null
}, {
  "area_code": 410102,
  "name": "河南足球学校",
  "code": 41010201,
  "addition": null
}, {
  "area_code": 410102,
  "name": "郑州市第二十四中学",
  "code": 41010202,
  "addition": null
}, {
  "area_code": 410102,
  "name": "郑州华夏中学",
  "code": 41010203,
  "addition": null
}, {
  "area_code": 410102,
  "name": "郑州十六中分校",
  "code": 41010204,
  "addition": null
}, {
  "area_code": 410102,
  "name": "郑州市第十九中学",
  "code": 41010205,
  "addition": null
}, {
  "area_code": 410102,
  "name": "郑州市第十六中学",
  "code": 41010206,
  "addition": null
}, {
  "area_code": 410102,
  "name": "郑州市第一中学",
  "code": 41010207,
  "addition": null
}, {
  "area_code": 410102,
  "name": "郑州嵩阳中学",
  "code": 41010208,
  "addition": null
}, {
  "area_code": 410102,
  "name": "郑州外国语学校",
  "code": 41010209,
  "addition": null
}, {
  "area_code": 410102,
  "name": "郑州外国语学校分校",
  "code": 41010210,
  "addition": null
}, {
  "area_code": 410102,
  "name": "郑州新意中学",
  "code": 41010211,
  "addition": null
}, {
  "area_code": 410102,
  "name": "郑州一中实验分校",
  "code": 41010212,
  "addition": null
}, {
  "area_code": 411602,
  "name": "龙水实验高中",
  "code": 41160201,
  "addition": null
}, {
  "area_code": 411602,
  "name": "周口第三高级中学",
  "code": 41160202,
  "addition": null
}, {
  "area_code": 411602,
  "name": "周口市第二高级中学",
  "code": 41160203,
  "addition": null
}, {
  "area_code": 411602,
  "name": "周口市第一高级中学",
  "code": 41160204,
  "addition": null
}, {
  "area_code": 411602,
  "name": "周口市华龙高中",
  "code": 41160205,
  "addition": null
}, {
  "area_code": 411602,
  "name": "周口市宇立学校",
  "code": 41160206,
  "addition": null
}, {
  "area_code": 411602,
  "name": "周口市育新高级中学",
  "code": 41160207,
  "addition": null
}, {
  "area_code": 411602,
  "name": "周口颍河高级中学",
  "code": 41160208,
  "addition": null
}, {
  "area_code": 411625,
  "name": "郸城县才源高中",
  "code": 41162501,
  "addition": null
}, {
  "area_code": 411625,
  "name": "郸城县第二高级中学",
  "code": 41162502,
  "addition": null
}, {
  "area_code": 411625,
  "name": "郸城县第三高级中学",
  "code": 41162503,
  "addition": null
}, {
  "area_code": 411625,
  "name": "郸城县第一高级中学",
  "code": 41162504,
  "addition": null
}, {
  "area_code": 411625,
  "name": "郸城县希望高中",
  "code": 41162505,
  "addition": null
}, {
  "area_code": 411625,
  "name": "郸城县一高东校",
  "code": 41162506,
  "addition": null
}, {
  "area_code": 411621,
  "name": "扶沟县包屯高级中学",
  "code": 41162101,
  "addition": null
}, {
  "area_code": 411621,
  "name": "扶沟县第二高级中学",
  "code": 41162102,
  "addition": null
}, {
  "area_code": 411621,
  "name": "扶沟县高级中学",
  "code": 41162103,
  "addition": null
}, {
  "area_code": 411621,
  "name": "扶沟县韭园高级中学",
  "code": 41162104,
  "addition": null
}, {
  "area_code": 411621,
  "name": "扶沟县秋实高中",
  "code": 41162105,
  "addition": null
}, {
  "area_code": 411621,
  "name": "扶沟县县直高中",
  "code": 41162106,
  "addition": null
}, {
  "area_code": 411626,
  "name": "淮阳县第一高级中学",
  "code": 41162601,
  "addition": null
}, {
  "area_code": 411626,
  "name": "淮阳县第一中学",
  "code": 41162602,
  "addition": null
}, {
  "area_code": 411626,
  "name": "淮阳县淮阳一中分校",
  "code": 41162603,
  "addition": null
}, {
  "area_code": 411626,
  "name": "淮阳县淮阳中学",
  "code": 41162604,
  "addition": null
}, {
  "area_code": 411626,
  "name": "淮阳县淮阳中学分校",
  "code": 41162605,
  "addition": null
}, {
  "area_code": 411626,
  "name": "淮阳县实验高中",
  "code": 41162606,
  "addition": null
}, {
  "area_code": 411626,
  "name": "淮阳县朱集高中",
  "code": 41162607,
  "addition": null
}, {
  "area_code": 411628,
  "name": "鹿邑县伯阳双语学校",
  "code": 41162801,
  "addition": null
}, {
  "area_code": 411628,
  "name": "鹿邑县第二高级中学",
  "code": 41162802,
  "addition": null
}, {
  "area_code": 411628,
  "name": "鹿邑县第三高级中学",
  "code": 41162803,
  "addition": null
}, {
  "area_code": 411628,
  "name": "鹿邑县高级中学",
  "code": 41162804,
  "addition": null
}, {
  "area_code": 411628,
  "name": "鹿邑县远志高级中学",
  "code": 41162805,
  "addition": null
}, {
  "area_code": 411623,
  "name": "商水县第二高级中学",
  "code": 41162301,
  "addition": null
}, {
  "area_code": 411623,
  "name": "商水县第三中学",
  "code": 41162302,
  "addition": null
}, {
  "area_code": 411623,
  "name": "商水县第一高级中学",
  "code": 41162303,
  "addition": null
}, {
  "area_code": 411623,
  "name": "商水县中英文学校",
  "code": 41162304,
  "addition": null
}, {
  "area_code": 411624,
  "name": "沈丘县第二高级中学",
  "code": 41162401,
  "addition": null
}, {
  "area_code": 411624,
  "name": "沈丘县第七高级中学",
  "code": 41162402,
  "addition": null
}, {
  "area_code": 411624,
  "name": "沈丘县第三高级中学",
  "code": 41162403,
  "addition": null
}, {
  "area_code": 411624,
  "name": "沈丘县第四高级中学",
  "code": 41162404,
  "addition": null
}, {
  "area_code": 411624,
  "name": "沈丘县第五高级中学",
  "code": 41162405,
  "addition": null
}, {
  "area_code": 411624,
  "name": "沈丘县第一高级中学",
  "code": 41162406,
  "addition": null
}, {
  "area_code": 411624,
  "name": "沈丘县万龙高中",
  "code": 41162407,
  "addition": null
}, {
  "area_code": 411624,
  "name": "沈丘县县直高中",
  "code": 41162408,
  "addition": null
}, {
  "area_code": 411624,
  "name": "沈丘县醒民高级中学",
  "code": 41162409,
  "addition": null
}, {
  "area_code": 411627,
  "name": "河南华夏外国语高级中学",
  "code": 41162701,
  "addition": null
}, {
  "area_code": 411627,
  "name": "太康县第二高级中学",
  "code": 41162702,
  "addition": null
}, {
  "area_code": 411627,
  "name": "太康县第三高级中学",
  "code": 41162703,
  "addition": null
}, {
  "area_code": 411627,
  "name": "太康县第一高级中学",
  "code": 41162704,
  "addition": null
}, {
  "area_code": 411622,
  "name": "西华县第二高级中学",
  "code": 41162201,
  "addition": null
}, {
  "area_code": 411622,
  "name": "西华县第三高级中学",
  "code": 41162202,
  "addition": null
}, {
  "area_code": 411622,
  "name": "西华县第一高级中学",
  "code": 41162203,
  "addition": null
}, {
  "area_code": 411622,
  "name": "西华县黄泛区农场高级中学",
  "code": 41162204,
  "addition": null
}, {
  "area_code": 411622,
  "name": "西华县箕城高中",
  "code": 41162205,
  "addition": null
}, {
  "area_code": 411681,
  "name": "项城市第二高级中学",
  "code": 41168101,
  "addition": null
}, {
  "area_code": 411681,
  "name": "项城市第三高级中学",
  "code": 41168102,
  "addition": null
}, {
  "area_code": 411681,
  "name": "项城市第一高级中学",
  "code": 41168103,
  "addition": null
}, {
  "area_code": 411681,
  "name": "项城市第一高级中学分校",
  "code": 41168104,
  "addition": null
}, {
  "area_code": 411681,
  "name": "项城市二高分校",
  "code": 41168105,
  "addition": null
}, {
  "area_code": 411681,
  "name": "项城市老城高级中学",
  "code": 41168106,
  "addition": null
}, {
  "area_code": 411726,
  "name": "泌阳县第二高级中学",
  "code": 41172601,
  "addition": null
}, {
  "area_code": 411726,
  "name": "泌阳县第一高级中学",
  "code": 41172602,
  "addition": null
}, {
  "area_code": 411726,
  "name": "泌阳县官庄高级中学校",
  "code": 41172603,
  "addition": null
}, {
  "area_code": 411723,
  "name": "平舆县第二高级中学",
  "code": 41172301,
  "addition": null
}, {
  "area_code": 411723,
  "name": "平舆县第三高级中学",
  "code": 41172302,
  "addition": null
}, {
  "area_code": 411723,
  "name": "平舆县第一高级中学",
  "code": 41172303,
  "addition": null
}, {
  "area_code": 411723,
  "name": "平舆县实验中学",
  "code": 41172304,
  "addition": 原名平舆四高
}, {
  "area_code": 411725,
  "name": "确山县第一高级中学",
  "code": 41172501,
  "addition": null
}, {
  "area_code": 411725,
  "name": "驻马店市确山县二高",
  "code": 41172502,
  "addition": null
}, {
  "area_code": 411727,
  "name": "河南省汝南双语学校",
  "code": 41172701,
  "addition": null
}, {
  "area_code": 411727,
  "name": "汝南县第二高级中学",
  "code": 41172702,
  "addition": null
}, {
  "area_code": 411727,
  "name": "汝南县第一高级中学",
  "code": 41172703,
  "addition": null
}, {
  "area_code": 411722,
  "name": "上蔡县第二高级中学",
  "code": 41172201,
  "addition": null
}, {
  "area_code": 411722,
  "name": "河南省上蔡县第一高级中学",
  "code": 41172202,
  "addition": null
}, {
  "area_code": 411722,
  "name": "上蔡一高分校",
  "code": 41172203,
  "addition": null
}, {
  "area_code": 411728,
  "name": "遂平县第二高级中学",
  "code": 41172801,
  "addition": null
}, {
  "area_code": 411728,
  "name": "遂平县第一高级中学",
  "code": 41172802,
  "addition": null
}, {
  "area_code": 411721,
  "name": "西平县高级中学",
  "code": 41172101,
  "addition": null
}, {
  "area_code": 411721,
  "name": "西平县文成中学",
  "code": 41172102,
  "addition": null
}, {
  "area_code": 411721,
  "name": "西平县杨庄高级中学",
  "code": 41172103,
  "addition": null
}, {
  "area_code": 411729,
  "name": "新蔡县第二高级中学",
  "code": 41172901,
  "addition": null
}, {
  "area_code": 411729,
  "name": "新蔡县第一高级中学",
  "code": 41172902,
  "addition": null
}, {
  "area_code": 411729,
  "name": "新蔡县第一高级中学新校区（高三）",
  "code": 41172903,
  "addition": null
}, {
  "area_code": 411702,
  "name": "驻马店高级中学",
  "code": 41170201,
  "addition": null
}, {
  "area_code": 411702,
  "name": "驻马店敬业高中",
  "code": 41170202,
  "addition": null
}, {
  "area_code": 411702,
  "name": "驻马店市第二高级中学",
  "code": 41170203,
  "addition": null
}, {
  "area_code": 411702,
  "name": "驻马店市第三高级中学",
  "code": 41170204,
  "addition": null
}, {
  "area_code": 411702,
  "name": "驻马店市第一高级中学",
  "code": 41170205,
  "addition": null
}, {
  "area_code": 411702,
  "name": "驻马店市高级中学（分校）",
  "code": 41170206,
  "addition": null
}, {
  "area_code": 411702,
  "name": "驻马店市育秀高级中学",
  "code": 41170207,
  "addition": null
}, {
  "area_code": 411702,
  "name": "驻马店驿城高中",
  "code": 41170208,
  "addition": null
}, {
  "area_code": 411724,
  "name": "正阳县县直二高",
  "code": 41172401,
  "addition": null
}, {
  "area_code": 411724,
  "name": "正阳县县直一高",
  "code": 41172402,
  "addition": null
}, {
  "area_code": 411724,
  "name": "正阳育才外国语学校",
  "code": 41172403,
  "addition": null
}, {
  "area_code": 411724,
  "name": "驻马店市正阳县高级中学",
  "code": 41172404,
  "addition": null
}]
