[{
  "area_code": 500101,
  "name": "重庆市万州第三中学 ",
  "code": 50010101,
  "addition": null
}, {
  "area_code": 500101,
  "name": "重庆市万州区龙宝中学 ",
  "code": 50010102,
  "addition": null
}, {
  "area_code": 500101,
  "name": "重庆市万州熊家中学 ",
  "code": 50010103,
  "addition": null
}, {
  "area_code": 500101,
  "name": "重庆市万州龙驹中学 ",
  "code": 50010104,
  "addition": null
}, {
  "area_code": 500101,
  "name": "重庆市万州桥亭中学",
  "code": 50010105,
  "addition": null
}, {
  "area_code": 500101,
  "name": "重庆市万州第一中学 ",
  "code": 50010106,
  "addition": null
}, {
  "area_code": 500101,
  "name": "重庆市万州国本中学 ",
  "code": 50010107,
  "addition": null
}, {
  "area_code": 500101,
  "name": "重庆市万州分水中学 ",
  "code": 50010108,
  "addition": null
}, {
  "area_code": 500101,
  "name": "重庆市万州上海中学 ",
  "code": 50010109,
  "addition": null
}, {
  "area_code": 500101,
  "name": "重庆市万州外国语学校 ",
  "code": 50010110,
  "addition": null
}, {
  "area_code": 500101,
  "name": "重庆市万州沙河中学 ",
  "code": 50010111,
  "addition": null
}, {
  "area_code": 500101,
  "name": "重庆市万州清泉中学 ",
  "code": 50010112,
  "addition": null
}, {
  "area_code": 500101,
  "name": "重庆市万州第二高级中学 ",
  "code": 50010113,
  "addition": null
}, {
  "area_code": 500101,
  "name": "万州新田中学",
  "code": 50010114,
  "addition": null
}, {
  "area_code": 500101,
  "name": "重庆市万州武陵中学",
  "code": 50010115,
  "addition": null
}, {
  "area_code": 500101,
  "name": "重庆市万州鱼泉中学",
  "code": 50010116,
  "addition": null
}, {
  "area_code": 500101,
  "name": "重庆市万州高级中学",
  "code": 50010117,
  "addition": null
}, {
  "area_code": 500102,
  "name": "重庆市涪陵实验中学校 ",
  "code": 50010201,
  "addition": null
}, {
  "area_code": 500102,
  "name": "重庆市涪陵第一中学校 ",
  "code": 50010202,
  "addition": null
}, {
  "area_code": 500102,
  "name": "涪陵区第七中学校 ",
  "code": 50010203,
  "addition": null
}, {
  "area_code": 500102,
  "name": "重庆市涪陵第十八中学校 ",
  "code": 50010204,
  "addition": null
}, {
  "area_code": 500102,
  "name": "重庆市涪陵第二中学校 ",
  "code": 50010205,
  "addition": null
}, {
  "area_code": 500102,
  "name": "重庆市涪陵第十七中学校 ",
  "code": 50010206,
  "addition": 前身涪陵区龙潭镇中学
}, {
  "area_code": 500102,
  "name": "重庆市涪陵第五中学校 ",
  "code": 50010207,
  "addition": null
}, {
  "area_code": 500102,
  "name": "重庆市涪陵第八中学校 ",
  "code": 50010208,
  "addition": null
}, {
  "area_code": 500102,
  "name": "重庆市涪陵第二十中学校",
  "code": 50010209,
  "addition": null
}, {
  "area_code": 500102,
  "name": "涪陵高级中学",
  "code": 50010210,
  "addition": 原涪陵中学
}, {
  "area_code": 500102,
  "name": "重庆市涪陵第十中学校",
  "code": 50010211,
  "addition": null
}, {
  "area_code": 500103,
  "name": "重庆市求精中学校 ",
  "code": 50010301,
  "addition": null
}, {
  "area_code": 500103,
  "name": "重庆市第二十九中学校 ",
  "code": 50010302,
  "addition": null
}, {
  "area_code": 500103,
  "name": "重庆市第四十二中学校 ",
  "code": 50010303,
  "addition": null
}, {
  "area_code": 500103,
  "name": "重庆第三十中学校 ",
  "code": 50010304,
  "addition": null
}, {
  "area_code": 500103,
  "name": "重庆市巴蜀中学校 ",
  "code": 50010305,
  "addition": null
}, {
  "area_code": 500103,
  "name": "重庆市第六十六中学校 ",
  "code": 50010306,
  "addition": null
}, {
  "area_code": 500103,
  "name": "重庆复旦中学",
  "code": 50010307,
  "addition": null
}, {
  "area_code": 500103,
  "name": "重庆史迪威外语学校",
  "code": 50010308,
  "addition": null
}, {
  "area_code": 500104,
  "name": "重庆市第三十七中学校 ",
  "code": 50010401,
  "addition": null
}, {
  "area_code": 500104,
  "name": "重庆市茄子溪中学",
  "code": 50010402,
  "addition": null
}, {
  "area_code": 500105,
  "name": "重庆市第十八中学 ",
  "code": 50010501,
  "addition": null
}, {
  "area_code": 500105,
  "name": "重庆市字水中学 ",
  "code": 50010502,
  "addition": null
}, {
  "area_code": 500105,
  "name": "重庆市望江中学",
  "code": 50010503,
  "addition": null
}, {
  "area_code": 500105,
  "name": "重庆市二O三中学 ",
  "code": 50010504,
  "addition": null
}, {
  "area_code": 500105,
  "name": "重庆市蜀都中学",
  "code": 50010505,
  "addition": null
}, {
  "area_code": 500106,
  "name": "重庆市第一中学校 ",
  "code": 50010601,
  "addition": null
}, {
  "area_code": 500106,
  "name": "重庆南开中学 ",
  "code": 50010602,
  "addition": null
}, {
  "area_code": 500106,
  "name": "重庆市青木关中学校 ",
  "code": 50010603,
  "addition": null
}, {
  "area_code": 500106,
  "name": "重庆市双碑中学校 ",
  "code": 50010604,
  "addition": null
}, {
  "area_code": 500106,
  "name": "重庆西藏中学校 ",
  "code": 50010605,
  "addition": null
}, {
  "area_code": 500106,
  "name": "重庆市凤鸣山中学 ",
  "code": 50010606,
  "addition": null
}, {
  "area_code": 500106,
  "name": "重庆市第二十八中学校 ",
  "code": 50010607,
  "addition": null
}, {
  "area_code": 500106,
  "name": "重庆市树人中学校 ",
  "code": 50010608,
  "addition": null
}, {
  "area_code": 500106,
  "name": "重庆市第八中学校 ",
  "code": 50010609,
  "addition": null
}, {
  "area_code": 500106,
  "name": "重庆市天星桥中学 ",
  "code": 50010610,
  "addition": null
}, {
  "area_code": 500106,
  "name": "重庆市沙坪坝区实验中学校 ",
  "code": 50010611,
  "addition": null
}, {
  "area_code": 500106,
  "name": "重庆市第六十九中学校 ",
  "code": 50010612,
  "addition": null
}, {
  "area_code": 500106,
  "name": "重庆市第七中学校",
  "code": 50010613,
  "addition": null
}, {
  "area_code": 500106,
  "name": "重庆市第三十二中学校",
  "code": 50010614,
  "addition": null
}, {
  "area_code": 500106,
  "name": "重庆大学附属中学校",
  "code": 50010615,
  "addition": null
}, {
  "area_code": 500106,
  "name": "重庆市大学城第一中学校",
  "code": 50010616,
  "addition": null
}, {
  "area_code": 500107,
  "name": "重庆市育才中学校 ",
  "code": 50010701,
  "addition": null
}, {
  "area_code": 500107,
  "name": "四川外语学院附属外语学校 ",
  "code": 50010702,
  "addition": 通称重庆外国语学校,
  俗称重庆一外
}, {
  "area_code": 500107,
  "name": "重庆铁路中学 ",
  "code": 50010703,
  "addition": null
}, {
  "area_code": 500107,
  "name": "重庆市渝西中学 ",
  "code": 50010704,
  "addition": null
}, {
  "area_code": 500107,
  "name": "重庆国际外国语学校",
  "code": 50010705,
  "addition": null
}, {
  "area_code": 500107,
  "name": "重庆市杨家坪中学 ",
  "code": 50010706,
  "addition": null
}, {
  "area_code": 500107,
  "name": "重庆市渝高中学校 ",
  "code": 50010707,
  "addition": null
}, {
  "area_code": 500107,
  "name": "重庆市田家炳中学",
  "code": 50010708,
  "addition": null
}, {
  "area_code": 500107,
  "name": "重庆市四十七中学",
  "code": 50010709,
  "addition": null
}, {
  "area_code": 500109,
  "name": "西南大学附属中学",
  "code": 50010901,
  "addition": 原西南师范大学附属中学
}, {
  "area_code": 500109,
  "name": "重庆市兼善中学 ",
  "code": 50010902,
  "addition": null
}, {
  "area_code": 500109,
  "name": "重庆市北碚区华光中学 ",
  "code": 50010903,
  "addition": null
}, {
  "area_code": 500109,
  "name": "重庆市天府中学",
  "code": 50010904,
  "addition": null
}, {
  "area_code": 500109,
  "name": "重庆市北碚区王朴中学校 ",
  "code": 50010905,
  "addition": null
}, {
  "area_code": 500109,
  "name": "重庆第四十八中学校 ",
  "code": 50010906,
  "addition": null
}, {
  "area_code": 500109,
  "name": "重庆市朝阳中学 ",
  "code": 50010907,
  "addition": null
}, {
  "area_code": 500109,
  "name": "重庆第二十三中学校 ",
  "code": 50010908,
  "addition": null
}, {
  "area_code": 500109,
  "name": "重庆市江北中学校",
  "code": 50010909,
  "addition": null
}, {
  "area_code": 500109,
  "name": "重庆第二十四中学",
  "code": 50010910,
  "addition": null
}, {
  "area_code": 500108,
  "name": "重庆第二外国语学校 ",
  "code": 50010801,
  "addition": null
}, {
  "area_code": 500108,
  "name": "重庆市广益中学校 ",
  "code": 50010802,
  "addition": null
}, {
  "area_code": 500108,
  "name": "重庆市第三十九中学校 ",
  "code": 50010803,
  "addition": null
}, {
  "area_code": 500108,
  "name": "重庆南开融侨中学校 ",
  "code": 50010804,
  "addition": null
}, {
  "area_code": 500108,
  "name": "重庆市南坪中学校 ",
  "code": 50010805,
  "addition": null
}, {
  "area_code": 500108,
  "name": "重庆市长生桥中学校 ",
  "code": 50010806,
  "addition": null
}, {
  "area_code": 500108,
  "name": "重庆市第十一中学校",
  "code": 50010807,
  "addition": null
}, {
  "area_code": 500108,
  "name": "国营重庆造船厂职工子弟校",
  "code": 50010808,
  "addition": null
}, {
  "area_code": 500111,
  "name": "重庆市双桥区双桥中学 ",
  "code": 50011101,
  "addition": null
}, {
  "area_code": 500110,
  "name": "重庆市万盛田家炳中学 ",
  "code": 50011001,
  "addition": null
}, {
  "area_code": 500110,
  "name": "重庆进盛实验中学",
  "code": 50011002,
  "addition": null
}, {
  "area_code": 500112,
  "name": "重庆市渝北中学校 ",
  "code": 50011201,
  "addition": null
}, {
  "area_code": 500112,
  "name": "重庆市南华中学校 ",
  "code": 50011202,
  "addition": null
}, {
  "area_code": 500112,
  "name": "重庆一中寄宿学校 ",
  "code": 50011203,
  "addition": null
}, {
  "area_code": 500112,
  "name": "重庆市育仁中学校 ",
  "code": 50011204,
  "addition": null
}, {
  "area_code": 500112,
  "name": "重庆市江龙武术学校 ",
  "code": 50011205,
  "addition": null
}, {
  "area_code": 500112,
  "name": "重庆市暨华中学校 ",
  "code": 50011206,
  "addition": null
}, {
  "area_code": 500112,
  "name": "重庆市经开礼嘉中学 ",
  "code": 50011207,
  "addition": null
}, {
  "area_code": 500112,
  "name": "重庆市渝北区竟成中学 ",
  "code": 50011208,
  "addition": null
}, {
  "area_code": 500112,
  "name": "重庆市松树桥中学校",
  "code": 50011209,
  "addition": null
}, {
  "area_code": 500112,
  "name": "重庆经开育才中学",
  "code": 50011210,
  "addition": null
}, {
  "area_code": 500112,
  "name": "重庆市渝北区菁华中学校",
  "code": 50011211,
  "addition": null
}, {
  "area_code": 500112,
  "name": "重庆渝北区第二实验中学校",
  "code": 50011212,
  "addition": null
}, {
  "area_code": 500112,
  "name": "重庆市华蓥中学校 ",
  "code": 50011213,
  "addition": null
}, {
  "area_code": 500112,
  "name": "重庆市渝北区龙山中学校 ",
  "code": 50011214,
  "addition": null
}, {
  "area_code": 500112,
  "name": "重庆市渝北区实验中学校 ",
  "code": 50011215,
  "addition": null
}, {
  "area_code": 500112,
  "name": "重庆皇冠实验中学 ",
  "code": 50011216,
  "addition": null
}, {
  "area_code": 500113,
  "name": "重庆市清华中学 ",
  "code": 50011301,
  "addition": null
}, {
  "area_code": 500113,
  "name": "重庆市木洞中学校 ",
  "code": 50011302,
  "addition": null
}, {
  "area_code": 500113,
  "name": "重庆市渝南田家炳中学校 ",
  "code": 50011303,
  "addition": null
}, {
  "area_code": 500113,
  "name": "重庆市大江中学 ",
  "code": 50011304,
  "addition": null
}, {
  "area_code": 500113,
  "name": "重庆市实验中学校",
  "code": 50011305,
  "addition": null
}, {
  "area_code": 500113,
  "name": "重庆市鱼洞中学校 ",
  "code": 50011306,
  "addition": null
}, {
  "area_code": 500113,
  "name": "重庆市接龙中学校 ",
  "code": 50011307,
  "addition": null
}, {
  "area_code": 500113,
  "name": "重庆市第三十四中学校",
  "code": 50011308,
  "addition": null
}, {
  "area_code": 500113,
  "name": "重庆市姜家中学校",
  "code": 50011309,
  "addition": null
}, {
  "area_code": 500114,
  "name": "重庆市黔江中学校 ",
  "code": 50011401,
  "addition": null
}, {
  "area_code": 500114,
  "name": "重庆市黔江民族中学校 ",
  "code": 50011402,
  "addition": null
}, {
  "area_code": 500114,
  "name": "重庆市黔江区濯水中学校",
  "code": 50011403,
  "addition": null
}, {
  "area_code": 500114,
  "name": "重庆市黔江新华中学校 ",
  "code": 50011404,
  "addition": null
}, {
  "area_code": 500114,
  "name": "重庆市黔江区石会中学校",
  "code": 50011405,
  "addition": null
}, {
  "area_code": 500115,
  "name": "重庆市长寿中学校 ",
  "code": 50011501,
  "addition": null
}, {
  "area_code": 500115,
  "name": "重庆市长寿实验中学校 ",
  "code": 50011502,
  "addition": null
}, {
  "area_code": 500115,
  "name": "重庆市长寿川维中学校 ",
  "code": 50011503,
  "addition": null
}, {
  "area_code": 500115,
  "name": "重庆市长寿双龙中学校 ",
  "code": 50011504,
  "addition": null
}, {
  "area_code": 500115,
  "name": "重庆市长寿第一中学校 ",
  "code": 50011505,
  "addition": null
}, {
  "area_code": 500115,
  "name": "重庆市长寿葛兰中学校 ",
  "code": 50011506,
  "addition": null
}, {
  "area_code": 500115,
  "name": "重庆市长寿第二中学校",
  "code": 50011507,
  "addition": null
}, {
  "area_code": 500115,
  "name": "重庆市长寿龙溪中学校",
  "code": 50011508,
  "addition": null
}, {
  "area_code": 500116,
  "name": "重庆市江津中学校 ",
  "code": 50011601,
  "addition": null
}, {
  "area_code": 500116,
  "name": "重庆市江津第二中学校 ",
  "code": 50011602,
  "addition": null
}, {
  "area_code": 500116,
  "name": "重庆市江津第六中学校 ",
  "code": 50011603,
  "addition": null
}, {
  "area_code": 500116,
  "name": "重庆市江津第五中学校 ",
  "code": 50011604,
  "addition": null
}, {
  "area_code": 500116,
  "name": "重庆市江津吴滩中学校 ",
  "code": 50011605,
  "addition": null
}, {
  "area_code": 500116,
  "name": "重庆市江津聚奎中学校 ",
  "code": 50011606,
  "addition": null
}, {
  "area_code": 500116,
  "name": "重庆市江津第八中学校 ",
  "code": 50011607,
  "addition": null
}, {
  "area_code": 500116,
  "name": "重庆市江津第四中学校",
  "code": 50011608,
  "addition": null
}, {
  "area_code": 500116,
  "name": "重庆市江津几江中学校",
  "code": 50011609,
  "addition": null
}, {
  "area_code": 500117,
  "name": "重庆市合川中学 ",
  "code": 50011701,
  "addition": null
}, {
  "area_code": 500117,
  "name": "重庆市合川瑞山中学 ",
  "code": 50011702,
  "addition": null
}, {
  "area_code": 500117,
  "name": "重庆市合川龙市中学 ",
  "code": 50011703,
  "addition": null
}, {
  "area_code": 500117,
  "name": "重庆市合川盐井中学 ",
  "code": 50011704,
  "addition": null
}, {
  "area_code": 500117,
  "name": "重庆市合川大石中学 ",
  "code": 50011705,
  "addition": null
}, {
  "area_code": 500117,
  "name": "重庆市合川小沔中学 ",
  "code": 50011706,
  "addition": null
}, {
  "area_code": 500117,
  "name": "重庆市合川云门中学",
  "code": 50011707,
  "addition": null
}, {
  "area_code": 500117,
  "name": "重庆市合川太和中学",
  "code": 50011708,
  "addition": null
}, {
  "area_code": 500118,
  "name": "重庆市永川中学校 ",
  "code": 50011801,
  "addition": null
}, {
  "area_code": 500118,
  "name": "永川市景圣中学校 ",
  "code": 50011802,
  "addition": null
}, {
  "area_code": 500118,
  "name": "永川市双石中学校 ",
  "code": 50011803,
  "addition": null
}, {
  "area_code": 500118,
  "name": "重庆文理学院附属中学校 ",
  "code": 50011804,
  "addition": null
}, {
  "area_code": 500118,
  "name": "永川市北山中学校 ",
  "code": 50011805,
  "addition": null
}, {
  "area_code": 500118,
  "name": "重庆市永川昌南中学校 ",
  "code": 50011806,
  "addition": null
}, {
  "area_code": 500118,
  "name": "重庆市永川萱花中学校",
  "code": 50011807,
  "addition": null
}, {
  "area_code": 500118,
  "name": "永川市第六中学",
  "code": 50011808,
  "addition": null
}, {
  "area_code": 500119,
  "name": "重庆市南川中学校 ",
  "code": 50011901,
  "addition": null
}, {
  "area_code": 500119,
  "name": "重庆市南川道南中学校 ",
  "code": 50011902,
  "addition": null
}, {
  "area_code": 500119,
  "name": "重庆市水江中学校",
  "code": 50011903,
  "addition": null
}, {
  "area_code": 500119,
  "name": "重庆南川市第一中学校 ",
  "code": 50011904,
  "addition": null
}, {
  "area_code": 500119,
  "name": "重庆市南川第三中学校",
  "code": 50011905,
  "addition": null
}, {
  "area_code": 500110,
  "name": "重庆市綦江中学 ",
  "code": 50011003,
  "addition": null
}, {
  "area_code": 500110,
  "name": "重庆市綦江实验中学 ",
  "code": 50011004,
  "addition": null
}, {
  "area_code": 500110,
  "name": "綦江县打通中学 ",
  "code": 50011005,
  "addition": null
}, {
  "area_code": 500110,
  "name": "重庆市綦江县东溪中学 ",
  "code": 50011006,
  "addition": null
}, {
  "area_code": 500110,
  "name": "綦江县南州中学 ",
  "code": 50011007,
  "addition": null
}, {
  "area_code": 500110,
  "name": "綦江县三江中学",
  "code": 50011008,
  "addition": null
}, {
  "area_code": 500223,
  "name": "重庆市潼南中学校 ",
  "code": 50022301,
  "addition": null
}, {
  "area_code": 500223,
  "name": "重庆市潼南第一中学校 ",
  "code": 50022302,
  "addition": null
}, {
  "area_code": 500223,
  "name": "重庆市潼南塘坝中学校",
  "code": 50022303,
  "addition": null
}, {
  "area_code": 500223,
  "name": "重庆市潼南柏梓中学校 ",
  "code": 50022304,
  "addition": null
}, {
  "area_code": 500223,
  "name": "重庆市潼南古溪中学校",
  "code": 50022305,
  "addition": null
}, {
  "area_code": 500224,
  "name": "重庆市铜梁中学校 ",
  "code": 50022401,
  "addition": null
}, {
  "area_code": 500224,
  "name": "重庆市铜梁一中 ",
  "code": 50022402,
  "addition": null
}, {
  "area_code": 500224,
  "name": "重庆市铜梁二中 ",
  "code": 50022403,
  "addition": null
}, {
  "area_code": 500111,
  "name": "重庆市大足中学 ",
  "code": 50011102,
  "addition": null
}, {
  "area_code": 500111,
  "name": "大足县第一中学 ",
  "code": 50011103,
  "addition": null
}, {
  "area_code": 500111,
  "name": "重庆市大足城南中学校",
  "code": 50011104,
  "addition": null
}, {
  "area_code": 500111,
  "name": "重庆市大足县龙岗中学 ",
  "code": 50011105,
  "addition": null
}, {
  "area_code": 500111,
  "name": "大足县第二中学 ",
  "code": 50011106,
  "addition": null
}, {
  "area_code": 500111,
  "name": "大足县第三中学",
  "code": 50011107,
  "addition": null
}, {
  "area_code": 500226,
  "name": "重庆市荣昌中学校 ",
  "code": 50022601,
  "addition": null
}, {
  "area_code": 500226,
  "name": "重庆市荣昌安富中学校 ",
  "code": 50022602,
  "addition": null
}, {
  "area_code": 500226,
  "name": "荣昌仁义中学 ",
  "code": 50022603,
  "addition": null
}, {
  "area_code": 500226,
  "name": "荣昌县永荣中学",
  "code": 50022604,
  "addition": null
}, {
  "area_code": 500227,
  "name": "重庆市璧山中学校 ",
  "code": 50022701,
  "addition": null
}, {
  "area_code": 500227,
  "name": "重庆市璧山来凤中学校 ",
  "code": 50022702,
  "addition": null
}, {
  "area_code": 500227,
  "name": "重庆市璧山大路中学校 ",
  "code": 50022703,
  "addition": null
}, {
  "area_code": 500228,
  "name": "重庆市梁平中学 ",
  "code": 50022801,
  "addition": null
}, {
  "area_code": 500228,
  "name": "梁平县红旗中学 ",
  "code": 50022802,
  "addition": null
}, {
  "area_code": 500228,
  "name": "梁平县屏锦中学",
  "code": 50022803,
  "addition": null
}, {
  "area_code": 500228,
  "name": "梁平县第一中学校 ",
  "code": 50022804,
  "addition": null
}, {
  "area_code": 500228,
  "name": "梁平职业教育中心",
  "code": 50022805,
  "addition": null
}, {
  "area_code": 500229,
  "name": "重庆市城口县中学校 ",
  "code": 50022901,
  "addition": null
}, {
  "area_code": 500230,
  "name": "丰都县实验中学校 ",
  "code": 50023001,
  "addition": null
}, {
  "area_code": 500230,
  "name": "丰都县第二中学校",
  "code": 50023002,
  "addition": null
}, {
  "area_code": 500230,
  "name": "丰都县第三中学校",
  "code": 50023003,
  "addition": null
}, {
  "area_code": 500230,
  "name": "丰都县星火学校 ",
  "code": 50023004,
  "addition": null
}, {
  "area_code": 500230,
  "name": "重庆市丰都中学校 ",
  "code": 50023005,
  "addition": null
}, {
  "area_code": 500230,
  "name": "丰都县第一中学校",
  "code": 50023006,
  "addition": null
}, {
  "area_code": 500231,
  "name": "重庆市垫江中学校 ",
  "code": 50023101,
  "addition": null
}, {
  "area_code": 500231,
  "name": "垫江第一中学校 ",
  "code": 50023102,
  "addition": null
}, {
  "area_code": 500231,
  "name": "垫江第五中学校 ",
  "code": 50023103,
  "addition": null
}, {
  "area_code": 500231,
  "name": "垫江县文兴中学 ",
  "code": 50023104,
  "addition": null
}, {
  "area_code": 500231,
  "name": "垫江第四中学校 ",
  "code": 50023105,
  "addition": null
}, {
  "area_code": 500231,
  "name": "垫江县育才中学 ",
  "code": 50023106,
  "addition": null
}, {
  "area_code": 500231,
  "name": "垫江第二中学校 ",
  "code": 50023107,
  "addition": null
}, {
  "area_code": 500231,
  "name": "垫江第六中学校 ",
  "code": 50023108,
  "addition": null
}, {
  "area_code": 500231,
  "name": "垫江第三中学校",
  "code": 50023109,
  "addition": null
}, {
  "area_code": 500231,
  "name": "重庆市垫江实验中学校",
  "code": 50023110,
  "addition": null
}, {
  "area_code": 500232,
  "name": "重庆市武隆中学 ",
  "code": 50023201,
  "addition": null
}, {
  "area_code": 500232,
  "name": "武隆县白马中学校 ",
  "code": 50023202,
  "addition": null
}, {
  "area_code": 500232,
  "name": "重庆市武隆县长坝中学校 ",
  "code": 50023203,
  "addition": null
}, {
  "area_code": 500232,
  "name": "重庆市武隆县鸭江中学校",
  "code": 50023204,
  "addition": null
}, {
  "area_code": 500233,
  "name": "重庆市忠县中学校 ",
  "code": 50023301,
  "addition": null
}, {
  "area_code": 500233,
  "name": "重庆市忠县忠州中学 ",
  "code": 50023302,
  "addition": null
}, {
  "area_code": 500233,
  "name": "忠县汝溪中学 ",
  "code": 50023303,
  "addition": null
}, {
  "area_code": 500233,
  "name": "忠县石宝中学 ",
  "code": 50023304,
  "addition": 又称“ 石宝二中”
}, {
  "area_code": 500233,
  "name": "重庆市忠县拔山中学校 ",
  "code": 50023305,
  "addition": null
}, {
  "area_code": 500233,
  "name": "重庆市忠县新立中学校 ",
  "code": 50023306,
  "addition": null
}, {
  "area_code": 500233,
  "name": "重庆市忠县乌杨中学",
  "code": 50023307,
  "addition": null
}, {
  "area_code": 500233,
  "name": "忠县三汇中学",
  "code": 50023308,
  "addition": null
}, {
  "area_code": 500234,
  "name": "重庆市开县临江中学 ",
  "code": 50023401,
  "addition": null
}, {
  "area_code": 500234,
  "name": "重庆市开县中学 ",
  "code": 50023402,
  "addition": null
}, {
  "area_code": 500234,
  "name": "开县丰乐中学 ",
  "code": 50023403,
  "addition": null
}, {
  "area_code": 500234,
  "name": "重庆市开县铁桥中学 ",
  "code": 50023404,
  "addition": null
}, {
  "area_code": 500234,
  "name": "开县敬业中学",
  "code": 50023405,
  "addition": null
}, {
  "area_code": 500234,
  "name": "开县实验中学 ",
  "code": 50023406,
  "addition": null
}, {
  "area_code": 500234,
  "name": "开县温泉中学 ",
  "code": 50023407,
  "addition": null
}, {
  "area_code": 500234,
  "name": "重庆市开县陈家中学",
  "code": 50023408,
  "addition": null
}, {
  "area_code": 500234,
  "name": "开县中和中学",
  "code": 50023409,
  "addition": null
}, {
  "area_code": 500235,
  "name": "重庆市云阳高级中学校",
  "code": 50023501,
  "addition": null
}, {
  "area_code": 500235,
  "name": "重庆市云阳县凤鸣中学 ",
  "code": 50023502,
  "addition": null
}, {
  "area_code": 500235,
  "name": "重庆市云阳外国语实验学校",
  "code": 50023503,
  "addition": null
}, {
  "area_code": 500235,
  "name": "重庆市云阳县江口中学 ",
  "code": 50023504,
  "addition": null
}, {
  "area_code": 500235,
  "name": "重庆市云阳县双江中学",
  "code": 50023505,
  "addition": null
}, {
  "area_code": 500236,
  "name": "重庆市奉节中学 ",
  "code": 50023601,
  "addition": null
}, {
  "area_code": 500236,
  "name": "奉节县永安中学 ",
  "code": 50023602,
  "addition": null
}, {
  "area_code": 500236,
  "name": "奉节县夔门高级中学 ",
  "code": 50023603,
  "addition": null
}, {
  "area_code": 500236,
  "name": "奉节县吐祥中学 ",
  "code": 50023604,
  "addition": null
}, {
  "area_code": 500236,
  "name": "奉节县上坝中学 ",
  "code": 50023605,
  "addition": null
}, {
  "area_code": 500236,
  "name": "奉节县幸福中学",
  "code": 50023606,
  "addition": null
}, {
  "area_code": 500236,
  "name": "奉节县长龙实验中学校",
  "code": 50023607,
  "addition": null
}, {
  "area_code": 500237,
  "name": "重庆市巫山中学 ",
  "code": 50023701,
  "addition": null
}, {
  "area_code": 500237,
  "name": "巫山县官渡中学 ",
  "code": 50023702,
  "addition": null
}, {
  "area_code": 500237,
  "name": "巫山县大昌中学 ",
  "code": 50023703,
  "addition": null
}, {
  "area_code": 500238,
  "name": "巫溪县巫溪中学校 ",
  "code": 50023801,
  "addition": null
}, {
  "area_code": 500238,
  "name": "巫溪县城厢中学校 ",
  "code": 50023802,
  "addition": null
}, {
  "area_code": 500238,
  "name": "巫溪县上磺中学校 ",
  "code": 50023803,
  "addition": null
}, {
  "area_code": 500238,
  "name": "巫溪县尖山中学校",
  "code": 50023804,
  "addition": null
}, {
  "area_code": 500240,
  "name": "石柱土家族自治县石柱中学 ",
  "code": 50024001,
  "addition": null
}, {
  "area_code": 500240,
  "name": "石柱县石柱民族中学校 ",
  "code": 50024002,
  "addition": null
}, {
  "area_code": 500240,
  "name": "石柱县西沱中学校 ",
  "code": 50024003,
  "addition": null
}, {
  "area_code": 500241,
  "name": "秀山土家族苗族自治县第一中学",
  "code": 50024101,
  "addition": null
}, {
  "area_code": 500241,
  "name": "秀山高级中学 ",
  "code": 50024102,
  "addition": null
}, {
  "area_code": 500242,
  "name": "酉阳县第一中学校 ",
  "code": 50024201,
  "addition": null
}, {
  "area_code": 500242,
  "name": "酉阳县第二中学校 ",
  "code": 50024202,
  "addition": null
}, {
  "area_code": 500242,
  "name": "酉阳县第三中学校 ",
  "code": 50024203,
  "addition": null
}, {
  "area_code": 500242,
  "name": "酉阳县第四中学校",
  "code": 50024204,
  "addition": null
}, {
  "area_code": 500243,
  "name": "重庆市彭水中学 ",
  "code": 50024301,
  "addition": null
}, {
  "area_code": 500243,
  "name": "彭水县民族中学 ",
  "code": 50024302,
  "addition": null
}, {
  "area_code": 430611,
  "name": "岳阳市君山中学",
  "code": 43061102,
  "addition": null
}, {
  "area_code": 430621,
  "name": "岳阳县第一中学 ",
  "code": 43062101,
  "addition": null
}, {
  "area_code": 430621,
  "name": "岳阳县第二中学 ",
  "code": 43062102,
  "addition": null
}, {
  "area_code": 430621,
  "name": "岳阳县第三中学 ",
  "code": 43062103,
  "addition": null
}, {
  "area_code": 430621,
  "name": "岳阳县第四中学",
  "code": 43062104,
  "addition": null
}, {
  "area_code": 430623,
  "name": "华容县第一中学 ",
  "code": 43062301,
  "addition": null
}, {
  "area_code": 430623,
  "name": "华容县第二中学 ",
  "code": 43062302,
  "addition": null
}, {
  "area_code": 430623,
  "name": "华容县怀乡中学",
  "code": 43062303,
  "addition": null
}, {
  "area_code": 430623,
  "name": "华容县第三中学 ",
  "code": 43062304,
  "addition": null
}, {
  "area_code": 430623,
  "name": "华容县第五中学",
  "code": 43062305,
  "addition": null
}, {
  "area_code": 430624,
  "name": "湘阴县第一中学 ",
  "code": 43062401,
  "addition": null
}, {
  "area_code": 430624,
  "name": "湘阴县知源中学 ",
  "code": 43062402,
  "addition": null
}, {
  "area_code": 430624,
  "name": "湘阴县第二中学",
  "code": 43062403,
  "addition": null
}, {
  "area_code": 430624,
  "name": "湘阴县第四中学 ",
  "code": 43062404,
  "addition": null
}, {
  "area_code": 430624,
  "name": "湘阴县第五中学 ",
  "code": 43062405,
  "addition": null
}, {
  "area_code": 430624,
  "name": "湘阴县第六中学",
  "code": 43062406,
  "addition": null
}, {
  "area_code": 430626,
  "name": "平江县第一中学 ",
  "code": 43062601,
  "addition": null
}, {
  "area_code": 430626,
  "name": "平江县第二中学 ",
  "code": 43062602,
  "addition": null
}, {
  "area_code": 430626,
  "name": "平江县第五中学",
  "code": 43062603,
  "addition": null
}, {
  "area_code": 430626,
  "name": "平江县第三中学 ",
  "code": 43062604,
  "addition": null
}, {
  "area_code": 430626,
  "name": "平江县第四中学",
  "code": 43062605,
  "addition": null
}, {
  "area_code": 430681,
  "name": "汩罗市第一中学 ",
  "code": 43068101,
  "addition": null
}, {
  "area_code": 430681,
  "name": "汩罗市第二中学 ",
  "code": 43068102,
  "addition": null
}, {
  "area_code": 430681,
  "name": "汩罗市第三中学 ",
  "code": 43068103,
  "addition": null
}, {
  "area_code": 430681,
  "name": "汩罗市第四中学",
  "code": 43068104,
  "addition": null
}, {
  "area_code": 430681,
  "name": "汩罗市第五中学",
  "code": 43068105,
  "addition": null
}, {
  "area_code": 430682,
  "name": "临湘市第一中学 ",
  "code": 43068201,
  "addition": null
}, {
  "area_code": 430682,
  "name": "临湘市第二中学 ",
  "code": 43068202,
  "addition": null
}, {
  "area_code": 430682,
  "name": "临湘市第三中学",
  "code": 43068203,
  "addition": null
}, {
  "area_code": 430682,
  "name": "临湘市第五中学 ",
  "code": 43068204,
  "addition": null
}, {
  "area_code": 430681,
  "name": "岳阳市屈原管理区屈原一中",
  "code": 43068106,
  "addition": null
}, {
  "area_code": 430702,
  "name": "常德市第一中学 ",
  "code": 43070201,
  "addition": null
}, {
  "area_code": 430702,
  "name": "常德市第二中学 ",
  "code": 43070202,
  "addition": null
}, {
  "area_code": 430702,
  "name": "常德市芷兰实验学校 ",
  "code": 43070203,
  "addition": null
}, {
  "area_code": 430702,
  "name": "常德市第七中学 ",
  "code": 43070204,
  "addition": null
}, {
  "area_code": 430702,
  "name": "常德市第三中学 ",
  "code": 43070205,
  "addition": null
}, {
  "area_code": 430702,
  "name": "湖南常德市汇文中学 ",
  "code": 43070206,
  "addition": null
}, {
  "area_code": 430702,
  "name": "常德市第六中学",
  "code": 43070207,
  "addition": null
}, {
  "area_code": 430702,
  "name": "常德市三闾实验学校",
  "code": 43070208,
  "addition": null
}, {
  "area_code": 430703,
  "name": "常德市鼎城区一中 ",
  "code": 43070301,
  "addition": null
}, {
  "area_code": 430703,
  "name": "常德市鼎城区二中 ",
  "code": 43070302,
  "addition": null
}, {
  "area_code": 430703,
  "name": "湖南省常德淮阳中学 ",
  "code": 43070303,
  "addition": null
}, {
  "area_code": 430703,
  "name": "常德市鼎城区九中 ",
  "code": 43070304,
  "addition": 2003 年前为常德市鼎城区武陵完全中学
}, {
  "area_code": 430703,
  "name": "常德市鼎城区三中 ",
  "code": 43070305,
  "addition": null
}, {
  "area_code": 430703,
  "name": "常德市西洞庭一中",
  "code": 43070306,
  "addition": null
}, {
  "area_code": 430703,
  "name": "常德市鼎城区六中",
  "code": 43070307,
  "addition": null
}, {
  "area_code": 430721,
  "name": "安乡县第一中学 ",
  "code": 43072101,
  "addition": null
}, {
  "area_code": 430721,
  "name": "安乡县第二中学 ",
  "code": 43072102,
  "addition": null
}, {
  "area_code": 430721,
  "name": "安乡县第三中学",
  "code": 43072103,
  "addition": null
}, {
  "area_code": 430721,
  "name": "安乡县第五中学 ",
  "code": 43072104,
  "addition": null
}, {
  "area_code": 430722,
  "name": "汉寿县第一中学 ",
  "code": 43072201,
  "addition": null
}, {
  "area_code": 430722,
  "name": "汉寿县第二中学 ",
  "code": 43072202,
  "addition": null
}, {
  "area_code": 430722,
  "name": "汉寿县第三中学 ",
  "code": 43072203,
  "addition": null
}, {
  "area_code": 430722,
  "name": "汉寿县第五中学",
  "code": 43072204,
  "addition": null
}, {
  "area_code": 430723,
  "name": "湖南省澧县第一中学 ",
  "code": 43072301,
  "addition": null
}, {
  "area_code": 430723,
  "name": "湖南省澧县第二中学",
  "code": 43072302,
  "addition": null
}, {
  "area_code": 430723,
  "name": "湖南省澧县第三中学",
  "code": 43072303,
  "addition": null
}, {
  "area_code": 430723,
  "name": "湖南省澧县第四中学",
  "code": 43072304,
  "addition": null
}, {
  "area_code": 430723,
  "name": "湖南省澧县第六中学",
  "code": 43072305,
  "addition": null
}, {
  "area_code": 430724,
  "name": "临澧县第一中学 ",
  "code": 43072401,
  "addition": null
}, {
  "area_code": 430724,
  "name": "临澧县第二中学 ",
  "code": 43072402,
  "addition": null
}, {
  "area_code": 430724,
  "name": "临澧县第四中学",
  "code": 43072403,
  "addition": null
}, {
  "area_code": 430725,
  "name": "桃源县第一中学 ",
  "code": 43072501,
  "addition": null
}, {
  "area_code": 430725,
  "name": "桃源县第二中学 ",
  "code": 43072502,
  "addition": null
}, {
  "area_code": 430725,
  "name": "桃源县第四中学 ",
  "code": 43072503,
  "addition": null
}, {
  "area_code": 430725,
  "name": "桃源县第八中学",
  "code": 43072504,
  "addition": null
}, {
  "area_code": 430725,
  "name": "桃源县第九中学",
  "code": 43072505,
  "addition": null
}, {
  "area_code": 430726,
  "name": "湖南省石门县第一中学 ",
  "code": 43072601,
  "addition": null
}, {
  "area_code": 430726,
  "name": "湖南省石门县第二中学 ",
  "code": 43072602,
  "addition": null
}, {
  "area_code": 430726,
  "name": "湖南省石门县第五中学 ",
  "code": 43072603,
  "addition": null
}, {
  "area_code": 430726,
  "name": "湖南省石门县第六中学",
  "code": 43072604,
  "addition": null
}, {
  "area_code": 430726,
  "name": "石门县瑜远中学",
  "code": 43072605,
  "addition": null
}, {
  "area_code": 430781,
  "name": "津市市第一中学 ",
  "code": 43078101,
  "addition": null
}, {
  "area_code": 430781,
  "name": "湖南高平教育集团津市三中 ",
  "code": 43078102,
  "addition": null
}, {
  "area_code": 430722,
  "name": "西湖区第一中学 ",
  "code": 43072205,
  "addition": null
}, {
  "area_code": 430802,
  "name": "湖南省张家界市一中 ",
  "code": 43080201,
  "addition": null
}, {
  "area_code": 430802,
  "name": "张家界天门中学 ",
  "code": 43080202,
  "addition": null
}, {
  "area_code": 430802,
  "name": "张家界桥辉中学",
  "code": 43080203,
  "addition": null
}, {
  "area_code": 430811,
  "name": "张家界市武陵源一中 ",
  "code": 43081101,
  "addition": null
}, {
  "area_code": 430822,
  "name": "桑植县第一中学 ",
  "code": 43082201,
  "addition": null
}, {
  "area_code": 430822,
  "name": "桑植县第四中学",
  "code": 43082202,
  "addition": null
}, {
  "area_code": 430822,
  "name": "湖南省贺龙中学 ",
  "code": 43082203,
  "addition": null
}, {
  "area_code": 430821,
  "name": "慈利县第一中学 ",
  "code": 43082101,
  "addition": null
}, {
  "area_code": 430821,
  "name": "慈利县第四中学 ",
  "code": 43082102,
  "addition": null
}, {
  "area_code": 430821,
  "name": "慈利县第三中学 ",
  "code": 43082103,
  "addition": null
}, {
  "area_code": 430821,
  "name": "慈利县第二中学",
  "code": 43082104,
  "addition": null
}, {
  "area_code": 430821,
  "name": "慈利县第六中学",
  "code": 43082105,
  "addition": null
}, {
  "area_code": 430902,
  "name": "益阳市第一中学 ",
  "code": 43090201,
  "addition": null
}, {
  "area_code": 430902,
  "name": "益阳市六中高中部 ",
  "code": 43090202,
  "addition": null
}, {
  "area_code": 430902,
  "name": "益阳市第十五中学 ",
  "code": 43090203,
  "addition": null
}, {
  "area_code": 430902,
  "name": "资阳区迎风镇高平迎风中学 ",
  "code": 43090204,
  "addition": null
}, {
  "area_code": 430902,
  "name": "益阳市第十三中学 ",
  "code": 43090205,
  "addition": null
}, {
  "area_code": 430902,
  "name": "益阳市高坪中学 ",
  "code": 43090206,
  "addition": null
}, {
  "area_code": 430902,
  "name": "益阳市第十四中学 ",
  "code": 43090207,
  "addition": null
}, {
  "area_code": 430902,
  "name": "益阳市第十六中学 ",
  "code": 43090208,
  "addition": null
}, {
  "area_code": 430902,
  "name": "湖南益阳国基实验学校 ",
  "code": 43090209,
  "addition": null
}, {
  "area_code": 430902,
  "name": "益阳市第十二中学",
  "code": 43090210,
  "addition": null
}, {
  "area_code": 430902,
  "name": "益阳市第十七中学",
  "code": 43090211,
  "addition": null
}, {
  "area_code": 430902,
  "name": "益阳市朝阳国际实验学校",
  "code": 43090212,
  "addition": null
}, {
  "area_code": 430903,
  "name": "益阳市箴言中学 ",
  "code": 43090301,
  "addition": null
}, {
  "area_code": 430921,
  "name": "湖南省南县第一中学 ",
  "code": 43092101,
  "addition": null
}, {
  "area_code": 430921,
  "name": "益阳大通湖区千山红镇中学 ",
  "code": 43092102,
  "addition": null
}, {
  "area_code": 430921,
  "name": "湖南省南县方谷学校 ",
  "code": 43092103,
  "addition": null
}, {
  "area_code": 430921,
  "name": "湖南省南县第六中学 ",
  "code": 43092104,
  "addition": null
}, {
  "area_code": 430921,
  "name": "益阳市大通湖区一中",
  "code": 43092105,
  "addition": null
}, {
  "area_code": 430922,
  "name": "湖南省桃江县第一中学 ",
  "code": 43092201,
  "addition": null
}, {
  "area_code": 430922,
  "name": "湖南省桃江县第六中学 ",
  "code": 43092202,
  "addition": null
}, {
  "area_code": 430922,
  "name": "湖南省桃江县第四中学 ",
  "code": 43092203,
  "addition": null
}, {
  "area_code": 430922,
  "name": "湖南省桃江县第三中学",
  "code": 43092204,
  "addition": null
}, {
  "area_code": 430922,
  "name": "湖南省桃江县第七中学",
  "code": 43092205,
  "addition": null
}, {
  "area_code": 430923,
  "name": "安化县第一中学 ",
  "code": 43092301,
  "addition": null
}, {
  "area_code": 430923,
  "name": "安化县第二中学 ",
  "code": 43092302,
  "addition": null
}, {
  "area_code": 430923,
  "name": "安化县实验高级中学 ",
  "code": 43092303,
  "addition": null
}, {
  "area_code": 430923,
  "name": "安化县第五中学",
  "code": 43092304,
  "addition": null
}, {
  "area_code": 430981,
  "name": "沅江市第一中学 ",
  "code": 43098101,
  "addition": null
}, {
  "area_code": 430981,
  "name": "沅江市第二中学 ",
  "code": 43098102,
  "addition": null
}, {
  "area_code": 430981,
  "name": "沅江市茶盘洲镇中学",
  "code": 43098103,
  "addition": null
}, {
  "area_code": 430981,
  "name": "沅江市第七中学 ",
  "code": 43098104,
  "addition": null
}, {
  "area_code": 430981,
  "name": "沅江市第三中学 ",
  "code": 43098105,
  "addition": null
}, {
  "area_code": 430981,
  "name": "沅江市第四中学",
  "code": 43098106,
  "addition": null
}, {
  "area_code": 431002,
  "name": "郴州市第一完全中学 ",
  "code": 43100201,
  "addition": null
}, {
  "area_code": 431002,
  "name": "郴州市第三完全中学 ",
  "code": 43100202,
  "addition": null
}, {
  "area_code": 431002,
  "name": "郴州市明星学校 ",
  "code": 43100203,
  "addition": null
}, {
  "area_code": 431002,
  "name": "郴州菁华园学校",
  "code": 43100204,
  "addition": null
}, {
  "area_code": 431003,
  "name": "郴州市第二中学 ",
  "code": 43100301,
  "addition": null
}, {
  "area_code": 431003,
  "name": "郴州市第十一中学 ",
  "code": 43100302,
  "addition": null
}, {
  "area_code": 431003,
  "name": "郴州市湘南中学",
  "code": 43100303,
  "addition": null
}, {
  "area_code": 431003,
  "name": "郴州市第十二中学 ",
  "code": 43100304,
  "addition": null
}, {
  "area_code": 431021,
  "name": "桂阳县第三中学 ",
  "code": 43102101,
  "addition": null
}, {
  "area_code": 431021,
  "name": "桂阳县第一中学 ",
  "code": 43102102,
  "addition": null
}, {
  "area_code": 431021,
  "name": "桂阳县第二中学",
  "code": 43102103,
  "addition": null
}, {
  "area_code": 431022,
  "name": "宜章县第六中学 ",
  "code": 43102201,
  "addition": null
}, {
  "area_code": 431022,
  "name": "宜章县第四中学 ",
  "code": 43102202,
  "addition": null
}, {
  "area_code": 431022,
  "name": "宜章县第一中学",
  "code": 43102203,
  "addition": null
}, {
  "area_code": 431023,
  "name": "永兴县第一中学 ",
  "code": 43102301,
  "addition": null
}, {
  "area_code": 431023,
  "name": "永兴县第二中学 ",
  "code": 43102302,
  "addition": null
}, {
  "area_code": 431023,
  "name": "永兴县第三中学",
  "code": 43102303,
  "addition": null
}, {
  "area_code": 431023,
  "name": "永兴县第五中学",
  "code": 43102304,
  "addition": null
}, {
  "area_code": 431024,
  "name": "嘉禾县第一中学 ",
  "code": 43102401,
  "addition": null
}, {
  "area_code": 431025,
  "name": "临武县第一中学 ",
  "code": 43102501,
  "addition": null
}, {
  "area_code": 431025,
  "name": "临武县第二中学 ",
  "code": 43102502,
  "addition": null
}, {
  "area_code": 431026,
  "name": "汝城县第一中学 ",
  "code": 43102601,
  "addition": null
}, {
  "area_code": 431026,
  "name": "汝城县第二中学 ",
  "code": 43102602,
  "addition": null
}, {
  "area_code": 431027,
  "name": "桂东县第一中学 ",
  "code": 43102701,
  "addition": null
}, {
  "area_code": 431028,
  "name": "安仁县第一中学 ",
  "code": 43102801,
  "addition": null
}, {
  "area_code": 431028,
  "name": "安仁县第三中学 ",
  "code": 43102802,
  "addition": null
}, {
  "area_code": 431081,
  "name": "资兴市第一中学 ",
  "code": 43108101,
  "addition": null
}, {
  "area_code": 431081,
  "name": "资兴市市立中学",
  "code": 43108102,
  "addition": null
}, {
  "area_code": 431102,
  "name": "永州市第一中学 ",
  "code": 43110201,
  "addition": null
}, {
  "area_code": 431102,
  "name": "永州市第三中学 ",
  "code": 43110202,
  "addition": null
}, {
  "area_code": 431102,
  "name": "湖南省永州五中 ",
  "code": 43110203,
  "addition": null
}, {
  "area_code": 431102,
  "name": "湖南省永州七中",
  "code": 43110204,
  "addition": null
}, {
  "area_code": 431103,
  "name": "永州市第二中学 ",
  "code": 43110301,
  "addition": null
}, {
  "area_code": 431103,
  "name": "湖南省永州四中 ",
  "code": 43110302,
  "addition": null
}, {
  "area_code": 431103,
  "name": "永州市第六中学 ",
  "code": 43110303,
  "addition": null
}, {
  "area_code": 431103,
  "name": "永州市第八中学",
  "code": 43110304,
  "addition": null
}, {
  "area_code": 431121,
  "name": "祁阳县第一中学 ",
  "code": 43112101,
  "addition": null
}, {
  "area_code": 431121,
  "name": "祁阳县第二中学 ",
  "code": 43112102,
  "addition": null
}, {
  "area_code": 431121,
  "name": "祁阳县云龙中学",
  "code": 43112103,
  "addition": null
}, {
  "area_code": 431121,
  "name": "祁阳县陶铸中学 ",
  "code": 43112104,
  "addition": null
}, {
  "area_code": 431121,
  "name": "祁阳县第四中学 ",
  "code": 43112105,
  "addition": null
}, {
  "area_code": 431121,
  "name": "祁阳县第七中学",
  "code": 43112106,
  "addition": null
}, {
  "area_code": 431122,
  "name": "东安县第一中学 ",
  "code": 43112201,
  "addition": null
}, {
  "area_code": 431122,
  "name": "东安县耀祥中学 ",
  "code": 43112202,
  "addition": null
}, {
  "area_code": 431123,
  "name": "双牌县第二中学",
  "code": 43112301,
  "addition": null
}, {
  "area_code": 431124,
  "name": "湖南省道县第一中学 ",
  "code": 43112401,
  "addition": null
}, {
  "area_code": 431124,
  "name": "湖南省道县第二中学 ",
  "code": 43112402,
  "addition": null
}, {
  "area_code": 431124,
  "name": "湖南省道县第五中学",
  "code": 43112403,
  "addition": null
}, {
  "area_code": 431125,
  "name": "江永县第一中学 ",
  "code": 43112501,
  "addition": null
}, {
  "area_code": 431125,
  "name": "江永县第二中学 ",
  "code": 43112502,
  "addition": null
}, {
  "area_code": 431125,
  "name": "江永县第三中学",
  "code": 43112503,
  "addition": null
}, {
  "area_code": 431126,
  "name": "湖南省宁远县第一中学 ",
  "code": 43112601,
  "addition": null
}, {
  "area_code": 431126,
  "name": "湖南省宁远县第二中学 ",
  "code": 43112602,
  "addition": null
}, {
  "area_code": 431126,
  "name": "湖南省宁远县第三中学 ",
  "code": 43112603,
  "addition": null
}, {
  "area_code": 431128,
  "name": "湖南省新田县第一中学 ",
  "code": 43112801,
  "addition": null
}, {
  "area_code": 431128,
  "name": "新田县二中",
  "code": 43112802,
  "addition": null
}, {
  "area_code": 431127,
  "name": "蓝山县第二中学 ",
  "code": 43112701,
  "addition": null
}, {
  "area_code": 431127,
  "name": "蓝山县第四中学",
  "code": 43112702,
  "addition": null
}, {
  "area_code": 431129,
  "name": "江华瑶族自治县第一中学 ",
  "code": 43112901,
  "addition": null
}, {
  "area_code": 431129,
  "name": "江华瑶族自治县第二中学 ",
  "code": 43112902,
  "addition": null
}, {
  "area_code": 431129,
  "name": "江华瑶族自治县第三中学 ",
  "code": 43112903,
  "addition": null
}, {
  "area_code": 431201,
  "name": "怀化市第一中学",
  "code": 43120101,
  "addition": null
}, {
  "area_code": 431201,
  "name": "怀化市第五中学 ",
  "code": 43120102,
  "addition": null
}, {
  "area_code": 431201,
  "name": "怀化市第三中学 ",
  "code": 43120103,
  "addition": null
}, {
  "area_code": 431201,
  "name": "湖南省怀化铁路第一中学",
  "code": 43120104,
  "addition": null
}, {
  "area_code": 431221,
  "name": "中方县第一中学 ",
  "code": 43122101,
  "addition": null
}, {
  "area_code": 431221,
  "name": "中方县第二中学",
  "code": 43122102,
  "addition": null
}, {
  "area_code": 431222,
  "name": "沅陵县第一中学 ",
  "code": 43122201,
  "addition": null
}, {
  "area_code": 431222,
  "name": "沅陵县第二中学 ",
  "code": 43122202,
  "addition": null
}, {
  "area_code": 431222,
  "name": "沅陵县第六中学",
  "code": 43122203,
  "addition": null
}, {
  "area_code": 431222,
  "name": "沅陵县第七中学 ",
  "code": 43122204,
  "addition": null
}, {
  "area_code": 431222,
  "name": "沅陵县第四中学",
  "code": 43122205,
  "addition": null
}, {
  "area_code": 431223,
  "name": "辰溪县第一中学 ",
  "code": 43122301,
  "addition": null
}, {
  "area_code": 431223,
  "name": "辰溪县第二中学",
  "code": 43122302,
  "addition": null
}, {
  "area_code": 431224,
  "name": "溆浦县第一中学 ",
  "code": 43122401,
  "addition": null
}, {
  "area_code": 431224,
  "name": "溆浦县第二中学 ",
  "code": 43122402,
  "addition": null
}, {
  "area_code": 431224,
  "name": "溆浦县楚才高中 ",
  "code": 43122403,
  "addition": null
}, {
  "area_code": 431224,
  "name": "溆浦县江维中学 ",
  "code": 43122404,
  "addition": null
}, {
  "area_code": 431224,
  "name": "溆浦县第三中学 ",
  "code": 43122405,
  "addition": null
}, {
  "area_code": 431224,
  "name": "溆浦县凯文高级中学",
  "code": 43122406,
  "addition": null
}, {
  "area_code": 431224,
  "name": "溆浦县第四中学",
  "code": 43122407,
  "addition": null
}, {
  "area_code": 431225,
  "name": "会同县第一中学",
  "code": 43122501,
  "addition": null
}, {
  "area_code": 431225,
  "name": "会同县第二中学",
  "code": 43122502,
  "addition": null
}, {
  "area_code": 431225,
  "name": "会同县第三中学",
  "code": 43122503,
  "addition": null
}, {
  "area_code": 431226,
  "name": "麻阳苗族自治县第一中学 ",
  "code": 43122601,
  "addition": null
}, {
  "area_code": 431226,
  "name": "麻阳苗族自治县民族中学 ",
  "code": 43122602,
  "addition": null
}, {
  "area_code": 431226,
  "name": "麻阳县松竹园学校",
  "code": 43122603,
  "addition": null
}, {
  "area_code": 431227,
  "name": "新晃县第一中学 ",
  "code": 43122701,
  "addition": null
}, {
  "area_code": 431228,
  "name": "芷江侗族自治县第一中学 ",
  "code": 43122801,
  "addition": null
}, {
  "area_code": 431229,
  "name": "靖州苗族侗族自治县第一中学",
  "code": 43122901,
  "addition": null
}, {
  "area_code": 431230,
  "name": "通道侗族自治县第一中学 ",
  "code": 43123001,
  "addition": null
}, {
  "area_code": 431230,
  "name": "通道侗族自治县城关中学",
  "code": 43123002,
  "addition": null
}, {
  "area_code": 431281,
  "name": "洪江市黔阳一中 ",
  "code": 43128101,
  "addition": null
}, {
  "area_code": 431281,
  "name": "洪江市黔阳二中 ",
  "code": 43128102,
  "addition": null
}, {
  "area_code": 431281,
  "name": "怀化市洪江区第一中学",
  "code": 43128103,
  "addition": null
}, {
  "area_code": 431281,
  "name": "洪江市黔阳三中 ",
  "code": 43128104,
  "addition": null
}, {
  "area_code": 431281,
  "name": "洪江市芙蓉中学",
  "code": 43128105,
  "addition": null
}, {
  "area_code": 431302,
  "name": "娄底市第一中学 ",
  "code": 43130201,
  "addition": null
}, {
  "area_code": 431302,
  "name": "娄底市第二中学 ",
  "code": 43130202,
  "addition": null
}, {
  "area_code": 431302,
  "name": "娄底市第六中学 ",
  "code": 43130203,
  "addition": null
}, {
  "area_code": 431302,
  "name": "娄底市第五中学 ",
  "code": 43130204,
  "addition": null
}, {
  "area_code": 431302,
  "name": "娄底市第三中学 ",
  "code": 43130205,
  "addition": null
}, {
  "area_code": 431302,
  "name": "湖南省娄底市春元中学 ",
  "code": 43130206,
  "addition": null
}, {
  "area_code": 431302,
  "name": "娄底市第四中学",
  "code": 43130207,
  "addition": null
}, {
  "area_code": 431302,
  "name": "娄底市蓝圃学校",
  "code": 43130208,
  "addition": null
}, {
  "area_code": 431321,
  "name": "湖南省双峰一中 ",
  "code": 43132101,
  "addition": null
}, {
  "area_code": 431321,
  "name": "湖南省双峰二中 ",
  "code": 43132102,
  "addition": null
}, {
  "area_code": 431321,
  "name": "湖南省双峰七中 ",
  "code": 43132103,
  "addition": null
}, {
  "area_code": 431321,
  "name": "湖南省双峰五中 ",
  "code": 43132104,
  "addition": null
}, {
  "area_code": 431321,
  "name": "双峰县开源中学",
  "code": 43132105,
  "addition": null
}, {
  "area_code": 431321,
  "name": "湖南省双峰三中 ",
  "code": 43132106,
  "addition": null
}, {
  "area_code": 431321,
  "name": "双峰县第八中学 ",
  "code": 43132107,
  "addition": null
}, {
  "area_code": 431321,
  "name": "湖南省双峰四中",
  "code": 43132108,
  "addition": null
}, {
  "area_code": 431321,
  "name": "曾国藩实验学校",
  "code": 43132109,
  "addition": null
}, {
  "area_code": 431322,
  "name": "新化县第一中学 ",
  "code": 43132201,
  "addition": null
}, {
  "area_code": 431322,
  "name": "新化县第二中学 ",
  "code": 43132202,
  "addition": null
}, {
  "area_code": 431322,
  "name": "新化县上梅中学 ",
  "code": 43132203,
  "addition": null
}, {
  "area_code": 431322,
  "name": "新化县第五中学 ",
  "code": 43132204,
  "addition": null
}, {
  "area_code": 431322,
  "name": "新化县第十六中学",
  "code": 43132205,
  "addition": null
}, {
  "area_code": 431322,
  "name": "新化县第三中学 ",
  "code": 43132206,
  "addition": null
}, {
  "area_code": 431322,
  "name": "新化县第十一中学 ",
  "code": 43132207,
  "addition": null
}, {
  "area_code": 431322,
  "name": "新化县第四中学",
  "code": 43132208,
  "addition": null
}, {
  "area_code": 431322,
  "name": "新化县第十二中学",
  "code": 43132209,
  "addition": null
}, {
  "area_code": 431381,
  "name": "冷水江市第一中学 ",
  "code": 43138101,
  "addition": null
}, {
  "area_code": 431381,
  "name": "冷水江市第六中学 ",
  "code": 43138102,
  "addition": null
}, {
  "area_code": 431381,
  "name": "冷水江市第七中学 ",
  "code": 43138103,
  "addition": null
}, {
  "area_code": 431381,
  "name": "冷水江市欧健双语学校",
  "code": 43138104,
  "addition": null
}, {
  "area_code": 431382,
  "name": "湖南省涟源市第一中学 ",
  "code": 43138201,
  "addition": null
}, {
  "area_code": 431382,
  "name": "涟源市私立行知中学 ",
  "code": 43138202,
  "addition": null
}, {
  "area_code": 431382,
  "name": "涟源市第六中学",
  "code": 43138203,
  "addition": null
}, {
  "area_code": 431382,
  "name": "涟源市第四中学 ",
  "code": 43138204,
  "addition": null
}, {
  "area_code": 431382,
  "name": "涟源市第二中学 ",
  "code": 43138205,
  "addition": null
}, {
  "area_code": 431382,
  "name": "涟源市第三中学",
  "code": 43138206,
  "addition": null
}, {
  "area_code": 433101,
  "name": "湖南湘西州民族中学 ",
  "code": 43310101,
  "addition": null
}, {
  "area_code": 433101,
  "name": "吉首市第一中学 ",
  "code": 43310102,
  "addition": null
}, {
  "area_code": 433101,
  "name": "湘西博雅高级中学",
  "code": 43310103,
  "addition": null
}, {
  "area_code": 433101,
  "name": "吉首市民族中学 ",
  "code": 43310104,
  "addition": null
}, {
  "area_code": 433101,
  "name": "吉首市小溪桥中学",
  "code": 43310105,
  "addition": null
}, {
  "area_code": 433122,
  "name": "泸溪县第一中学 ",
  "code": 43312201,
  "addition": null
}, {
  "area_code": 433122,
  "name": "泸溪县第二中学 ",
  "code": 43312202,
  "addition": null
}, {
  "area_code": 433122,
  "name": "泸溪县第五中学",
  "code": 43312203,
  "addition": null
}, {
  "area_code": 433123,
  "name": "凤凰县高级中学 ",
  "code": 43312301,
  "addition": null
}, {
  "area_code": 433123,
  "name": "凤凰县文昌实验中学 ",
  "code": 43312302,
  "addition": null
}, {
  "area_code": 433123,
  "name": "凤凰县华鑫实验中学",
  "code": 43312303,
  "addition": 凤凰县华鑫中学
}, {
  "area_code": 433124,
  "name": "花垣县边城高级中学 ",
  "code": 43312401,
  "addition": null
}, {
  "area_code": 433124,
  "name": "花垣县民族中学 ",
  "code": 43312402,
  "addition": null
}, {
  "area_code": 433125,
  "name": "保靖县民族中学 ",
  "code": 43312501,
  "addition": null
}, {
  "area_code": 433126,
  "name": "古丈县第一中学",
  "code": 43312601,
  "addition": null
}, {
  "area_code": 433127,
  "name": "永顺县第一中学 ",
  "code": 43312701,
  "addition": null
}, {
  "area_code": 433127,
  "name": "永顺县第二中学 ",
  "code": 43312702,
  "addition": null
}, {
  "area_code": 433127,
  "name": "永顺县第三中学",
  "code": 43312703,
  "addition": null
}, {
  "area_code": 433127,
  "name": "湘西州第二民族中学 ",
  "code": 43312704,
  "addition": null
}, {
  "area_code": 433130,
  "name": "龙山县高级中学 ",
  "code": 43313001,
  "addition": null
}, {
  "area_code": 433130,
  "name": "龙山县里耶民族中学",
  "code": 43313002,
  "addition": null
}, {
  "area_code": 433130,
  "name": "皇仓中学 ",
  "code": 43313003,
  "addition": null
}, {
  "area_code": 410103,
  "name": "郑州市第五十三中学",
  "code": 41010310,
  "addition": null
}, {
  "area_code": 410103,
  "name": "郑州市第一0一中学",
  "code": 41010311,
  "addition": 原郑州铁路一中
}, {
  "area_code": 410181,
  "name": "巩义市第一高级中学",
  "code": 41018101,
  "addition": null
}, {
  "area_code": 410181,
  "name": "巩义市第二高级中学",
  "code": 41018102,
  "addition": null
}, {
  "area_code": 410181,
  "name": "巩义市第三高级中学",
  "code": 41018103,
  "addition": null
}, {
  "area_code": 410181,
  "name": "巩义市第四高级中学",
  "code": 41018104,
  "addition": null
}, {
  "area_code": 410181,
  "name": "巩义市第五高级中学",
  "code": 41018105,
  "addition": null
}, {
  "area_code": 410181,
  "name": "巩义市第六高级中学",
  "code": 41018106,
  "addition": null
}, {
  "area_code": 410181,
  "name": "巩义市第七高级中学",
  "code": 41018107,
  "addition": null
}, {
  "area_code": 410181,
  "name": "巩义市第八高级中学",
  "code": 41018108,
  "addition": null
}, {
  "area_code": 410181,
  "name": "巩义市市直高中",
  "code": 41018109,
  "addition": 原巩县县城高中
}, {
  "area_code": 410181,
  "name": "河南省巩义中学",
  "code": 41018110,
  "addition": null
}, {
  "area_code": 410104,
  "name": "郑州市第二十九中学",
  "code": 41010401,
  "addition": null
}, {
  "area_code": 410104,
  "name": "郑州市第十中学",
  "code": 41010402,
  "addition": null
}, {
  "area_code": 410104,
  "name": "郑州市第五中学",
  "code": 41010403,
  "addition": null
}, {
  "area_code": 410104,
  "name": "郑州市扶轮外国语学校",
  "code": 41010404,
  "addition": null
}, {
  "area_code": 410108,
  "name": "郑州市第二十中学",
  "code": 41010801,
  "addition": null
}, {
  "area_code": 410108,
  "name": "郑州市第十二中学",
  "code": 41010802,
  "addition": null
}, {
  "area_code": 410105,
  "name": "河南建业外国语中学",
  "code": 41010501,
  "addition": null
}, {
  "area_code": 410105,
  "name": "河南省实验中学",
  "code": 41010502,
  "addition": null
}, {
  "area_code": 410105,
  "name": " 河南省实验文博学校",
  "code": 41010503,
  "addition": 河南省实验中学分校
}, {
  "area_code": 410105,
  "name": "郑州大学第二附属中学",
  "code": 41010504,
  "addition": null
}, {
  "area_code": 410105,
  "name": "郑州金山桥学校",
  "code": 41010505,
  "addition": null
}, {
  "area_code": 410105,
  "name": "郑州九中分校",
  "code": 41010506,
  "addition": null
}, {
  "area_code": 410105,
  "name": "郑州女子高级中学",
  "code": 41010507,
  "addition": null
}, {
  "area_code": 410105,
  "name": "郑州市第103中学",
  "code": 41010508,
  "addition": null
}, {
  "area_code": 410105,
  "name": "郑州市第二十六中学",
  "code": 41010509,
  "addition": null
}, {
  "area_code": 410105,
  "name": "郑州市第二十三中学",
  "code": 41010510,
  "addition": null
}, {
  "area_code": 410105,
  "name": "郑州市第九中学",
  "code": 41010511,
  "addition": null
}, {
  "area_code": 410105,
  "name": "郑州市第七中学",
  "code": 41010512,
  "addition": null
}, {
  "area_code": 410105,
  "name": "郑州市第七中学分校",
  "code": 41010513,
  "addition": null
}, {
  "area_code": 410105,
  "name": "郑州市第三十一中学",
  "code": 41010514,
  "addition": null
}, {
  "area_code": 410105,
  "name": "郑州市第十七中学",
  "code": 41010515,
  "addition": null
}, {
  "area_code": 410105,
  "name": "郑州市第十一中学",
  "code": 41010516,
  "addition": null
}, {
  "area_code": 410105,
  "name": "郑州市第十一中学实验分校",
  "code": 41010517,
  "addition": null
}, {
  "area_code": 410105,
  "name": "郑州市第四十七中学",
  "code": 41010518,
  "addition": null
}, {
  "area_code": 410105,
  "name": "郑州市第四十七中学分校",
  "code": 41010519,
  "addition": null
}, {
  "area_code": 410105,
  "name": "郑州市回民中学",
  "code": 41010520,
  "addition": 又称郑州市六中， 回民六中
}, {
  "area_code": 410106,
  "name": "上街区实验高中",
  "code": 41010601,
  "addition": null
}, {
  "area_code": 410106,
  "name": "郑州市第二外国语学校",
  "code": 41010602,
  "addition": null
}, {
  "area_code": 410101,
  "name": "河南省郑州中学",
  "code": 41010101,
  "addition": null
}, {
  "area_code": 410101,
  "name": "郑州市第三十六中学",
  "code": 41010102,
  "addition": null
}, {
  "area_code": 410183,
  "name": "新密市第二高级中学",
  "code": 41018301,
  "addition": null
}, {
  "area_code": 410183,
  "name": "新密市第一高级中学",
  "code": 41018302,
  "addition": null
}, {
  "area_code": 410183,
  "name": "新密市实验高中",
  "code": 41018303,
  "addition": null
}, {
  "area_code": 410183,
  "name": "新密市英华中学",
  "code": 41018304,
  "addition": null
}, {
  "area_code": 410184,
  "name": "北大附中河南分校",
  "code": 41018401,
  "addition": null
}, {
  "area_code": 410184,
  "name": "河南省新郑市第三中学",
  "code": 41018402,
  "addition": null
}, {
  "area_code": 410184,
  "name": "新郑市第二中学",
  "code": 41018403,
  "addition": null
}, {
  "area_code": 410184,
  "name": "新郑市第二中学分校",
  "code": 41018404,
  "addition": null
}, {
  "area_code": 410184,
  "name": "新郑市第一中学",
  "code": 41018405,
  "addition": null
}, {
  "area_code": 410184,
  "name": "新郑市第一中学分校",
  "code": 41018406,
  "addition": null
}, {
  "area_code": 410184,
  "name": "新郑市外国语高级中学",
  "code": 41018407,
  "addition": null
}, {
  "area_code": 410182,
  "name": "河南省荥阳市第三高级中学",
  "code": 41018201,
  "addition": null
}, {
  "area_code": 410182,
  "name": "河南省荥阳市高级中学",
  "code": 41018202,
  "addition": null
}, {
  "area_code": 410182,
  "name": "荥阳市第二高级中学",
  "code": 41018203,
  "addition": null
}, {
  "area_code": 410182,
  "name": "荥阳市实验高中",
  "code": 41018204,
  "addition": null
}, {
  "area_code": 410122,
  "name": "中牟县第一高级中学",
  "code": 41012201,
  "addition": null
}, {
  "area_code": 410122,
  "name": "中牟县第二高级中学",
  "code": 41012202,
  "addition": null
}, {
  "area_code": 410122,
  "name": "中牟县第四高级中学",
  "code": 41012203,
  "addition": null
}, {
  "area_code": 410102,
  "name": "河南足球学校",
  "code": 41010201,
  "addition": null
}, {
  "area_code": 410102,
  "name": "郑州市第二十四中学",
  "code": 41010202,
  "addition": null
}, {
  "area_code": 410102,
  "name": "郑州华夏中学",
  "code": 41010203,
  "addition": null
}, {
  "area_code": 410102,
  "name": "郑州十六中分校",
  "code": 41010204,
  "addition": null
}, {
  "area_code": 410102,
  "name": "郑州市第十九中学",
  "code": 41010205,
  "addition": null
}, {
  "area_code": 410102,
  "name": "郑州市第十六中学",
  "code": 41010206,
  "addition": null
}, {
  "area_code": 410102,
  "name": "郑州市第一中学",
  "code": 41010207,
  "addition": null
}, {
  "area_code": 410102,
  "name": "郑州嵩阳中学",
  "code": 41010208,
  "addition": null
}, {
  "area_code": 410102,
  "name": "郑州外国语学校",
  "code": 41010209,
  "addition": null
}, {
  "area_code": 410102,
  "name": "郑州外国语学校分校",
  "code": 41010210,
  "addition": null
}, {
  "area_code": 410102,
  "name": "郑州新意中学",
  "code": 41010211,
  "addition": null
}, {
  "area_code": 410102,
  "name": "郑州一中实验分校",
  "code": 41010212,
  "addition": null
}, {
  "area_code": 411602,
  "name": "龙水实验高中",
  "code": 41160201,
  "addition": null
}, {
  "area_code": 411602,
  "name": "周口第三高级中学",
  "code": 41160202,
  "addition": null
}, {
  "area_code": 411602,
  "name": "周口市第二高级中学",
  "code": 41160203,
  "addition": null
}, {
  "area_code": 411602,
  "name": "周口市第一高级中学",
  "code": 41160204,
  "addition": null
}, {
  "area_code": 411602,
  "name": "周口市华龙高中",
  "code": 41160205,
  "addition": null
}, {
  "area_code": 411602,
  "name": "周口市宇立学校",
  "code": 41160206,
  "addition": null
}, {
  "area_code": 411602,
  "name": "周口市育新高级中学",
  "code": 41160207,
  "addition": null
}, {
  "area_code": 411602,
  "name": "周口颍河高级中学",
  "code": 41160208,
  "addition": null
}, {
  "area_code": 411625,
  "name": "郸城县才源高中",
  "code": 41162501,
  "addition": null
}, {
  "area_code": 411625,
  "name": "郸城县第二高级中学",
  "code": 41162502,
  "addition": null
}, {
  "area_code": 411625,
  "name": "郸城县第三高级中学",
  "code": 41162503,
  "addition": null
}, {
  "area_code": 411625,
  "name": "郸城县第一高级中学",
  "code": 41162504,
  "addition": null
}, {
  "area_code": 411625,
  "name": "郸城县希望高中",
  "code": 41162505,
  "addition": null
}, {
  "area_code": 411625,
  "name": "郸城县一高东校",
  "code": 41162506,
  "addition": null
}, {
  "area_code": 411621,
  "name": "扶沟县包屯高级中学",
  "code": 41162101,
  "addition": null
}, {
  "area_code": 411621,
  "name": "扶沟县第二高级中学",
  "code": 41162102,
  "addition": null
}, {
  "area_code": 411621,
  "name": "扶沟县高级中学",
  "code": 41162103,
  "addition": null
}, {
  "area_code": 411621,
  "name": "扶沟县韭园高级中学",
  "code": 41162104,
  "addition": null
}, {
  "area_code": 411621,
  "name": "扶沟县秋实高中",
  "code": 41162105,
  "addition": null
}, {
  "area_code": 411621,
  "name": "扶沟县县直高中",
  "code": 41162106,
  "addition": null
}, {
  "area_code": 411626,
  "name": "淮阳县第一高级中学",
  "code": 41162601,
  "addition": null
}, {
  "area_code": 411626,
  "name": "淮阳县第一中学",
  "code": 41162602,
  "addition": null
}, {
  "area_code": 411626,
  "name": "淮阳县淮阳一中分校",
  "code": 41162603,
  "addition": null
}, {
  "area_code": 411626,
  "name": "淮阳县淮阳中学",
  "code": 41162604,
  "addition": null
}, {
  "area_code": 411626,
  "name": "淮阳县淮阳中学分校",
  "code": 41162605,
  "addition": null
}, {
  "area_code": 411626,
  "name": "淮阳县实验高中",
  "code": 41162606,
  "addition": null
}, {
  "area_code": 411626,
  "name": "淮阳县朱集高中",
  "code": 41162607,
  "addition": null
}, {
  "area_code": 411628,
  "name": "鹿邑县伯阳双语学校",
  "code": 41162801,
  "addition": null
}, {
  "area_code": 411628,
  "name": "鹿邑县第二高级中学",
  "code": 41162802,
  "addition": null
}, {
  "area_code": 411628,
  "name": "鹿邑县第三高级中学",
  "code": 41162803,
  "addition": null
}, {
  "area_code": 411628,
  "name": "鹿邑县高级中学",
  "code": 41162804,
  "addition": null
}, {
  "area_code": 411628,
  "name": "鹿邑县远志高级中学",
  "code": 41162805,
  "addition": null
}, {
  "area_code": 411623,
  "name": "商水县第二高级中学",
  "code": 41162301,
  "addition": null
}, {
  "area_code": 411623,
  "name": "商水县第三中学",
  "code": 41162302,
  "addition": null
}, {
  "area_code": 411623,
  "name": "商水县第一高级中学",
  "code": 41162303,
  "addition": null
}, {
  "area_code": 411623,
  "name": "商水县中英文学校",
  "code": 41162304,
  "addition": null
}, {
  "area_code": 411624,
  "name": "沈丘县第二高级中学",
  "code": 41162401,
  "addition": null
}, {
  "area_code": 411624,
  "name": "沈丘县第七高级中学",
  "code": 41162402,
  "addition": null
}, {
  "area_code": 411624,
  "name": "沈丘县第三高级中学",
  "code": 41162403,
  "addition": null
}, {
  "area_code": 411624,
  "name": "沈丘县第四高级中学",
  "code": 41162404,
  "addition": null
}, {
  "area_code": 411624,
  "name": "沈丘县第五高级中学",
  "code": 41162405,
  "addition": null
}, {
  "area_code": 411624,
  "name": "沈丘县第一高级中学",
  "code": 41162406,
  "addition": null
}, {
  "area_code": 411624,
  "name": "沈丘县万龙高中",
  "code": 41162407,
  "addition": null
}, {
  "area_code": 411624,
  "name": "沈丘县县直高中",
  "code": 41162408,
  "addition": null
}, {
  "area_code": 411624,
  "name": "沈丘县醒民高级中学",
  "code": 41162409,
  "addition": null
}, {
  "area_code": 411627,
  "name": "河南华夏外国语高级中学",
  "code": 41162701,
  "addition": null
}, {
  "area_code": 411627,
  "name": "太康县第二高级中学",
  "code": 41162702,
  "addition": null
}, {
  "area_code": 411627,
  "name": "太康县第三高级中学",
  "code": 41162703,
  "addition": null
}, {
  "area_code": 411627,
  "name": "太康县第一高级中学",
  "code": 41162704,
  "addition": null
}, {
  "area_code": 411622,
  "name": "西华县第二高级中学",
  "code": 41162201,
  "addition": null
}, {
  "area_code": 411622,
  "name": "西华县第三高级中学",
  "code": 41162202,
  "addition": null
}, {
  "area_code": 411622,
  "name": "西华县第一高级中学",
  "code": 41162203,
  "addition": null
}, {
  "area_code": 411622,
  "name": "西华县黄泛区农场高级中学",
  "code": 41162204,
  "addition": null
}, {
  "area_code": 411622,
  "name": "西华县箕城高中",
  "code": 41162205,
  "addition": null
}, {
  "area_code": 411681,
  "name": "项城市第二高级中学",
  "code": 41168101,
  "addition": null
}, {
  "area_code": 411681,
  "name": "项城市第三高级中学",
  "code": 41168102,
  "addition": null
}, {
  "area_code": 411681,
  "name": "项城市第一高级中学",
  "code": 41168103,
  "addition": null
}, {
  "area_code": 411681,
  "name": "项城市第一高级中学分校",
  "code": 41168104,
  "addition": null
}, {
  "area_code": 411681,
  "name": "项城市二高分校",
  "code": 41168105,
  "addition": null
}, {
  "area_code": 411681,
  "name": "项城市老城高级中学",
  "code": 41168106,
  "addition": null
}, {
  "area_code": 411726,
  "name": "泌阳县第二高级中学",
  "code": 41172601,
  "addition": null
}, {
  "area_code": 411726,
  "name": "泌阳县第一高级中学",
  "code": 41172602,
  "addition": null
}, {
  "area_code": 411726,
  "name": "泌阳县官庄高级中学校",
  "code": 41172603,
  "addition": null
}, {
  "area_code": 411723,
  "name": "平舆县第二高级中学",
  "code": 41172301,
  "addition": null
}, {
  "area_code": 411723,
  "name": "平舆县第三高级中学",
  "code": 41172302,
  "addition": null
}, {
  "area_code": 411723,
  "name": "平舆县第一高级中学",
  "code": 41172303,
  "addition": null
}, {
  "area_code": 411723,
  "name": "平舆县实验中学",
  "code": 41172304,
  "addition": 原名平舆四高
}, {
  "area_code": 411725,
  "name": "确山县第一高级中学",
  "code": 41172501,
  "addition": null
}, {
  "area_code": 411725,
  "name": "驻马店市确山县二高",
  "code": 41172502,
  "addition": null
}, {
  "area_code": 411727,
  "name": "河南省汝南双语学校",
  "code": 41172701,
  "addition": null
}, {
  "area_code": 411727,
  "name": "汝南县第二高级中学",
  "code": 41172702,
  "addition": null
}, {
  "area_code": 411727,
  "name": "汝南县第一高级中学",
  "code": 41172703,
  "addition": null
}, {
  "area_code": 411722,
  "name": "上蔡县第二高级中学",
  "code": 41172201,
  "addition": null
}, {
  "area_code": 411722,
  "name": "河南省上蔡县第一高级中学",
  "code": 41172202,
  "addition": null
}, {
  "area_code": 411722,
  "name": "上蔡一高分校",
  "code": 41172203,
  "addition": null
}, {
  "area_code": 411728,
  "name": "遂平县第二高级中学",
  "code": 41172801,
  "addition": null
}, {
  "area_code": 411728,
  "name": "遂平县第一高级中学",
  "code": 41172802,
  "addition": null
}, {
  "area_code": 411721,
  "name": "西平县高级中学",
  "code": 41172101,
  "addition": null
}, {
  "area_code": 411721,
  "name": "西平县文成中学",
  "code": 41172102,
  "addition": null
}, {
  "area_code": 411721,
  "name": "西平县杨庄高级中学",
  "code": 41172103,
  "addition": null
}, {
  "area_code": 411729,
  "name": "新蔡县第二高级中学",
  "code": 41172901,
  "addition": null
}, {
  "area_code": 411729,
  "name": "新蔡县第一高级中学",
  "code": 41172902,
  "addition": null
}, {
  "area_code": 411729,
  "name": "新蔡县第一高级中学新校区（高三）",
  "code": 41172903,
  "addition": null
}, {
  "area_code": 411702,
  "name": "驻马店高级中学",
  "code": 41170201,
  "addition": null
}, {
  "area_code": 411702,
  "name": "驻马店敬业高中",
  "code": 41170202,
  "addition": null
}, {
  "area_code": 411702,
  "name": "驻马店市第二高级中学",
  "code": 41170203,
  "addition": null
}, {
  "area_code": 411702,
  "name": "驻马店市第三高级中学",
  "code": 41170204,
  "addition": null
}, {
  "area_code": 411702,
  "name": "驻马店市第一高级中学",
  "code": 41170205,
  "addition": null
}, {
  "area_code": 411702,
  "name": "驻马店市高级中学（分校）",
  "code": 41170206,
  "addition": null
}, {
  "area_code": 411702,
  "name": "驻马店市育秀高级中学",
  "code": 41170207,
  "addition": null
}, {
  "area_code": 411702,
  "name": "驻马店驿城高中",
  "code": 41170208,
  "addition": null
}, {
  "area_code": 411724,
  "name": "正阳县县直二高",
  "code": 41172401,
  "addition": null
}, {
  "area_code": 411724,
  "name": "正阳县县直一高",
  "code": 41172402,
  "addition": null
}, {
  "area_code": 411724,
  "name": "正阳育才外国语学校",
  "code": 41172403,
  "addition": null
}, {
  "area_code": 411724,
  "name": "驻马店市正阳县高级中学",
  "code": 41172404,
  "addition": null
}]
