[{
  "area_code": 350102,
  "name": "福州第一中学",
  "code": 35010201,
  "addition": null
}, {
  "area_code": 350102,
  "name": "福州第二中学",
  "code": 35010202,
  "addition": null
}, {
  "area_code": 350102,
  "name": "福州第十八中学",
  "code": 35010203,
  "addition": null
}, {
  "area_code": 350102,
  "name": "闽江学院附中",
  "code": 35010204,
  "addition": null
}, {
  "area_code": 350102,
  "name": "福州第三中学",
  "code": 35010205,
  "addition": null
}, {
  "area_code": 350102,
  "name": "福州屏东中学",
  "code": 35010206,
  "addition": null
}, {
  "area_code": 350102,
  "name": "福州市第一中学",
  "code": 35010207,
  "addition": null
}, {
  "area_code": 350102,
  "name": "福州格致中学",
  "code": 35010208,
  "addition": null
}, {
  "area_code": 350102,
  "name": "福州铜盘中学",
  "code": 35010209,
  "addition": null
}, {
  "area_code": 350102,
  "name": "福建省福州延安中学",
  "code": 35010210,
  "addition": null
}, {
  "area_code": 350102,
  "name": "福州十一中",
  "code": 35010211,
  "addition": null
}, {
  "area_code": 350102,
  "name": "福州教育学院附属中学",
  "code": 35010212,
  "addition": null
}, {
  "area_code": 350102,
  "name": "福建师范大学文博附属中学",
  "code": 35010213,
  "addition": null
}, {
  "area_code": 350102,
  "name": "福州黎明中学",
  "code": 35010214,
  "addition": null
}, {
  "area_code": 350103,
  "name": "福州华侨中学",
  "code": 35010301,
  "addition": null
}, {
  "area_code": 350103,
  "name": "福州第十五中学",
  "code": 35010302,
  "addition": null
}, {
  "area_code": 350103,
  "name": "福州市第八中学",
  "code": 35010303,
  "addition": null
}, {
  "area_code": 350103,
  "name": "福州第四中学",
  "code": 35010304,
  "addition": null
}, {
  "area_code": 350104,
  "name": "福州外国语学校",
  "code": 35010401,
  "addition": 民间叫它： 九中
}, {
  "area_code": 350104,
  "name": "福州城门中学",
  "code": 35010402,
  "addition": null
}, {
  "area_code": 350104,
  "name": "福州高级中学",
  "code": 35010403,
  "addition": null
}, {
  "area_code": 350104,
  "name": "福建省福州第四十中学",
  "code": 35010404,
  "addition": null
}, {
  "area_code": 350104,
  "name": "福州三中金山校区",
  "code": 35010405,
  "addition": null
}, {
  "area_code": 350104,
  "name": "福建师大附中",
  "code": 35010406,
  "addition": null
}, {
  "area_code": 350104,
  "name": "福州时代中学",
  "code": 35010407,
  "addition": null
}, {
  "area_code": 350104,
  "name": "福州超德高级中学",
  "code": 35010408,
  "addition": null
}, {
  "area_code": 350104,
  "name": "福建省福州市第三十中学",
  "code": 35010409,
  "addition": null
}, {
  "area_code": 350104,
  "name": "福州英华英语学校",
  "code": 35010410,
  "addition": null
}, {
  "area_code": 350104,
  "name": "福建省福州第二十九中学",
  "code": 35010411,
  "addition": null
}, {
  "area_code": 350104,
  "name": "福州江南水都中学",
  "code": 35010412,
  "addition": null
}, {
  "area_code": 350104,
  "name": "福州私立金山高级中学",
  "code": 35010413,
  "addition": null
}, {
  "area_code": 350104,
  "name": "福州左海学校",
  "code": 35010414,
  "addition": null
}, {
  "area_code": 350104,
  "name": "福建农林大学附属中学",
  "code": 35010415,
  "addition": null
}, {
  "area_code": 350105,
  "name": "福建师范大学第二附属中学",
  "code": 35010501,
  "addition": null
}, {
  "area_code": 350105,
  "name": "福建省福州亭江中学",
  "code": 35010502,
  "addition": null
}, {
  "area_code": 350105,
  "name": "福州阳光国际学校",
  "code": 35010503,
  "addition": null
}, {
  "area_code": 350111,
  "name": "福州格致中学鼓山校区",
  "code": 35011101,
  "addition": null
}, {
  "area_code": 350111,
  "name": "福建省福州市第十中学",
  "code": 35011102,
  "addition": null
}, {
  "area_code": 350111,
  "name": "福建省福州第七中学",
  "code": 35011103,
  "addition": null
}, {
  "area_code": 350111,
  "name": "福州教育学院第二附属中学",
  "code": 35011104,
  "addition": null
}, {
  "area_code": 350111,
  "name": "福州市鼓山中学",
  "code": 35011105,
  "addition": null
}, {
  "area_code": 350111,
  "name": "福州日升中学",
  "code": 35011106,
  "addition": null
}, {
  "area_code": 350121,
  "name": "福州琅岐中学",
  "code": 35012101,
  "addition": null
}, {
  "area_code": 350121,
  "name": "闽侯第二中学",
  "code": 35012102,
  "addition": null
}, {
  "area_code": 350121,
  "name": "福建省闽侯第四中学",
  "code": 35012103,
  "addition": null
}, {
  "area_code": 350121,
  "name": "闽侯第三中学",
  "code": 35012104,
  "addition": null
}, {
  "area_code": 350121,
  "name": "福建省闽侯第六中学",
  "code": 35012105,
  "addition": null
}, {
  "area_code": 350121,
  "name": "福建省闽侯第一中学",
  "code": 35012106,
  "addition": null
}, {
  "area_code": 350121,
  "name": "闽侯县第八中学",
  "code": 35012107,
  "addition": null
}, {
  "area_code": 350121,
  "name": "福州闽侯方舟学校",
  "code": 35012108,
  "addition": null
}, {
  "area_code": 350121,
  "name": "私立金桥学校",
  "code": 35012109,
  "addition": null
}, {
  "area_code": 350122,
  "name": "连江县第一中学",
  "code": 35012201,
  "addition": null
}, {
  "area_code": 350122,
  "name": "连江县第二中学",
  "code": 35012202,
  "addition": null
}, {
  "area_code": 350122,
  "name": "福州私立树德学校",
  "code": 35012203,
  "addition": null
}, {
  "area_code": 350122,
  "name": "福建省连江黄如论中学",
  "code": 35012204,
  "addition": null
}, {
  "area_code": 350122,
  "name": "连江县尚德中学",
  "code": 35012205,
  "addition": null
}, {
  "area_code": 350122,
  "name": "连江县华侨中学",
  "code": 35012206,
  "addition": null
}, {
  "area_code": 350122,
  "name": "福建省连江第五中学",
  "code": 35012207,
  "addition": null
}, {
  "area_code": 350122,
  "name": "连江县黄歧中学",
  "code": 35012208,
  "addition": null
}, {
  "area_code": 350122,
  "name": "福建省连江文笔中学",
  "code": 35012209,
  "addition": null
}, {
  "area_code": 350122,
  "name": "连江蓬岐中学",
  "code": 35012210,
  "addition": null
}, {
  "area_code": 350123,
  "name": "福建省福州民族中学",
  "code": 35012301,
  "addition": null
}, {
  "area_code": 350123,
  "name": "罗源第一中学",
  "code": 35012302,
  "addition": null
}, {
  "area_code": 350123,
  "name": "福建省罗源第二中学",
  "code": 35012303,
  "addition": null
}, {
  "area_code": 350124,
  "name": "闽清县第一中学",
  "code": 35012401,
  "addition": null
}, {
  "area_code": 350124,
  "name": "闽清高级中学",
  "code": 35012402,
  "addition": null
}, {
  "area_code": 350124,
  "name": "闽清第二中学",
  "code": 35012403,
  "addition": null
}, {
  "area_code": 350124,
  "name": "福建省闽清县第三中学",
  "code": 35012404,
  "addition": null
}, {
  "area_code": 350125,
  "name": "福建省永泰县第一中学",
  "code": 35012501,
  "addition": null
}, {
  "area_code": 350125,
  "name": "永泰县城关中学",
  "code": 35012502,
  "addition": null
}, {
  "area_code": 350125,
  "name": "永泰第二中学",
  "code": 35012503,
  "addition": null
}, {
  "area_code": 350125,
  "name": "福建省永泰县第三中学",
  "code": 35012504,
  "addition": null
}, {
  "area_code": 350125,
  "name": "永泰私立云山学校",
  "code": 35012505,
  "addition": null
}, {
  "area_code": 350128,
  "name": "平潭县第一中学",
  "code": 35012801,
  "addition": null
}, {
  "area_code": 350128,
  "name": "平潭县私立城东中学",
  "code": 35012802,
  "addition": null
}, {
  "area_code": 350128,
  "name": "平潭县城关中学",
  "code": 35012803,
  "addition": null
}, {
  "area_code": 350128,
  "name": "平潭县私立翰英中学",
  "code": 35012804,
  "addition": null
}, {
  "area_code": 350128,
  "name": "平潭县私立岚华中学",
  "code": 35012805,
  "addition": null
}, {
  "area_code": 350128,
  "name": "平潭县第三中学",
  "code": 35012806,
  "addition": null
}, {
  "area_code": 350128,
  "name": "平潭县私立海滨学校",
  "code": 35012807,
  "addition": null
}, {
  "area_code": 350128,
  "name": "平潭县私立新世纪学校",
  "code": 35012808,
  "addition": null
}, {
  "area_code": 350128,
  "name": "平潭县私立育英学校",
  "code": 35012809,
  "addition": null
}, {
  "area_code": 350128,
  "name": "平潭县第二中学",
  "code": 35012810,
  "addition": null
}, {
  "area_code": 350128,
  "name": "平潭县流水中学",
  "code": 35012811,
  "addition": null
}, {
  "area_code": 350181,
  "name": "福清融城中学",
  "code": 35018101,
  "addition": null
}, {
  "area_code": 350181,
  "name": "福清第一中学",
  "code": 35018102,
  "addition": null
}, {
  "area_code": 350181,
  "name": "福清第二中学",
  "code": 35018103,
  "addition": null
}, {
  "area_code": 350181,
  "name": "福建省福清华侨中学",
  "code": 35018104,
  "addition": null
}, {
  "area_code": 350181,
  "name": "福清元洪高级中学",
  "code": 35018105,
  "addition": null
}, {
  "area_code": 350181,
  "name": "福清市宏路中学",
  "code": 35018106,
  "addition": null
}, {
  "area_code": 350181,
  "name": "福清美佛儿学校",
  "code": 35018107,
  "addition": null
}, {
  "area_code": 350181,
  "name": "福清三华学校",
  "code": 35018108,
  "addition": null
}, {
  "area_code": 350181,
  "name": "福清康辉中学",
  "code": 35018109,
  "addition": null
}, {
  "area_code": 350181,
  "name": "福清洪宽中学",
  "code": 35018110,
  "addition": null
}, {
  "area_code": 350181,
  "name": "福清元载中学",
  "code": 35018111,
  "addition": null
}, {
  "area_code": 350181,
  "name": "福清海口中学",
  "code": 35018112,
  "addition": null
}, {
  "area_code": 350181,
  "name": "福清龙西中学",
  "code": 35018113,
  "addition": null
}, {
  "area_code": 350181,
  "name": "福建省福清第三中学",
  "code": 35018114,
  "addition": null
}, {
  "area_code": 350181,
  "name": "福清华夏学校",
  "code": 35018115,
  "addition": null
}, {
  "area_code": 350181,
  "name": "福清港头中学",
  "code": 35018116,
  "addition": null
}, {
  "area_code": 350181,
  "name": "福清高山中学",
  "code": 35018117,
  "addition": null
}, {
  "area_code": 350181,
  "name": "福清德旺中学",
  "code": 35018118,
  "addition": null
}, {
  "area_code": 350181,
  "name": "福清三山中学",
  "code": 35018119,
  "addition": null
}, {
  "area_code": 350181,
  "name": "福清东南学校",
  "code": 35018120,
  "addition": null
}, {
  "area_code": 350181,
  "name": "福清虞阳中学",
  "code": 35018121,
  "addition": null
}, {
  "area_code": 350181,
  "name": "福建省福清实验高级中学",
  "code": 35018122,
  "addition": null
}, {
  "area_code": 350181,
  "name": "福清江兜华侨中学",
  "code": 35018123,
  "addition": null
}, {
  "area_code": 350181,
  "name": "福清江阴中学",
  "code": 35018124,
  "addition": null
}, {
  "area_code": 350181,
  "name": "福清东张中学",
  "code": 35018125,
  "addition": null
}, {
  "area_code": 350181,
  "name": "福清龙翔中英文学校",
  "code": 35018126,
  "addition": null
}, {
  "area_code": 350181,
  "name": "福清西山学校",
  "code": 35018127,
  "addition": null
}, {
  "area_code": 350182,
  "name": "长乐高级中学",
  "code": 35018201,
  "addition": null
}, {
  "area_code": 350182,
  "name": "长乐第六中学",
  "code": 35018202,
  "addition": null
}, {
  "area_code": 350182,
  "name": "长乐第五中学",
  "code": 35018203,
  "addition": null
}, {
  "area_code": 350182,
  "name": "长乐第一中学",
  "code": 35018204,
  "addition": null
}, {
  "area_code": 350182,
  "name": "长乐华侨中学",
  "code": 35018205,
  "addition": null
}, {
  "area_code": 350182,
  "name": "长乐第三中学",
  "code": 35018206,
  "addition": null
}, {
  "area_code": 350182,
  "name": "长乐第四中学",
  "code": 35018207,
  "addition": null
}, {
  "area_code": 350182,
  "name": "长乐第二中学",
  "code": 35018208,
  "addition": null
}, {
  "area_code": 350203,
  "name": "厦门双十中学",
  "code": 35020301,
  "addition": null
}, {
  "area_code": 350203,
  "name": "厦门市华侨中学",
  "code": 35020302,
  "addition": null
}, {
  "area_code": 350203,
  "name": "厦门市大同中学",
  "code": 35020303,
  "addition": 原叫： 厦门市前埔中学
}, {
  "area_code": 350203,
  "name": "厦门市科技中学",
  "code": 35020304,
  "addition": null
}, {
  "area_code": 350203,
  "name": "厦门外国语学校",
  "code": 35020305,
  "addition": null
}, {
  "area_code": 350203,
  "name": "厦门第二中学",
  "code": 35020306,
  "addition": null
}, {
  "area_code": 350203,
  "name": "厦门市湖滨中学",
  "code": 35020307,
  "addition": null
}, {
  "area_code": 350203,
  "name": "厦门第一中学",
  "code": 35020308,
  "addition":
}, {
  "area_code": 350203,
  "name": "厦门市松柏中学",
  "code": 35020309,
  "addition": null
}, {
  "area_code": 350203,
  "name": "厦门第六中学",
  "code": 35020310,
  "addition":
}, {
  "area_code": 350203,
  "name": "厦门康桥中学",
  "code": 35020311,
  "addition":
}, {
  "area_code": 350203,
  "name": "厦门市金鸡亭中学",
  "code": 35020312,
  "addition":
}, {
  "area_code": 350203,
  "name": "厦门市莲花中学",
  "code": 35020313,
  "addition":
}, {
  "area_code": 350203,
  "name": "厦门市思明区成功学校",
  "code": 35020314,
  "addition": null
}, {
  "area_code": 350203,
  "name": "厦门市第九中学",
  "code": 35020315,
  "addition":
}, {
  "area_code": 350205,
  "name": "厦门海沧实验中学",
  "code": 35020501,
  "addition": 曾用名： 石塘中学、 北京师范大学厦门海沧附属实验中学
}, {
  "area_code": 350205,
  "name": "厦门市海沧中学",
  "code": 35020502,
  "addition": null
}, {
  "area_code": 350205,
  "name": "厦门市新阳中学",
  "code": 35020503,
  "addition": null
}, {
  "area_code": 350206,
  "name": "厦门市第三中学",
  "code": 35020601,
  "addition": 原名： 禾山中学
}, {
  "area_code": 350206,
  "name": "厦门市湖里区禾山中学",
  "code": 35020602,
  "addition": null
}, {
  "area_code": 350206,
  "name": "厦门六中",
  "code": 35020603,
  "addition": null
}, {
  "area_code": 350206,
  "name": "厦门市东渡中学",
  "code": 35020604,
  "addition": 与六中合并。
}, {
  "area_code": 350206,
  "name": "厦门市金尚中学",
  "code": 35020605,
  "addition": null
}, {
  "area_code": 350211,
  "name": "厦门第十中学",
  "code": 35021101,
  "addition": null
}, {
  "area_code": 350211,
  "name": "厦门市杏南中学",
  "code": 35021102,
  "addition": 也叫： 厦门理工学院附属中学
}, {
  "area_code": 350211,
  "name": "厦门英才中学",
  "code": 35021103,
  "addition":
}, {
  "area_code": 350211,
  "name": "厦门市乐安中学",
  "code": 35021104,
  "addition":
}, {
  "area_code": 350211,
  "name": "厦门市灌口中学",
  "code": 35021105,
  "addition":
}, {
  "area_code": 350211,
  "name": "福建省厦门集美中学",
  "code": 35021106,
  "addition":
}, {
  "area_code": 350211,
  "name": "厦门国际学校",
  "code": 35021107,
  "addition": null
}, {
  "area_code": 350211,
  "name": "厦门市杏林中学",
  "code": 35021108,
  "addition": 更名为： 厦门市集美中等职业技术学校， 中学部分被并入十中
}, {
  "area_code": 350212,
  "name": "厦门市同安一中",
  "code": 35021201,
  "addition":
}, {
  "area_code": 350212,
  "name": "厦门市第二外国语学校",
  "code": 35021202,
  "addition":
}, {
  "area_code": 350212,
  "name": "厦门市东山中学",
  "code": 35021203,
  "addition":
}, {
  "area_code": 350212,
  "name": "厦门市启悟中学",
  "code": 35021204,
  "addition":
}, {
  "area_code": 350212,
  "name": "厦门市国祺中学",
  "code": 35021205,
  "addition":
}, {
  "area_code": 350212,
  "name": "厦门市五显中学",
  "code": 35021206,
  "addition":
}, {
  "area_code": 350213,
  "name": "翔安第一中学",
  "code": 35021301,
  "addition":
}, {
  "area_code": 350213,
  "name": "厦门市内厝中学",
  "code": 35021302,
  "addition":
}, {
  "area_code": 350213,
  "name": "新店中学",
  "code": 35021303,
  "addition":
}, {
  "area_code": 350213,
  "name": "诗坂中学",
  "code": 35021304,
  "addition": null
}, {
  "area_code": 350302,
  "name": "莆田第五中学",
  "code": 35030201,
  "addition": 包含莆田五中分校
}, {
  "area_code": 350302,
  "name": "莆田第三中学",
  "code": 35030202,
  "addition": null
}, {
  "area_code": 350302,
  "name": "莆田第一中学",
  "code": 35030203,
  "addition":
}, {
  "area_code": 350302,
  "name": "莆田第十二中学",
  "code": 35030204,
  "addition": null
}, {
  "area_code": 350302,
  "name": "莆田哲理中学",
  "code": 35030205,
  "addition":
}, {
  "area_code": 350302,
  "name": "莆田第十八中学",
  "code": 35030206,
  "addition":
}, {
  "area_code": 350302,
  "name": "莆田市城厢区沟头私立中学",
  "code": 35030207,
  "addition": null
}, {
  "area_code": 350303,
  "name": "莆田市私立实验中学",
  "code": 35030301,
  "addition":
}, {
  "area_code": 350303,
  "name": "莆田十七中学",
  "code": 35030302,
  "addition":
}, {
  "area_code": 350303,
  "name": "莆田第六中学",
  "code": 35030303,
  "addition":
}, {
  "area_code": 350303,
  "name": "莆田华侨中学",
  "code": 35030304,
  "addition":
}, {
  "area_code": 350303,
  "name": "莆田市青璜中学",
  "code": 35030305,
  "addition":
}, {
  "area_code": 350303,
  "name": "莆田锦江中学",
  "code": 35030306,
  "addition":
}, {
  "area_code": 350303,
  "name": "莆田第十四中学",
  "code": 35030307,
  "addition":
}, {
  "area_code": 350303,
  "name": "莆田第七中学",
  "code": 35030308,
  "addition":
}, {
  "area_code": 350304,
  "name": "莆田第九中学",
  "code": 35030401,
  "addition":
}, {
  "area_code": 350304,
  "name": "莆田第四中学",
  "code": 35030402,
  "addition":
}, {
  "area_code": 350304,
  "name": "莆田第二十四中学",
  "code": 35030403,
  "addition": 原莆田渠桥第一中学
}, {
  "area_code": 350304,
  "name": "莆田砺青中学",
  "code": 35030404,
  "addition":
}, {
  "area_code": 350304,
  "name": "莆田第八中学",
  "code": 35030405,
  "addition":
}, {
  "area_code": 350304,
  "name": "莆田第二中学",
  "code": 35030406,
  "addition": null
}, {
  "area_code": 350304,
  "name": "莆田第十中学",
  "code": 35030407,
  "addition": 原莆田笏石中学
}, {
  "area_code": 350304,
  "name": "莆田擢英中学",
  "code": 35030408,
  "addition": null
}, {
  "area_code": 350304,
  "name": "莆田第十五中学",
  "code": 35030409,
  "addition": 原西天尾中学
}, {
  "area_code": 350304,
  "name": "莆田第十六中学",
  "code": 35030410,
  "addition": 原莆田北高中学
}, {
  "area_code": 350305,
  "name": "莆田第二十七中学",
  "code": 35030501,
  "addition": null
}, {
  "area_code": 350305,
  "name": "莆田第十一中学",
  "code": 35030502,
  "addition": 原莆田埭头第一中学
}, {
  "area_code": 350305,
  "name": "莆田第二十八中学",
  "code": 35030503,
  "addition": 又叫： 东庄中学
}, {
  "area_code": 350305,
  "name": "莆田第十三中学",
  "code": 35030504,
  "addition": 08 年与二十六中合并成新的十三中
}, {
  "area_code": 350305,
  "name": "莆田第二十五中学",
  "code": 35030505,
  "addition": 原莆田平海中学
}, {
  "area_code": 350305,
  "name": "莆田第十中学",
  "code": 35030506,
  "addition":
}, {
  "area_code": 350305,
  "name": "莆田第二十二中学",
  "code": 35030507,
  "addition": 2007 年初， 学校又加挂“ 莆田妈祖中学” 校牌。
}, {
  "area_code": 350305,
  "name": "莆田市秀屿区南日中学",
  "code": 35030508,
  "addition": null
}, {
  "area_code": 350305,
  "name": "莆田市秀屿区实验中学",
  "code": 35030509,
  "addition": null
}, {
  "area_code": 350322,
  "name": "仙游县第二中学",
  "code": 35032201,
  "addition":
}, {
  "area_code": 350322,
  "name": "福建省仙游金石中学",
  "code": 35032202,
  "addition":
}, {
  "area_code": 350322,
  "name": "仙游县枫亭中学",
  "code": 35032203,
  "addition":
}, {
  "area_code": 350322,
  "name": "仙游县度尾中学",
  "code": 35032204,
  "addition":
}, {
  "area_code": 350322,
  "name": "仙游县第一中学",
  "code": 35032205,
  "addition":
}, {
  "area_code": 350322,
  "name": "仙游县华侨中学",
  "code": 35032206,
  "addition": null
}, {
  "area_code": 350322,
  "name": "仙游县园庄中学",
  "code": 35032207,
  "addition": null
}, {
  "area_code": 350322,
  "name": "仙游榜头中学",
  "code": 35032208,
  "addition": null
}, {
  "area_code": 350322,
  "name": "仙游县私立第一中学",
  "code": 35032209,
  "addition": null
}, {
  "area_code": 350322,
  "name": "仙游县盖尾中学",
  "code": 35032210,
  "addition": null
}, {
  "area_code": 350322,
  "name": "仙游县龙华中学",
  "code": 35032211,
  "addition":
}, {
  "area_code": 350322,
  "name": "仙游现代中学",
  "code": 35032212,
  "addition":
}, {
  "area_code": 350322,
  "name": "仙游县郊尾中学",
  "code": 35032213,
  "addition": null
}, {
  "area_code": 350322,
  "name": "仙游县大济中学",
  "code": 35032214,
  "addition":
}, {
  "area_code": 350322,
  "name": "仙游县钟山中学",
  "code": 35032215,
  "addition":
}, {
  "area_code": 350322,
  "name": "福建省仙游金石中学",
  "code": 35032216,
  "addition": null
}, {
  "area_code": 350322,
  "name": "福建省仙游县大济中学",
  "code": 35032217,
  "addition": null
}, {
  "area_code": 350322,
  "name": "仙游县山立学校",
  "code": 35032218,
  "addition": null
}, {
  "area_code": 350402,
  "name": "福建省三明市第二中学",
  "code": 35040201,
  "addition": null
}, {
  "area_code": 350402,
  "name": "三明市实验中学",
  "code": 35040202,
  "addition": 原名三明二中分校
}, {
  "area_code": 350403,
  "name": "三明市第一中学",
  "code": 35040301,
  "addition": null
}, {
  "area_code": 350403,
  "name": "三明市第九中学",
  "code": 35040302,
  "addition": null
}, {
  "area_code": 350403,
  "name": "三明华昌中学",
  "code": 35040303,
  "addition": null
}, {
  "area_code": 350421,
  "name": "明溪县第一中学",
  "code": 35042101,
  "addition": null
}, {
  "area_code": 350421,
  "name": "明溪县第二中学",
  "code": 35042102,
  "addition": null
}, {
  "area_code": 350423,
  "name": "清流县第二中学",
  "code": 35042301,
  "addition": null
}, {
  "area_code": 350423,
  "name": "清流县第一中学",
  "code": 35042302,
  "addition": null
}, {
  "area_code": 350424,
  "name": "宁化第一中学",
  "code": 35042401,
  "addition": null
}, {
  "area_code": 350424,
  "name": "宁化第三中学",
  "code": 35042402,
  "addition":
}, {
  "area_code": 350424,
  "name": "宁化县第六中学",
  "code": 35042403,
  "addition": null
}, {
  "area_code": 350424,
  "name": "宁化县第五中学",
  "code": 35042404,
  "addition":
}, {
  "area_code": 350424,
  "name": "福建省宁化第二中学",
  "code": 35042405,
  "addition":
}, {
  "area_code": 350424,
  "name": "宁化第四中学",
  "code": 35042406,
  "addition": null
}, {
  "area_code": 350424,
  "name": "福建省宁化第七中学",
  "code": 35042407,
  "addition": null
}, {
  "area_code": 350425,
  "name": "大田县第一中学",
  "code": 35042501,
  "addition":
}, {
  "area_code": 350425,
  "name": "大田县第五中学",
  "code": 35042502,
  "addition":
}, {
  "area_code": 350425,
  "name": "大田县第三中学",
  "code": 35042503,
  "addition": null
}, {
  "area_code": 350425,
  "name": "大田二中",
  "code": 35042504,
  "addition":
}, {
  "area_code": 350425,
  "name": "福建省大田鸿图中学",
  "code": 35042505,
  "addition": null
}, {
  "area_code": 350426,
  "name": "尤溪县第五中学",
  "code": 35042601,
  "addition":
}, {
  "area_code": 350426,
  "name": "尤溪县第一中学",
  "code": 35042602,
  "addition":
}, {
  "area_code": 350426,
  "name": "尤溪县第七中学",
  "code": 35042603,
  "addition":
}, {
  "area_code": 350426,
  "name": "尤溪县文公高中",
  "code": 35042604,
  "addition":
}, {
  "area_code": 350426,
  "name": "尤溪二中",
  "code": 35042605,
  "addition":
}, {
  "area_code": 350426,
  "name": "晨光高中",
  "code": 35042606,
  "addition":
}, {
  "area_code": 350427,
  "name": "沙县第一中学",
  "code": 35042701,
  "addition":
}, {
  "area_code": 350427,
  "name": "沙县第三中学",
  "code": 35042702,
  "addition":
}, {
  "area_code": 350427,
  "name": "沙县第五中学",
  "code": 35042703,
  "addition":
}, {
  "area_code": 350427,
  "name": "沙县金沙高级中学",
  "code": 35042704,
  "addition": null
}, {
  "area_code": 350428,
  "name": "将乐水南中学",
  "code": 35042801,
  "addition": null
}, {
  "area_code": 350428,
  "name": "将乐县第一中学",
  "code": 35042802,
  "addition": null
}, {
  "area_code": 350429,
  "name": "泰宁县第一中学",
  "code": 35042901,
  "addition": null
}, {
  "area_code": 350430,
  "name": "建宁县第一中学",
  "code": 35043001,
  "addition": null
}, {
  "area_code": 350430,
  "name": "建宁县第三中学",
  "code": 35043002,
  "addition": null
}, {
  "area_code": 350430,
  "name": "建宁县黄坊中学",
  "code": 35043003,
  "addition": null
}, {
  "area_code": 350481,
  "name": "永安市第一中学",
  "code": 35048101,
  "addition":
}, {
  "area_code": 350481,
  "name": "永安市第三中学",
  "code": 35048102,
  "addition":
}, {
  "area_code": 350481,
  "name": "永安市第九中学",
  "code": 35048103,
  "addition":
}, {
  "area_code": 350481,
  "name": "永安市第十二中学",
  "code": 35048104,
  "addition":
}, {
  "area_code": 350481,
  "name": "永安十中",
  "code": 35048105,
  "addition": 前身为： 永安建福中学
}, {
  "area_code": 350481,
  "name": "三明外国语学校",
  "code": 35048106,
  "addition": null
}, {
  "area_code": 350502,
  "name": "泉州市第一中学",
  "code": 35050201,
  "addition": null
}, {
  "area_code": 350502,
  "name": "泉州现代中学",
  "code": 35050202,
  "addition": null
}, {
  "area_code": 350502,
  "name": "泉州培元中学",
  "code": 35050203,
  "addition": 也叫 泉州市第二中学
}, {
  "area_code": 350502,
  "name": "泉州十五中",
  "code": 35050204,
  "addition": 也叫泉州市满堂红中学
}, {
  "area_code": 350502,
  "name": "泉州市第五中学",
  "code": 35050205,
  "addition": null
}, {
  "area_code": 350502,
  "name": "泉州市第七中学",
  "code": 35050206,
  "addition": null
}, {
  "area_code": 350502,
  "name": "泉州科技中学",
  "code": 35050207,
  "addition": null
}, {
  "area_code": 350502,
  "name": "泉州私立新世纪中学",
  "code": 35050208,
  "addition": null
}, {
  "area_code": 350502,
  "name": "泉州外国语中学",
  "code": 35050209,
  "addition": null
}, {
  "area_code": 350502,
  "name": "福建省泉州市明新华侨中学",
  "code": 35050210,
  "addition": null
}, {
  "area_code": 350502,
  "name": "福建省泉州市第六中学",
  "code": 35050211,
  "addition": null
}, {
  "area_code": 350502,
  "name": "福建省泉州第三中学",
  "code": 35050212,
  "addition": null
}, {
  "area_code": 350503,
  "name": "泉州市城东中学",
  "code": 35050301,
  "addition": null
}, {
  "area_code": 350503,
  "name": "泉州市第九中学",
  "code": 35050302,
  "addition": null
}, {
  "area_code": 350503,
  "name": "泉州市实验中学",
  "code": 35050303,
  "addition": null
}, {
  "area_code": 350503,
  "name": "北京师范大学泉州附属中学",
  "code": 35050304,
  "addition": null
}, {
  "area_code": 350503,
  "name": "泉州北峰中学",
  "code": 35050305,
  "addition": null
}, {
  "area_code": 350503,
  "name": "泉州市第九中学",
  "code": 35050306,
  "addition": null
}, {
  "area_code": 350504,
  "name": "泉州第十一中学",
  "code": 35050401,
  "addition": null
}, {
  "area_code": 350504,
  "name": "泉州市马甲中学",
  "code": 35050402,
  "addition": null
}, {
  "area_code": 350504,
  "name": "泉州市奕聪中学",
  "code": 35050403,
  "addition": null
}, {
  "area_code": 350504,
  "name": "泉州南少林武术学校",
  "code": 35050404,
  "addition": null
}, {
  "area_code": 350505,
  "name": "泉港区第六中学",
  "code": 35050501,
  "addition": null
}, {
  "area_code": 350505,
  "name": "泉港区第一中学",
  "code": 35050502,
  "addition": null
}, {
  "area_code": 350505,
  "name": "泉港区第五中学",
  "code": 35050503,
  "addition": null
}, {
  "area_code": 350505,
  "name": "泉港区第二中学",
  "code": 35050504,
  "addition": null
}, {
  "area_code": 350505,
  "name": "福建省泉州市泉港区惠华中学",
  "code": 35050505,
  "addition": null
}, {
  "area_code": 350521,
  "name": "惠安县第一中学",
  "code": 35052101,
  "addition": null
}, {
  "area_code": 350521,
  "name": "惠安县荷山中学",
  "code": 35052102,
  "addition": null
}, {
  "area_code": 350521,
  "name": "惠安县崇武中学",
  "code": 35052103,
  "addition": null
}, {
  "area_code": 350521,
  "name": "惠安县第三中学",
  "code": 35052104,
  "addition": null
}, {
  "area_code": 350521,
  "name": "惠安县惠南中学",
  "code": 35052105,
  "addition": null
}, {
  "area_code": 350521,
  "name": "惠安县第四中学",
  "code": 35052106,
  "addition": null
}, {
  "area_code": 350521,
  "name": "惠安县嘉惠中学",
  "code": 35052107,
  "addition": null
}, {
  "area_code": 350521,
  "name": "惠安县第五中学",
  "code": 35052108,
  "addition": null
}, {
  "area_code": 350521,
  "name": "惠安县高级中学",
  "code": 35052109,
  "addition": null
}, {
  "area_code": 350521,
  "name": "福建省惠安第二中学",
  "code": 35052110,
  "addition": null
}, {
  "area_code": 350525,
  "name": "永春第一中学",
  "code": 35052501,
  "addition": null
}, {
  "area_code": 350525,
  "name": "永春县第五中学",
  "code": 35052502,
  "addition": null
}, {
  "area_code": 350525,
  "name": "永春华侨中学",
  "code": 35052503,
  "addition": null
}, {
  "area_code": 350525,
  "name": "永春县第六中学",
  "code": 35052504,
  "addition": null
}, {
  "area_code": 350525,
  "name": "永春第三中学",
  "code": 35052505,
  "addition": null
}, {
  "area_code": 350525,
  "name": "永春县第四中学",
  "code": 35052506,
  "addition": null
}, {
  "area_code": 350525,
  "name": "永春美岭中学",
  "code": 35052507,
  "addition": null
}, {
  "area_code": 350525,
  "name": "福建省永春第二中学",
  "code": 35052508,
  "addition": null
}, {
  "area_code": 350524,
  "name": "泉州师范学院附属培文高级中学",
  "code": 35052401,
  "addition": null
}, {
  "area_code": 350524,
  "name": "安溪县崇德中学",
  "code": 35052402,
  "addition": null
}, {
  "area_code": 350524,
  "name": "安溪县第一中学",
  "code": 35052403,
  "addition": null
}, {
  "area_code": 350524,
  "name": "安溪县第六中学",
  "code": 35052404,
  "addition": null
}, {
  "area_code": 350524,
  "name": "安溪县蓝溪中学",
  "code": 35052405,
  "addition": null
}, {
  "area_code": 350524,
  "name": "安溪县铭选中学",
  "code": 35052406,
  "addition": null
}, {
  "area_code": 350524,
  "name": "安溪县梧桐中学",
  "code": 35052407,
  "addition": null
}, {
  "area_code": 350524,
  "name": "安溪县龙门中学",
  "code": 35052408,
  "addition": null
}, {
  "area_code": 350524,
  "name": "安溪县沼涛中学",
  "code": 35052409,
  "addition": null
}, {
  "area_code": 350524,
  "name": "安溪县俊民中学",
  "code": 35052410,
  "addition": null
}, {
  "area_code": 350524,
  "name": "安溪县恒兴中学",
  "code": 35052411,
  "addition": null
}, {
  "area_code": 350524,
  "name": "安溪县第八中学",
  "code": 35052412,
  "addition": null
}, {
  "area_code": 350524,
  "name": "安溪县第十一中学",
  "code": 35052413,
  "addition": null
}, {
  "area_code": 350526,
  "name": "德化县第八中学",
  "code": 35052601,
  "addition": null
}, {
  "area_code": 350526,
  "name": "德化县第二中学",
  "code": 35052602,
  "addition": null
}, {
  "area_code": 350526,
  "name": "德化县第一中学",
  "code": 35052603,
  "addition": null
}, {
  "area_code": 350526,
  "name": "德化县第三中学",
  "code": 35052604,
  "addition": null
}, {
  "area_code": 350582,
  "name": "晋江市第一中学",
  "code": 35058201,
  "addition": null
}, {
  "area_code": 350582,
  "name": "晋江市磁灶中学",
  "code": 35058202,
  "addition": null
}, {
  "area_code": 350582,
  "name": "晋江市首峰中学",
  "code": 35058203,
  "addition": null
}, {
  "area_code": 350582,
  "name": "晋江市平山中学",
  "code": 35058204,
  "addition": null
}, {
  "area_code": 350582,
  "name": "晋江市季延中学",
  "code": 35058205,
  "addition": null
}, {
  "area_code": 350582,
  "name": "晋江市英林中学",
  "code": 35058206,
  "addition": null
}, {
  "area_code": 350582,
  "name": "晋江市毓英中学",
  "code": 35058207,
  "addition": null
}, {
  "area_code": 350582,
  "name": "晋江市第二中学",
  "code": 35058208,
  "addition": null
}, {
  "area_code": 350582,
  "name": "晋江市养正中学",
  "code": 35058209,
  "addition": null
}, {
  "area_code": 350582,
  "name": "晋江市南侨中学",
  "code": 35058210,
  "addition": null
}, {
  "area_code": 350582,
  "name": "晋江市子江中学",
  "code": 35058211,
  "addition": null
}, {
  "area_code": 350582,
  "name": "晋江市陈埭民族中学",
  "code": 35058212,
  "addition": null
}, {
  "area_code": 350582,
  "name": "晋江市侨声中学",
  "code": 35058213,
  "addition": null
}, {
  "area_code": 350582,
  "name": "晋江市永和中学",
  "code": 35058214,
  "addition": null
}, {
  "area_code": 350582,
  "name": "晋江市新塘荆山外来工子弟学校",
  "code": 35058215,
  "addition": null
}, {
  "area_code": 350582,
  "name": "晋江市紫峰中学",
  "code": 35058216,
  "addition": null
}, {
  "area_code": 350582,
  "name": "泉州中远学校",
  "code": 35058217,
  "addition": null
}, {
  "area_code": 350582,
  "name": "晋江市内坑中学",
  "code": 35058218,
  "addition": null
}, {
  "area_code": 350581,
  "name": "石狮市第一中学",
  "code": 35058101,
  "addition": null
}, {
  "area_code": 350581,
  "name": "石狮石光华侨联合中学",
  "code": 35058102,
  "addition": null
}, {
  "area_code": 350581,
  "name": "石狮市第三中学",
  "code": 35058103,
  "addition": null
}, {
  "area_code": 350581,
  "name": "石狮市第八中学",
  "code": 35058104,
  "addition": null
}, {
  "area_code": 350581,
  "name": "石狮市永宁中学",
  "code": 35058105,
  "addition": null
}, {
  "area_code": 350581,
  "name": "石狮石光华侨联合中学",
  "code": 35058106,
  "addition": null
}, {
  "area_code": 350583,
  "name": "南安市蓝园高级中学",
  "code": 35058301,
  "addition": null
}, {
  "area_code": 350583,
  "name": "南安新营中学",
  "code": 35058302,
  "addition": null
}, {
  "area_code": 350583,
  "name": "南安成功中学",
  "code": 35058303,
  "addition": null
}, {
  "area_code": 350583,
  "name": "南安五星中学",
  "code": 35058304,
  "addition": null
}, {
  "area_code": 350583,
  "name": "南安奎霞中学",
  "code": 35058305,
  "addition": null
}, {
  "area_code": 350583,
  "name": "南安市柳城中学",
  "code": 35058306,
  "addition": null
}, {
  "area_code": 350583,
  "name": "南安市侨光中学",
  "code": 35058307,
  "addition": null
}, {
  "area_code": 350583,
  "name": "福建南安三中",
  "code": 35058308,
  "addition": null
}, {
  "area_code": 350583,
  "name": "福建南安二中",
  "code": 35058309,
  "addition": null
}, {
  "area_code": 350583,
  "name": "南安延平中学",
  "code": 35058310,
  "addition": null
}, {
  "area_code": 350583,
  "name": "国光第二中学",
  "code": 35058311,
  "addition": null
}, {
  "area_code": 350583,
  "name": "南安市鹏峰中学",
  "code": 35058312,
  "addition": null
}, {
  "area_code": 350583,
  "name": "南安华侨中学",
  "code": 35058313,
  "addition": null
}, {
  "area_code": 350583,
  "name": "南安新侨中学",
  "code": 35058314,
  "addition": null
}, {
  "area_code": 350583,
  "name": "福建南安六中",
  "code": 35058315,
  "addition": null
}, {
  "area_code": 350583,
  "name": "南安龙泉中学",
  "code": 35058316,
  "addition": null
}, {
  "area_code": 350583,
  "name": "南安市国光中学",
  "code": 35058317,
  "addition": null
}, {
  "area_code": 350583,
  "name": "南安市南星中学",
  "code": 35058318,
  "addition": null
}, {
  "area_code": 350583,
  "name": "南安诗山中学",
  "code": 35058319,
  "addition": null
}, {
  "area_code": 350583,
  "name": "南安宝莲中学",
  "code": 35058320,
  "addition": null
}, {
  "area_code": 350583,
  "name": "南安玲苏中学",
  "code": 35058321,
  "addition": null
}, {
  "area_code": 350583,
  "name": "福建省南安市洪梅中学",
  "code": 35058322,
  "addition": null
}, {
  "area_code": 350583,
  "name": "福建省南安市华美中学",
  "code": 35058323,
  "addition": null
}, {
  "area_code": 350583,
  "name": "福建省南安市第五中学",
  "code": 35058324,
  "addition": null
}, {
  "area_code": 350583,
  "name": "南安市东方学校",
  "code": 35058325,
  "addition": null
}, {
  "area_code": 350583,
  "name": "福建省南安市乐峰中学",
  "code": 35058326,
  "addition": null
}, {
  "area_code": 350602,
  "name": "漳州市浦南中学",
  "code": 35060201,
  "addition": null
}, {
  "area_code": 350602,
  "name": "福建省漳州第一中学",
  "code": 35060202,
  "addition": null
}, {
  "area_code": 350602,
  "name": "漳州市第八中学",
  "code": 35060203,
  "addition": null
}, {
  "area_code": 350602,
  "name": "漳州市天宝中学",
  "code": 35060204,
  "addition": null
}, {
  "area_code": 350602,
  "name": "福建漳州二中",
  "code": 35060205,
  "addition": null
}, {
  "area_code": 350602,
  "name": "漳州立人学校",
  "code": 35060206,
  "addition": null
}, {
  "area_code": 350602,
  "name": "漳州市北斗中学",
  "code": 35060207,
  "addition": null
}, {
  "area_code": 350602,
  "name": "漳州第三中学",
  "code": 35060208,
  "addition": null
}, {
  "area_code": 350602,
  "name": "漳州市芗城中学",
  "code": 35060209,
  "addition": null
}, {
  "area_code": 350602,
  "name": "漳州第五中学",
  "code": 35060210,
  "addition": null
}, {
  "area_code": 350602,
  "name": "漳州市正兴学校",
  "code": 35060211,
  "addition": null
}, {
  "area_code": 350602,
  "name": "漳州双语实验学校",
  "code": 35060212,
  "addition": null
}, {
  "area_code": 350602,
  "name": "漳州一中分校",
  "code": 35060213,
  "addition": null
}, {
  "area_code": 350603,
  "name": "漳州实验中学",
  "code": 35060301,
  "addition": null
}, {
  "area_code": 350603,
  "name": "漳州市龙文区龙文中学",
  "code": 35060302,
  "addition": null
}, {
  "area_code": 350603,
  "name": "龙文区朝阳中学",
  "code": 35060303,
  "addition": null
}, {
  "area_code": 350622,
  "name": "云霄城关中学",
  "code": 35062201,
  "addition": null
}, {
  "area_code": 350622,
  "name": "福建省云霄第一中学",
  "code": 35062202,
  "addition": null
}, {
  "area_code": 350622,
  "name": "云霄城南中学",
  "code": 35062203,
  "addition": null
}, {
  "area_code": 350622,
  "name": "云霄立人学校",
  "code": 35062204,
  "addition": null
}, {
  "area_code": 350622,
  "name": "福建省云霄二中",
  "code": 35062205,
  "addition": null
}, {
  "area_code": 350622,
  "name": "云霄县第四中学",
  "code": 35062206,
  "addition": null
}, {
  "area_code": 350622,
  "name": "福建省云霄元光中学",
  "code": 35062207,
  "addition": null
}, {
  "area_code": 350622,
  "name": "常山华侨中学",
  "code": 35062208,
  "addition": null
}, {
  "area_code": 350623,
  "name": "漳浦龙成中学",
  "code": 35062301,
  "addition": null
}, {
  "area_code": 350623,
  "name": "漳浦第三中学",
  "code": 35062302,
  "addition": null
}, {
  "area_code": 350623,
  "name": "漳浦县丹山中学",
  "code": 35062303,
  "addition": null
}, {
  "area_code": 350623,
  "name": "漳浦第四中学",
  "code": 35062304,
  "addition": null
}, {
  "area_code": 350623,
  "name": "漳浦第一中学",
  "code": 35062305,
  "addition": null
}, {
  "area_code": 350623,
  "name": "漳浦第五中学",
  "code": 35062306,
  "addition": null
}, {
  "area_code": 350623,
  "name": "漳浦第二中学",
  "code": 35062307,
  "addition": null
}, {
  "area_code": 350623,
  "name": "漳浦第六中学",
  "code": 35062308,
  "addition": null
}, {
  "area_code": 350623,
  "name": "漳浦道周中学",
  "code": 35062309,
  "addition": null
}, {
  "area_code": 350623,
  "name": "漳浦达志中学",
  "code": 35062310,
  "addition": null
}, {
  "area_code": 350623,
  "name": "漳浦育才学校",
  "code": 35062311,
  "addition": null
}, {
  "area_code": 350624,
  "name": "诏安县四都中学",
  "code": 35062401,
  "addition": null
}, {
  "area_code": 350624,
  "name": "诏安县西潭中学",
  "code": 35062402,
  "addition": null
}, {
  "area_code": 350624,
  "name": "诏安县桥东中学",
  "code": 35062403,
  "addition": null
}, {
  "area_code": 350624,
  "name": "诏安县第一中学",
  "code": 35062404,
  "addition": null
}, {
  "area_code": 350624,
  "name": "诏安县边城中学",
  "code": 35062405,
  "addition": null
}, {
  "area_code": 350624,
  "name": "诏安县官陂中学",
  "code": 35062406,
  "addition": 福建省诏安县官陂中学
}, {
  "area_code": 350624,
  "name": "诏安县私立北苑中学",
  "code": 35062407,
  "addition": null
}, {
  "area_code": 350625,
  "name": "长泰县第一中学",
  "code": 35062501,
  "addition": null
}, {
  "area_code": 350625,
  "name": "长泰县第二中学",
  "code": 35062502,
  "addition": null
}, {
  "area_code": 350626,
  "name": "东山第一中学",
  "code": 35062601,
  "addition": null
}, {
  "area_code": 350626,
  "name": "东山第二中学",
  "code": 35062602,
  "addition": null
}, {
  "area_code": 350627,
  "name": "南靖县第一中学",
  "code": 35062701,
  "addition": null
}, {
  "area_code": 350627,
  "name": "南靖县第四中学",
  "code": 35062702,
  "addition": null
}, {
  "area_code": 350627,
  "name": "南靖县第二中学",
  "code": 35062703,
  "addition": null
}, {
  "area_code": 350628,
  "name": "平和县育才中学",
  "code": 35062801,
  "addition": null
}, {
  "area_code": 350628,
  "name": "福建省平和第二中学",
  "code": 35062802,
  "addition": null
}, {
  "area_code": 350628,
  "name": "福建省平和第六中学",
  "code": 35062803,
  "addition": null
}, {
  "area_code": 350628,
  "name": "福建省平和第一中学",
  "code": 35062804,
  "addition": null
}, {
  "area_code": 350628,
  "name": "福建省平和第五中学",
  "code": 35062805,
  "addition": null
}, {
  "area_code": 350628,
  "name": "福建省平和第三中学",
  "code": 35062806,
  "addition": null
}, {
  "area_code": 350628,
  "name": "平和县正兴学校",
  "code": 35062807,
  "addition": null
}, {
  "area_code": 350628,
  "name": "平和第四中学",
  "code": 35062808,
  "addition": null
}, {
  "area_code": 350629,
  "name": "华安县南海中学",
  "code": 35062901,
  "addition": null
}, {
  "area_code": 350629,
  "name": "福建省华安县第一中学",
  "code": 35062902,
  "addition": null
}, {
  "area_code": 350681,
  "name": "龙海市程溪中学",
  "code": 35068101,
  "addition": null
}, {
  "area_code": 350681,
  "name": "龙海市华侨中学",
  "code": 35068102,
  "addition": null
}, {
  "area_code": 350681,
  "name": "龙海市第一中学",
  "code": 35068103,
  "addition": null
}, {
  "area_code": 350681,
  "name": "龙海市第五中学",
  "code": 35068104,
  "addition": null
}, {
  "area_code": 350681,
  "name": "龙海市浮宫中学",
  "code": 35068105,
  "addition": null
}, {
  "area_code": 350681,
  "name": "龙海市第二中学",
  "code": 35068106,
  "addition": null
}, {
  "area_code": 350681,
  "name": "龙海市榜山中学",
  "code": 35068107,
  "addition": null
}, {
  "area_code": 350681,
  "name": "龙海市白水中学",
  "code": 35068108,
  "addition": null
}, {
  "area_code": 350681,
  "name": "龙海市角美中学",
  "code": 35068109,
  "addition": null
}, {
  "area_code": 350681,
  "name": "龙海市港尾中学",
  "code": 35068110,
  "addition": null
}, {
  "area_code": 350681,
  "name": "龙海市实验中学",
  "code": 35068111,
  "addition": null
}, {
  "area_code": 350681,
  "name": "龙海市浒茂中学",
  "code": 35068112,
  "addition": null
}, {
  "area_code": 350702,
  "name": "南平市第一中学",
  "code": 35070201,
  "addition": null
}, {
  "area_code": 350702,
  "name": "南平九三英华学校",
  "code": 35070202,
  "addition": null
}, {
  "area_code": 350702,
  "name": "南平第八中学",
  "code": 35070203,
  "addition": null
}, {
  "area_code": 350702,
  "name": "南平市高级中学",
  "code": 35070204,
  "addition": null
}, {
  "area_code": 350702,
  "name": "南平市第九中学",
  "code": 35070205,
  "addition": null
}, {
  "area_code": 350702,
  "name": "南平希望高级中学",
  "code": 35070206,
  "addition": null
}, {
  "area_code": 350702,
  "name": "南平市新光中学",
  "code": 35070207,
  "addition": null
}, {
  "area_code": 350721,
  "name": "顺昌第一中学",
  "code": 35072101,
  "addition": null
}, {
  "area_code": 350721,
  "name": "顺昌县第二中学",
  "code": 35072102,
  "addition": null
}, {
  "area_code": 350721,
  "name": "顺昌县实验中学",
  "code": 35072103,
  "addition": null
}, {
  "area_code": 350721,
  "name": "顺昌金桥学校",
  "code": 35072104,
  "addition": null
}, {
  "area_code": 350722,
  "name": "浦城县仙阳中学",
  "code": 35072201,
  "addition": null
}, {
  "area_code": 350722,
  "name": "浦城县第一中学",
  "code": 35072202,
  "addition": null
}, {
  "area_code": 350722,
  "name": "浦城县第二中学",
  "code": 35072203,
  "addition": null
}, {
  "area_code": 350722,
  "name": "浦城县第三中学",
  "code": 35072204,
  "addition": null
}, {
  "area_code": 350723,
  "name": "光泽第一中学",
  "code": 35072301,
  "addition": null
}, {
  "area_code": 350723,
  "name": "光泽第二中学",
  "code": 35072302,
  "addition": null
}, {
  "area_code": 350724,
  "name": "松溪县第一中学",
  "code": 35072401,
  "addition": null
}, {
  "area_code": 350724,
  "name": "松溪县第二中学",
  "code": 35072402,
  "addition": null
}, {
  "area_code": 350781,
  "name": "邵武第四中学",
  "code": 35078101,
  "addition": null
}, {
  "area_code": 350781,
  "name": "邵武第一中学",
  "code": 35078102,
  "addition": null
}, {
  "area_code": 350781,
  "name": "邵武第五中学",
  "code": 35078103,
  "addition": null
}, {
  "area_code": 350781,
  "name": "邵武第七中学",
  "code": 35078104,
  "addition": null
}, {
  "area_code": 350725,
  "name": "政和县第一中学",
  "code": 35072501,
  "addition": null
}, {
  "area_code": 350725,
  "name": "政和县第二中学",
  "code": 35072502,
  "addition": null
}, {
  "area_code": 350725,
  "name": "福建省政和县第三中学",
  "code": 35072503,
  "addition": null
}, {
  "area_code": 350782,
  "name": "武夷山市一中",
  "code": 35078201,
  "addition": null
}, {
  "area_code": 350782,
  "name": "武夷山市二中",
  "code": 35078202,
  "addition": null
}, {
  "area_code": 350782,
  "name": "武夷山市实验中学",
  "code": 35078203,
  "addition": null
}, {
  "area_code": 350783,
  "name": "建瓯第七中学",
  "code": 35078301,
  "addition": null
}, {
  "area_code": 350783,
  "name": "建瓯市芝华中学",
  "code": 35078302,
  "addition": null
}, {
  "area_code": 350783,
  "name": "建瓯第一中学",
  "code": 35078303,
  "addition": null
}, {
  "area_code": 350783,
  "name": "建瓯第二中学",
  "code": 35078304,
  "addition": null
}, {
  "area_code": 350783,
  "name": "建瓯第三中学",
  "code": 35078305,
  "addition": null
}, {
  "area_code": 350783,
  "name": "建州高级中学",
  "code": 35078306,
  "addition": null
}, {
  "area_code": 350784,
  "name": "建阳市麻沙中学",
  "code": 35078401,
  "addition": null
}, {
  "area_code": 350784,
  "name": "建阳市水吉中学",
  "code": 35078402,
  "addition": null
}, {
  "area_code": 350784,
  "name": "建阳市第一中学",
  "code": 35078403,
  "addition": null
}, {
  "area_code": 350784,
  "name": "建阳市第二中学",
  "code": 35078404,
  "addition": null
}, {
  "area_code": 350902,
  "name": "宁德第一中学",
  "code": 35090201,
  "addition": null
}, {
  "area_code": 350902,
  "name": "宁德蕉城二中",
  "code": 35090202,
  "addition": null
}, {
  "area_code": 350902,
  "name": "宁德第五中学",
  "code": 35090203,
  "addition": null
}, {
  "area_code": 350902,
  "name": "宁德第四中学",
  "code": 35090204,
  "addition": null
}, {
  "area_code": 350902,
  "name": "宁德高级中学",
  "code": 35090205,
  "addition": null
}, {
  "area_code": 350902,
  "name": "宁德市蕉城第六中学",
  "code": 35090206,
  "addition": null
}, {
  "area_code": 350902,
  "name": "宁德市蕉城九中",
  "code": 35090207,
  "addition": null
}, {
  "area_code": 350902,
  "name": "东侨实验学校",
  "code": 35090208,
  "addition": null
}, {
  "area_code": 350921,
  "name": "霞浦县宏翔高级中学",
  "code": 35092101,
  "addition": null
}, {
  "area_code": 350921,
  "name": "霞浦县第七中学",
  "code": 35092102,
  "addition": null
}, {
  "area_code": 350921,
  "name": "霞浦县第三中学",
  "code": 35092103,
  "addition": null
}, {
  "area_code": 350921,
  "name": "霞浦县第一中学",
  "code": 35092104,
  "addition": null
}, {
  "area_code": 350921,
  "name": "霞浦县第六中学",
  "code": 35092105,
  "addition": null
}, {
  "area_code": 350921,
  "name": "霞浦县福宁中学",
  "code": 35092106,
  "addition": null
}, {
  "area_code": 350922,
  "name": "古田县第二中学",
  "code": 35092201,
  "addition": null
}, {
  "area_code": 350922,
  "name": "古田县临江中学",
  "code": 35092202,
  "addition": null
}, {
  "area_code": 350922,
  "name": "古田县溪山中学",
  "code": 35092203,
  "addition": null
}, {
  "area_code": 350922,
  "name": "古田县第三中学",
  "code": 35092204,
  "addition": null
}, {
  "area_code": 350922,
  "name": "古田县第十二中学",
  "code": 35092205,
  "addition": null
}, {
  "area_code": 350922,
  "name": "古田县第五中学",
  "code": 35092206,
  "addition": null
}, {
  "area_code": 350922,
  "name": "古田县第一中学",
  "code": 35092207,
  "addition": null
}, {
  "area_code": 350922,
  "name": "古田县第六中学",
  "code": 35092208,
  "addition": null
}, {
  "area_code": 350922,
  "name": "古田县玉田中学",
  "code": 35092209,
  "addition": null
}, {
  "area_code": 350923,
  "name": "屏南县第三中学",
  "code": 35092301,
  "addition": null
}, {
  "area_code": 350923,
  "name": "屏南县第二中学",
  "code": 35092302,
  "addition": null
}, {
  "area_code": 350923,
  "name": "屏南县第一中学",
  "code": 35092303,
  "addition": null
}, {
  "area_code": 350923,
  "name": "屏南县第四中学",
  "code": 35092304,
  "addition": null
}, {
  "area_code": 350924,
  "name": "寿宁县第一中学",
  "code": 35092401,
  "addition": null
}, {
  "area_code": 350924,
  "name": "寿宁县第二中学",
  "code": 35092402,
  "addition": null
}, {
  "area_code": 350924,
  "name": "南阳高级中学",
  "code": 35092403,
  "addition": null
}, {
  "area_code": 350925,
  "name": "周宁县第十中学",
  "code": 35092501,
  "addition": null
}, {
  "area_code": 350925,
  "name": "周宁县第二中学",
  "code": 35092502,
  "addition": null
}, {
  "area_code": 350925,
  "name": "周宁县第一中学",
  "code": 35092503,
  "addition": null
}, {
  "area_code": 350926,
  "name": "柘荣县第一中学",
  "code": 35092601,
  "addition": null
}, {
  "area_code": 350981,
  "name": "福安市第十中学",
  "code": 35098101,
  "addition": null
}, {
  "area_code": 350981,
  "name": "福安市第三中学",
  "code": 35098102,
  "addition": null
}, {
  "area_code": 350981,
  "name": "福安市第七中学",
  "code": 35098103,
  "addition": null
}, {
  "area_code": 350981,
  "name": "福安市第一中学",
  "code": 35098104,
  "addition": null
}, {
  "area_code": 350981,
  "name": "福安市第八中学",
  "code": 35098105,
  "addition": null
}, {
  "area_code": 350981,
  "name": "宁德市民族中学",
  "code": 35098106,
  "addition": null
}, {
  "area_code": 350981,
  "name": "福安市第六中学",
  "code": 35098107,
  "addition": null
}, {
  "area_code": 350981,
  "name": "福安市第二中学",
  "code": 35098108,
  "addition": null
}, {
  "area_code": 350981,
  "name": "福安市第五中学",
  "code": 35098109,
  "addition": null
}, {
  "area_code": 350981,
  "name": "福安市扆山中学",
  "code": 35098110,
  "addition": null
}, {
  "area_code": 350982,
  "name": "福鼎市第二中学",
  "code": 35098201,
  "addition": null
}, {
  "area_code": 350982,
  "name": "福鼎市第三中学",
  "code": 35098202,
  "addition": null
}, {
  "area_code": 350982,
  "name": "福鼎市第一中学",
  "code": 35098203,
  "addition": null
}, {
  "area_code": 350982,
  "name": "福鼎市第五中学",
  "code": 35098204,
  "addition": null
}, {
  "area_code": 350982,
  "name": "福鼎市第九中学",
  "code": 35098205,
  "addition": null
}, {
  "area_code": 350982,
  "name": "福鼎市第七中学",
  "code": 35098206,
  "addition": null
}, {
  "area_code": 350982,
  "name": "福鼎市第八中学",
  "code": 35098207,
  "addition": 也叫管阳职业高级中学
}, {
  "area_code": 350982,
  "name": "福鼎市第四中学",
  "code": 35098208,
  "addition": null
}, {
  "area_code": 350982,
  "name": "福鼎市第六中学",
  "code": 35098209,
  "addition": null
}, {
  "area_code": 350982,
  "name": "福鼎太姥山中学",
  "code": 35098210,
  "addition": null
}, {
  "area_code": 350982,
  "name": "福鼎市金桥学校",
  "code": 35098211,
  "addition": null
}, {
  "area_code": 350802,
  "name": "龙岩市第四中学",
  "code": 35080201,
  "addition": null
}, {
  "area_code": 350802,
  "name": "龙岩第十中学（龙门）",
  "code": 35080202,
  "addition": null
}, {
  "area_code": 350802,
  "name": "龙岩市高级中学",
  "code": 35080203,
  "addition": null
}, {
  "area_code": 350802,
  "name": "龙岩第八中学（西陂）",
  "code": 35080204,
  "addition": null
}, {
  "area_code": 350802,
  "name": "龙岩市第二中学",
  "code": 35080205,
  "addition": null
}, {
  "area_code": 350802,
  "name": "龙岩市第三中学",
  "code": 35080206,
  "addition": null
}, {
  "area_code": 350802,
  "name": "龙岩市第一中学",
  "code": 35080207,
  "addition": null
}, {
  "area_code": 350802,
  "name": "龙岩市第九中学（曹溪）",
  "code": 35080208,
  "addition": null
}, {
  "area_code": 350821,
  "name": "长汀县龙宇中学",
  "code": 35082101,
  "addition": null
}, {
  "area_code": 350821,
  "name": "长汀县第二中学",
  "code": 35082102,
  "addition": null
}, {
  "area_code": 350821,
  "name": "长汀县河田中学",
  "code": 35082103,
  "addition": null
}, {
  "area_code": 350821,
  "name": "长汀县新桥中学",
  "code": 35082104,
  "addition": null
}, {
  "area_code": 350821,
  "name": "长汀县第一中学",
  "code": 35082105,
  "addition": null
}, {
  "area_code": 350821,
  "name": "长汀县濯田中学",
  "code": 35082106,
  "addition": null
}, {
  "area_code": 350821,
  "name": "长汀县龙山中学",
  "code": 35082107,
  "addition": null
}, {
  "area_code": 350822,
  "name": "永定县第一中学",
  "code": 35082201,
  "addition": null
}, {
  "area_code": 350822,
  "name": "永定县湖雷中学",
  "code": 35082202,
  "addition": null
}, {
  "area_code": 350822,
  "name": "永定县侨育中学",
  "code": 35082203,
  "addition": null
}, {
  "area_code": 350822,
  "name": "永定县高陂中学",
  "code": 35082204,
  "addition": null
}, {
  "area_code": 350822,
  "name": "永定县坎市中学",
  "code": 35082205,
  "addition": null
}, {
  "area_code": 350822,
  "name": "永定抚市中学",
  "code": 35082206,
  "addition": null
}, {
  "area_code": 350822,
  "name": "永定县城关中学",
  "code": 35082207,
  "addition": null
}, {
  "area_code": 350822,
  "name": "永定金丰中学",
  "code": 35082208,
  "addition": null
}, {
  "area_code": 350823,
  "name": "上杭县第四中学",
  "code": 35082301,
  "addition": null
}, {
  "area_code": 350823,
  "name": "上杭县龙田中学",
  "code": 35082302,
  "addition": null
}, {
  "area_code": 350823,
  "name": "上杭县第二中学",
  "code": 35082303,
  "addition": null
}, {
  "area_code": 350823,
  "name": "上杭县明强中学",
  "code": 35082304,
  "addition": null
}, {
  "area_code": 350823,
  "name": "上杭县第一中学",
  "code": 35082305,
  "addition": null
}, {
  "area_code": 350823,
  "name": "上杭县古田中学",
  "code": 35082306,
  "addition": null
}, {
  "area_code": 350823,
  "name": "上杭县才溪中学",
  "code": 35082307,
  "addition": null
}, {
  "area_code": 350823,
  "name": "上杭县高级中学",
  "code": 35082308,
  "addition": null
}, {
  "area_code": 350823,
  "name": "上杭县第五中学",
  "code": 35082309,
  "addition": null
}, {
  "area_code": 350824,
  "name": "武平县第一中学",
  "code": 35082401,
  "addition": null
}, {
  "area_code": 350824,
  "name": "武平县中堡中学",
  "code": 35082402,
  "addition": null
}, {
  "area_code": 350824,
  "name": "武平县第二中学",
  "code": 35082403,
  "addition": null
}, {
  "area_code": 350824,
  "name": "武平县桃溪中学",
  "code": 35082404,
  "addition": null
}, {
  "area_code": 350824,
  "name": "武平县岩前中学",
  "code": 35082405,
  "addition": null
}, {
  "area_code": 350824,
  "name": "武平县十方中学",
  "code": 35082406,
  "addition": null
}, {
  "area_code": 350824,
  "name": "武平县中山中学",
  "code": 35082407,
  "addition": null
}, {
  "area_code": 350825,
  "name": "连城县朋口中学",
  "code": 35082501,
  "addition": null
}, {
  "area_code": 350825,
  "name": "连城县第三中学",
  "code": 35082502,
  "addition": null
}, {
  "area_code": 350825,
  "name": "连城县第一中学",
  "code": 35082503,
  "addition": null
}, {
  "area_code": 350825,
  "name": "连城县第二中学",
  "code": 35082504,
  "addition": null
}, {
  "area_code": 350881,
  "name": "漳平第一中学",
  "code": 35088101,
  "addition": null
}, {
  "area_code": 350881,
  "name": "漳平第二中学",
  "code": 35088102,
  "addition": null
}, {
  "area_code": 350881,
  "name": "漳平第三中学",
  "code": 35088103,
  "addition": null
}, {
  "area_code": 350881,
  "name": "漳平市永福中学",
  "code": 35088104,
  "addition": null
}, {
  "area_code": 350881,
  "name": "漳平实验中学",
  "code": 35088105,
  "addition": null
}, {
  "area_code": 350881,
  "name": "漳平六中",
  "code": 35088106,
  "addition": null
}, {
  "area_code": 130981,
  "name": "任丘市华油一中",
  "code": 13098106,
  "addition": null
}, {
  "area_code": 130982,
  "name": "任丘市华油二中",
  "code": 13098201,
  "addition": null
}, {
  "area_code": 130982,
  "name": "任丘市华油三中",
  "code": 13098202,
  "addition": null
}, {
  "area_code": 130982,
  "name": "任丘市第一中学",
  "code": 13098203,
  "addition": null
}, {
  "area_code": 130982,
  "name": "任丘市莫州镇中学",
  "code": 13098204,
  "addition": null
}, {
  "area_code": 130982,
  "name": "任丘市迪普中学",
  "code": 13098205,
  "addition": null
}, {
  "area_code": 130982,
  "name": "河北省任丘市星火中学",
  "code": 13098206,
  "addition": null
}, {
  "area_code": 130982,
  "name": "任丘市第二中学",
  "code": 13098207,
  "addition": null
}, {
  "area_code": 130982,
  "name": "任丘市吕公堡中学",
  "code": 13098208,
  "addition": null
}, {
  "area_code": 130983,
  "name": "黄骅市中学",
  "code": 13098301,
  "addition": null
}, {
  "area_code": 130983,
  "name": "黄骅市职中",
  "code": 13098302,
  "addition": null
}, {
  "area_code": 130983,
  "name": "黄骅市新世纪中学",
  "code": 13098303,
  "addition": null
}, {
  "area_code": 130983,
  "name": "河北沧州市黄骅南大港中学",
  "code": 13098304,
  "addition": null
}, {
  "area_code": 130983,
  "name": "临港区高级中学",
  "code": 13098305,
  "addition": null
}, {
  "area_code": 130984,
  "name": "河间市华油四中",
  "code": 13098401,
  "addition": null
}, {
  "area_code": 130984,
  "name": "河北省河间市第一中学",
  "code": 13098402,
  "addition": null
}, {
  "area_code": 130984,
  "name": "河间市第四中学",
  "code": 13098403,
  "addition": null
}, {
  "area_code": 130984,
  "name": "河间市第三中学",
  "code": 13098404,
  "addition": null
}, {
  "area_code": 130984,
  "name": "河间市第五中学",
  "code": 13098405,
  "addition": null
}, {
  "area_code": 130984,
  "name": "河间市职业教育中心",
  "code": 13098406,
  "addition": null
}, {
  "area_code": 131001,
  "name": "廊坊市华油五中",
  "code": 13100101,
  "addition": null
}, {
  "area_code": 131001,
  "name": "廊坊市八中",
  "code": 13100102,
  "addition": null
}, {
  "area_code": 131001,
  "name": "廊坊一中",
  "code": 13100103,
  "addition": null
}, {
  "area_code": 131001,
  "name": "廊坊市第一实验中学",
  "code": 13100104,
  "addition": null
}, {
  "area_code": 131001,
  "name": "廊坊市第二中学",
  "code": 13100105,
  "addition": null
}, {
  "area_code": 131001,
  "name": "廊坊管道局中学",
  "code": 13100106,
  "addition": null
}, {
  "area_code": 131001,
  "name": "廊坊市七中",
  "code": 13100107,
  "addition": null
}, {
  "area_code": 131002,
  "name": "廊坊市第十二中学",
  "code": 13100201,
  "addition": null
}, {
  "area_code": 131003,
  "name": "廊坊市十一中",
  "code": 13100301,
  "addition": null
}, {
  "area_code": 131003,
  "name": "廊坊开发区新世纪中学",
  "code": 13100302,
  "addition": null
}, {
  "area_code": 131022,
  "name": "河北省固安县第一中学",
  "code": 13102201,
  "addition": null
}, {
  "area_code": 131022,
  "name": "河北省固安县第二中学",
  "code": 13102202,
  "addition": null
}, {
  "area_code": 131022,
  "name": "河北省固安县秋强中学",
  "code": 13102203,
  "addition": null
}, {
  "area_code": 131022,
  "name": "河北省固安县英才中学",
  "code": 13102204,
  "addition": null
}, {
  "area_code": 131023,
  "name": "永清县第一中学",
  "code": 13102301,
  "addition": null
}, {
  "area_code": 131024,
  "name": "河北省香河县第一中学",
  "code": 13102401,
  "addition": null
}, {
  "area_code": 131024,
  "name": "香河县第三中学",
  "code": 13102402,
  "addition": null
}, {
  "area_code": 131024,
  "name": "香河县第四中学",
  "code": 13102403,
  "addition": null
}, {
  "area_code": 131025,
  "name": "大城县留各庄中学",
  "code": 13102501,
  "addition": null
}, {
  "area_code": 131025,
  "name": "大城县第一中学",
  "code": 13102502,
  "addition": null
}, {
  "area_code": 131026,
  "name": "文安县第一中学",
  "code": 13102601,
  "addition": null
}, {
  "area_code": 131026,
  "name": "文安县第二中学",
  "code": 13102602,
  "addition": null
}, {
  "area_code": 131028,
  "name": "大厂回民中学",
  "code": 13102801,
  "addition": null
}, {
  "area_code": 131028,
  "name": "大厂县高级实验中学",
  "code": 13102802,
  "addition": null
}, {
  "area_code": 131081,
  "name": "霸州市第一中学",
  "code": 13108101,
  "addition": null
}, {
  "area_code": 131081,
  "name": "霸州市成人中等专业学校",
  "code": 13108102,
  "addition": null
}, {
  "area_code": 131081,
  "name": "霸州市第四中学",
  "code": 13108103,
  "addition": null
}, {
  "area_code": 131081,
  "name": "霸州市第五中学",
  "code": 13108104,
  "addition": null
}, {
  "area_code": 131081,
  "name": "霸州市职成教育总校",
  "code": 13108105,
  "addition": null
}, {
  "area_code": 131082,
  "name": "三河市第一中学",
  "code": 13108201,
  "addition": null
}, {
  "area_code": 131082,
  "name": "三河市第三中学",
  "code": 13108202,
  "addition": null
}, {
  "area_code": 131082,
  "name": "三河市第二中学",
  "code": 13108203,
  "addition": null
}, {
  "area_code": 131102,
  "name": "衡水市第十四中学",
  "code": 13110201,
  "addition": null
}, {
  "area_code": 131102,
  "name": "衡水市英才学校",
  "code": 13110202,
  "addition": null
}, {
  "area_code": 131102,
  "name": "衡水市第五中学",
  "code": 13110203,
  "addition": null
}, {
  "area_code": 131102,
  "name": "衡水市第十三中学",
  "code": 13110204,
  "addition": null
}, {
  "area_code": 131102,
  "name": "河北衡水中学",
  "code": 13110205,
  "addition": null
}, {
  "area_code": 131102,
  "name": "衡水市第二中学",
  "code": 13110206,
  "addition": null
}, {
  "area_code": 131121,
  "name": "河北衡水市枣强县枣强中学",
  "code": 13112101,
  "addition": null
}, {
  "area_code": 131121,
  "name": "河北省枣强县大营中学",
  "code": 13112102,
  "addition": null
}, {
  "area_code": 131121,
  "name": "枣强第一高级职业技术中学",
  "code": 13112103,
  "addition": null
}, {
  "area_code": 131122,
  "name": "武邑县第二中学",
  "code": 13112201,
  "addition": null
}, {
  "area_code": 131122,
  "name": "河北武邑中学",
  "code": 13112202,
  "addition": null
}, {
  "area_code": 131122,
  "name": "武邑宏达学校",
  "code": 13112203,
  "addition": null
}, {
  "area_code": 131122,
  "name": "武邑县实验中学",
  "code": 13112204,
  "addition": null
}, {
  "area_code": 131123,
  "name": "武强县中学",
  "code": 13112301,
  "addition": null
}, {
  "area_code": 131124,
  "name": "河北饶阳中学",
  "code": 13112401,
  "addition": null
}, {
  "area_code": 131125,
  "name": "安平县安平中学",
  "code": 13112501,
  "addition": null
}, {
  "area_code": 131125,
  "name": "安平县光明中学",
  "code": 13112502,
  "addition": null
}, {
  "area_code": 131125,
  "name": "安平县育才中学",
  "code": 13112503,
  "addition": null
}, {
  "area_code": 131126,
  "name": "河北郑口中学",
  "code": 13112601,
  "addition": null
}, {
  "area_code": 131126,
  "name": "河北省故城县高级中学",
  "code": 13112602,
  "addition": null
}, {
  "area_code": 131127,
  "name": "景县中学",
  "code": 13112701,
  "addition": null
}, {
  "area_code": 131127,
  "name": "景县第二中学",
  "code": 13112702,
  "addition": null
}, {
  "area_code": 131127,
  "name": "景县梁集中学",
  "code": 13112703,
  "addition": null
}, {
  "area_code": 131128,
  "name": "河北阜城中学",
  "code": 13112801,
  "addition": null
}, {
  "area_code": 131128,
  "name": "阜城县古城中学",
  "code": 13112802,
  "addition": null
}, {
  "area_code": 131181,
  "name": "河北冀州市中学",
  "code": 13118101,
  "addition": null
}, {
  "area_code": 131181,
  "name": "冀州市周村中学",
  "code": 13118102,
  "addition": null
}, {
  "area_code": 131181,
  "name": "冀州市滏运中学",
  "code": 13118103,
  "addition": null
}, {
  "area_code": 131182,
  "name": "深州市中学",
  "code": 13118201,
  "addition": null
}, {
  "area_code": 131182,
  "name": "深州市旧州中学",
  "code": 13118202,
  "addition": null
}, {
  "area_code": 131182,
  "name": "深州市长江路中学",
  "code": 13118203,
  "addition": null
}]
