[{
  "area_code": "兰州市",
  "code": "620102",
  "name": "城关区"
}, {
  "area_code": "兰州市",
  "code": "620102",
  "name": "城关区"
}, {
  "area_code": "兰州市",
  "code": "620102",
  "name": "城关区"
}, {
  "area_code": "兰州市",
  "code": "620102",
  "name": "城关区"
}, {
  "area_code": "兰州市",
  "code": "620102",
  "name": "城关区"
}, {
  "area_code": "兰州市",
  "code": "620102",
  "name": "城关区"
}, {
  "area_code": "兰州市",
  "code": "620102",
  "name": "城关区"
}, {
  "area_code": "兰州市",
  "code": "620102",
  "name": "城关区"
}, {
  "area_code": "兰州市",
  "code": "620102",
  "name": "城关区"
}, {
  "area_code": "兰州市",
  "code": "620102",
  "name": "城关区"
}, {
  "area_code": "兰州市",
  "code": "620102",
  "name": "城关区"
}, {
  "area_code": "兰州市",
  "code": "620102",
  "name": "城关区"
}, {
  "area_code": "兰州市",
  "code": "620102",
  "name": "城关区"
}, {
  "area_code": "兰州市",
  "code": "620102",
  "name": "城关区"
}, {
  "area_code": "兰州市",
  "code": "620102",
  "name": "城关区"
}, {
  "area_code": "兰州市",
  "code": "620102",
  "name": "城关区"
}, {
  "area_code": "兰州市",
  "code": "620102",
  "name": "城关区"
}, {
  "area_code": "兰州市",
  "code": "620102",
  "name": "城关区"
}, {
  "area_code": "兰州市",
  "code": "620102",
  "name": "城关区"
}, {
  "area_code": "兰州市",
  "code": "620103",
  "name": "七里河区"
}, {
  "area_code": "兰州市",
  "code": "620103",
  "name": "七里河区"
}, {
  "area_code": "兰州市",
  "code": "620103",
  "name": "七里河区"
}, {
  "area_code": "兰州市",
  "code": "620103",
  "name": "七里河区"
}, {
  "area_code": "兰州市",
  "code": "620103",
  "name": "七里河区"
}, {
  "area_code": "兰州市",
  "code": "620103",
  "name": "七里河区"
}, {
  "area_code": "兰州市",
  "code": "620103",
  "name": "七里河区"
}, {
  "area_code": "兰州市",
  "code": "620103",
  "name": "七里河区"
}, {
  "area_code": "兰州市",
  "code": "620103",
  "name": "七里河区"
}, {
  "area_code": "兰州市",
  "code": "620103",
  "name": "七里河区"
}, {
  "area_code": "兰州市",
  "code": "620103",
  "name": "七里河区"
}, {
  "area_code": "兰州市",
  "code": "620103",
  "name": "七里河区"
}, {
  "area_code": "兰州市",
  "code": "620103",
  "name": "七里河区"
}, {
  "area_code": "兰州市",
  "code": "620103",
  "name": "七里河区"
}, {
  "area_code": "兰州市",
  "code": "620104",
  "name": "西固区"
}, {
  "area_code": "兰州市",
  "code": "620104",
  "name": "西固区"
}, {
  "area_code": "兰州市",
  "code": "620104",
  "name": "西固区"
}, {
  "area_code": "兰州市",
  "code": "620104",
  "name": "西固区"
}, {
  "area_code": "兰州市",
  "code": "620104",
  "name": "西固区"
}, {
  "area_code": "兰州市",
  "code": "620104",
  "name": "西固区"
}, {
  "area_code": "兰州市",
  "code": "620104",
  "name": "西固区"
}, {
  "area_code": "兰州市",
  "code": "620104",
  "name": "西固区"
}, {
  "area_code": "兰州市",
  "code": "620104",
  "name": "西固区"
}, {
  "area_code": "兰州市",
  "code": "620105",
  "name": "安宁区"
}, {
  "area_code": "兰州市",
  "code": "620105",
  "name": "安宁区"
}, {
  "area_code": "兰州市",
  "code": "620105",
  "name": "安宁区"
}, {
  "area_code": "兰州市",
  "code": "620105",
  "name": "安宁区"
}, {
  "area_code": "兰州市",
  "code": "620105",
  "name": "安宁区"
}, {
  "area_code": "兰州市",
  "code": "620105",
  "name": "安宁区"
}, {
  "area_code": "兰州市",
  "code": "620105",
  "name": "安宁区"
}, {
  "area_code": "兰州市",
  "code": "620111",
  "name": "红古区"
}, {
  "area_code": "兰州市",
  "code": "620111",
  "name": "红古区"
}, {
  "area_code": "兰州市",
  "code": "620111",
  "name": "红古区"
}, {
  "area_code": "兰州市",
  "code": "620121",
  "name": "永登县"
}, {
  "area_code": "兰州市",
  "code": "620121",
  "name": "永登县"
}, {
  "area_code": "兰州市",
  "code": "620121",
  "name": "永登县"
}, {
  "area_code": "兰州市",
  "code": "620121",
  "name": "永登县"
}, {
  "area_code": "兰州市",
  "code": "620121",
  "name": "永登县"
}, {
  "area_code": "兰州市",
  "code": "620121",
  "name": "永登县"
}, {
  "area_code": "兰州市",
  "code": "620121",
  "name": "永登县"
}, {
  "area_code": "兰州市",
  "code": "620121",
  "name": "永登县"
}, {
  "area_code": "兰州市",
  "code": "620123",
  "name": "榆中县  "
}, {
  "area_code": "兰州市",
  "code": "620123",
  "name": "榆中县  "
}, {
  "area_code": "兰州市",
  "code": "620123",
  "name": "榆中县  "
}, {
  "area_code": "兰州市",
  "code": "620123",
  "name": "榆中县  "
}, {
  "area_code": "兰州市",
  "code": "620123",
  "name": "榆中县  "
}, {
  "area_code": "兰州市",
  "code": "620123",
  "name": "榆中县  "
}, {
  "area_code": "兰州市",
  "code": "620122",
  "name": "皋兰县"
}, {
  "area_code": "兰州市",
  "code": "620122",
  "name": "皋兰县"
}, {
  "area_code": "嘉峪关市",
  "code": "620201",
  "name": "市辖区"
}, {
  "area_code": "嘉峪关市",
  "code": "620201",
  "name": "市辖区"
}, {
  "area_code": "嘉峪关市",
  "code": "620201",
  "name": "市辖区"
}, {
  "area_code": "金昌市",
  "code": "620302",
  "name": "金川区  "
}, {
  "area_code": "金昌市",
  "code": "620302",
  "name": "金川区  "
}, {
  "area_code": "金昌市",
  "code": "620302",
  "name": "金川区  "
}, {
  "area_code": "金昌市",
  "code": "620302",
  "name": "金川区  "
}, {
  "area_code": "金昌市",
  "code": "620321",
  "name": "永昌县"
}, {
  "area_code": "金昌市",
  "code": "620321",
  "name": "永昌县"
}, {
  "area_code": "金昌市",
  "code": "620321",
  "name": "永昌县"
}, {
  "area_code": "金昌市",
  "code": "620321",
  "name": "永昌县"
}, {
  "area_code": "白银市",
  "code": "620402",
  "name": "白银区"
}, {
  "area_code": "白银市",
  "code": "620402",
  "name": "白银区"
}, {
  "area_code": "白银市",
  "code": "620402",
  "name": "白银区"
}, {
  "area_code": "白银市",
  "code": "620402",
  "name": "白银区"
}, {
  "area_code": "白银市",
  "code": "620402",
  "name": "白银区"
}, {
  "area_code": "白银市",
  "code": "620402",
  "name": "白银区"
}, {
  "area_code": "白银市",
  "code": "620403",
  "name": "平川区"
}, {
  "area_code": "白银市",
  "code": "620403",
  "name": "平川区"
}, {
  "area_code": "白银市",
  "code": "620403",
  "name": "平川区"
}, {
  "area_code": "白银市",
  "code": "620403",
  "name": "平川区"
}, {
  "area_code": "白银市",
  "code": "620421",
  "name": "靖远县"
}, {
  "area_code": "白银市",
  "code": "620421",
  "name": "靖远县"
}, {
  "area_code": "白银市",
  "code": "620421",
  "name": "靖远县"
}, {
  "area_code": "白银市",
  "code": "620421",
  "name": "靖远县"
}, {
  "area_code": "白银市",
  "code": "620421",
  "name": "靖远县"
}, {
  "area_code": "白银市",
  "code": "620422",
  "name": "会宁县"
}, {
  "area_code": "白银市",
  "code": "620422",
  "name": "会宁县"
}, {
  "area_code": "白银市",
  "code": "620422",
  "name": "会宁县"
}, {
  "area_code": "白银市",
  "code": "620422",
  "name": "会宁县"
}, {
  "area_code": "白银市",
  "code": "620422",
  "name": "会宁县"
}, {
  "area_code": "白银市",
  "code": "620423",
  "name": "景泰县"
}, {
  "area_code": "白银市",
  "code": "620423",
  "name": "景泰县"
}, {
  "area_code": "白银市",
  "code": "620423",
  "name": "景泰县"
}, {
  "area_code": "天水市",
  "code": "620502",
  "name": "秦城区"
}, {
  "area_code": "天水市",
  "code": "620502",
  "name": "秦城区"
}, {
  "area_code": "天水市",
  "code": "620502",
  "name": "秦城区"
}, {
  "area_code": "天水市",
  "code": "620502",
  "name": "秦城区"
}, {
  "area_code": "天水市",
  "code": "620502",
  "name": "秦城区"
}, {
  "area_code": "天水市",
  "code": "620502",
  "name": "秦城区"
}, {
  "area_code": "天水市",
  "code": "620502",
  "name": "秦城区"
}, {
  "area_code": "天水市",
  "code": "620502",
  "name": "秦城区"
}, {
  "area_code": "天水市",
  "code": "620502",
  "name": "秦城区"
}, {
  "area_code": "天水市",
  "code": "620502",
  "name": "秦城区"
}, {
  "area_code": "天水市",
  "code": "620502",
  "name": "秦城区"
}, {
  "area_code": "天水市",
  "code": "620502",
  "name": "秦城区"
}, {
  "area_code": "天水市",
  "code": "620503",
  "name": "麦积区  "
}, {
  "area_code": "天水市",
  "code": "620503",
  "name": "麦积区  "
}, {
  "area_code": "天水市",
  "code": "620503",
  "name": "麦积区  "
}, {
  "area_code": "天水市",
  "code": "620503",
  "name": "麦积区  "
}, {
  "area_code": "天水市",
  "code": "620503",
  "name": "麦积区  "
}, {
  "area_code": "天水市",
  "code": "620503",
  "name": "麦积区  "
}, {
  "area_code": "天水市",
  "code": "620503",
  "name": "麦积区  "
}, {
  "area_code": "天水市",
  "code": "620521",
  "name": "清水县"
}, {
  "area_code": "天水市",
  "code": "620521",
  "name": "清水县"
}, {
  "area_code": "天水市",
  "code": "620522",
  "name": "秦安县"
}, {
  "area_code": "天水市",
  "code": "620522",
  "name": "秦安县"
}, {
  "area_code": "天水市",
  "code": "620522",
  "name": "秦安县"
}, {
  "area_code": "天水市",
  "code": "620522",
  "name": "秦安县"
}, {
  "area_code": "天水市",
  "code": "620522",
  "name": "秦安县"
}, {
  "area_code": "天水市",
  "code": "620522",
  "name": "秦安县"
}, {
  "area_code": "天水市",
  "code": "620522",
  "name": "秦安县"
}, {
  "area_code": "天水市",
  "code": "620522",
  "name": "秦安县"
}, {
  "area_code": "天水市",
  "code": "620522",
  "name": "秦安县"
}, {
  "area_code": "天水市",
  "code": "620523",
  "name": "甘谷县"
}, {
  "area_code": "天水市",
  "code": "620523",
  "name": "甘谷县"
}, {
  "area_code": "天水市",
  "code": "620523",
  "name": "甘谷县"
}, {
  "area_code": "天水市",
  "code": "620523",
  "name": "甘谷县"
}, {
  "area_code": "天水市",
  "code": "620523",
  "name": "甘谷县"
}, {
  "area_code": "天水市",
  "code": "620523",
  "name": "甘谷县"
}, {
  "area_code": "天水市",
  "code": "620523",
  "name": "甘谷县"
}, {
  "area_code": "天水市",
  "code": "620523",
  "name": "甘谷县"
}, {
  "area_code": "天水市",
  "code": "620524",
  "name": "武山县"
}, {
  "area_code": "天水市",
  "code": "620524",
  "name": "武山县"
}, {
  "area_code": "天水市",
  "code": "620524",
  "name": "武山县"
}, {
  "area_code": "天水市",
  "code": "620524",
  "name": "武山县"
}, {
  "area_code": "天水市",
  "code": "620525",
  "name": "张家川县"
}, {
  "area_code": "天水市",
  "code": "620525",
  "name": "张家川县"
}, {
  "area_code": "天水市",
  "code": "620525",
  "name": "张家川县"
}, {
  "area_code": "武威市",
  "code": "620602",
  "name": "凉州区"
}, {
  "area_code": "武威市",
  "code": "620602",
  "name": "凉州区"
}, {
  "area_code": "武威市",
  "code": "620602",
  "name": "凉州区"
}, {
  "area_code": "武威市",
  "code": "620602",
  "name": "凉州区"
}, {
  "area_code": "武威市",
  "code": "620602",
  "name": "凉州区"
}, {
  "area_code": "武威市",
  "code": "620602",
  "name": "凉州区"
}, {
  "area_code": "武威市",
  "code": "620602",
  "name": "凉州区"
}, {
  "area_code": "武威市",
  "code": "620602",
  "name": "凉州区"
}, {
  "area_code": "武威市",
  "code": "620602",
  "name": "凉州区"
}, {
  "area_code": "武威市",
  "code": "620602",
  "name": "凉州区"
}, {
  "area_code": "武威市",
  "code": "620602",
  "name": "凉州区"
}, {
  "area_code": "武威市",
  "code": "620602",
  "name": "凉州区"
}, {
  "area_code": "武威市",
  "code": "620621",
  "name": "民勤县"
}, {
  "area_code": "武威市",
  "code": "620621",
  "name": "民勤县"
}, {
  "area_code": "武威市",
  "code": "620621",
  "name": "民勤县"
}, {
  "area_code": "武威市",
  "code": "620622",
  "name": "古浪县"
}, {
  "area_code": "武威市",
  "code": "620622",
  "name": "古浪县"
}, {
  "area_code": "武威市",
  "code": "620623",
  "name": "天祝县"
}, {
  "area_code": "武威市",
  "code": "620623",
  "name": "天祝县"
}, {
  "area_code": "武威市",
  "code": "620623",
  "name": "天祝县"
}, {
  "area_code": "张掖市",
  "code": "620702",
  "name": "甘州区"
}, {
  "area_code": "张掖市",
  "code": "620702",
  "name": "甘州区"
}, {
  "area_code": "张掖市",
  "code": "620702",
  "name": "甘州区"
}, {
  "area_code": "张掖市",
  "code": "620702",
  "name": "甘州区"
}, {
  "area_code": "张掖市",
  "code": "620721",
  "name": "肃南县"
}, {
  "area_code": "张掖市",
  "code": "620722",
  "name": "民乐县"
}, {
  "area_code": "张掖市",
  "code": "620723",
  "name": "临泽县"
}, {
  "area_code": "张掖市",
  "code": "620724",
  "name": "高台县"
}, {
  "area_code": "张掖市",
  "code": "620725",
  "name": "山丹县"
}, {
  "area_code": "平凉市",
  "code": "620802",
  "name": "崆峒区"
}, {
  "area_code": "平凉市",
  "code": "620802",
  "name": "崆峒区"
}, {
  "area_code": "平凉市",
  "code": "620802",
  "name": "崆峒区"
}, {
  "area_code": "平凉市",
  "code": "620802",
  "name": "崆峒区"
}, {
  "area_code": "平凉市",
  "code": "620802",
  "name": "崆峒区"
}, {
  "area_code": "平凉市",
  "code": "620802",
  "name": "崆峒区"
}, {
  "area_code": "平凉市",
  "code": "620802",
  "name": "崆峒区"
}, {
  "area_code": "平凉市",
  "code": "620802",
  "name": "崆峒区"
}, {
  "area_code": "平凉市",
  "code": "620821",
  "name": "泾川县"
}, {
  "area_code": "平凉市",
  "code": "620821",
  "name": "泾川县"
}, {
  "area_code": "平凉市",
  "code": "620821",
  "name": "泾川县"
}, {
  "area_code": "平凉市",
  "code": "620821",
  "name": "泾川县"
}, {
  "area_code": "平凉市",
  "code": "620821",
  "name": "泾川县"
}, {
  "area_code": "平凉市",
  "code": "620822",
  "name": "灵台县"
}, {
  "area_code": "平凉市",
  "code": "620822",
  "name": "灵台县"
}, {
  "area_code": "平凉市",
  "code": "620822",
  "name": "灵台县"
}, {
  "area_code": "平凉市",
  "code": "620823",
  "name": "崇信县"
}, {
  "area_code": "平凉市",
  "code": "620824",
  "name": "华亭县"
}, {
  "area_code": "平凉市",
  "code": "620824",
  "name": "华亭县"
}, {
  "area_code": "平凉市",
  "code": "620825",
  "name": "庄浪县"
}, {
  "area_code": "平凉市",
  "code": "620825",
  "name": "庄浪县"
}, {
  "area_code": "平凉市",
  "code": "620825",
  "name": "庄浪县"
}, {
  "area_code": "平凉市",
  "code": "620825",
  "name": "庄浪县"
}, {
  "area_code": "平凉市",
  "code": "620825",
  "name": "庄浪县"
}, {
  "area_code": "平凉市",
  "code": "620825",
  "name": "庄浪县"
}, {
  "area_code": "平凉市",
  "code": "620826",
  "name": "静宁县"
}, {
  "area_code": "平凉市",
  "code": "620826",
  "name": "静宁县"
}, {
  "area_code": "平凉市",
  "code": "620826",
  "name": "静宁县"
}, {
  "area_code": "平凉市",
  "code": "620826",
  "name": "静宁县"
}, {
  "area_code": "平凉市",
  "code": "620826",
  "name": "静宁县"
}, {
  "area_code": "平凉市",
  "code": "620826",
  "name": "静宁县"
}, {
  "area_code": "平凉市",
  "code": "620826",
  "name": "静宁县"
}, {
  "area_code": "平凉市",
  "code": "620826",
  "name": "静宁县"
}, {
  "area_code": "酒泉市",
  "code": "620902",
  "name": "肃州区"
}, {
  "area_code": "酒泉市",
  "code": "620902",
  "name": "肃州区"
}, {
  "area_code": "酒泉市",
  "code": "620902",
  "name": "肃州区"
}, {
  "area_code": "酒泉市",
  "code": "620902",
  "name": "肃州区"
}, {
  "area_code": "酒泉市",
  "code": "620902",
  "name": "肃州区"
}, {
  "area_code": "酒泉市",
  "code": "620902",
  "name": "肃州区"
}, {
  "area_code": "酒泉市",
  "code": "620921",
  "name": "金塔县"
}, {
  "area_code": "酒泉市",
  "code": "620922",
  "name": "瓜州县"
}, {
  "area_code": "酒泉市",
  "code": "620923",
  "name": "肃北县"
}, {
  "area_code": "酒泉市",
  "code": "620923",
  "name": "肃北县"
}, {
  "area_code": "酒泉市",
  "code": "620924",
  "name": "阿克塞县  "
}, {
  "area_code": "酒泉市",
  "code": "620981",
  "name": "玉门市"
}, {
  "area_code": "酒泉市",
  "code": "620981",
  "name": "玉门市"
}, {
  "area_code": "酒泉市",
  "code": "620982",
  "name": "敦煌市"
}, {
  "area_code": "酒泉市",
  "code": "620982",
  "name": "敦煌市"
}, {
  "area_code": "酒泉市",
  "code": "620982",
  "name": "敦煌市"
}, {
  "area_code": "庆阳市",
  "code": "621002",
  "name": "西峰区"
}, {
  "area_code": "庆阳市",
  "code": "621002",
  "name": "西峰区"
}, {
  "area_code": "庆阳市",
  "code": "621002",
  "name": "西峰区"
}, {
  "area_code": "庆阳市",
  "code": "621002",
  "name": "西峰区"
}, {
  "area_code": "庆阳市",
  "code": "621002",
  "name": "西峰区"
}, {
  "area_code": "庆阳市",
  "code": "621002",
  "name": "西峰区"
}, {
  "area_code": "庆阳市",
  "code": "621002",
  "name": "西峰区"
}, {
  "area_code": "庆阳市",
  "code": "621021",
  "name": "庆城县"
}, {
  "area_code": "庆阳市",
  "code": "621021",
  "name": "庆城县"
}, {
  "area_code": "庆阳市",
  "code": "621021",
  "name": "庆城县"
}, {
  "area_code": "庆阳市",
  "code": "621021",
  "name": "庆城县"
}, {
  "area_code": "庆阳市",
  "code": "621022",
  "name": "环县"
}, {
  "area_code": "庆阳市",
  "code": "621022",
  "name": "环县"
}, {
  "area_code": "庆阳市",
  "code": "621023",
  "name": "华池县"
}, {
  "area_code": "庆阳市",
  "code": "621024",
  "name": "合水县"
}, {
  "area_code": "庆阳市",
  "code": "621025",
  "name": "正宁县 "
}, {
  "area_code": "庆阳市",
  "code": "621026",
  "name": "宁县"
}, {
  "area_code": "庆阳市",
  "code": "621026",
  "name": "宁县"
}, {
  "area_code": "庆阳市",
  "code": "621026",
  "name": "宁县"
}, {
  "area_code": "庆阳市",
  "code": "621026",
  "name": "宁县"
}, {
  "area_code": "庆阳市",
  "code": "621026",
  "name": "宁县"
}, {
  "area_code": "庆阳市",
  "code": "621026",
  "name": "宁县"
}, {
  "area_code": "庆阳市",
  "code": "621026",
  "name": "宁县"
}, {
  "area_code": "庆阳市",
  "code": "621026",
  "name": "宁县"
}, {
  "area_code": "庆阳市",
  "code": "621027",
  "name": "镇原县"
}, {
  "area_code": "庆阳市",
  "code": "621027",
  "name": "镇原县"
}, {
  "area_code": "庆阳市",
  "code": "621027",
  "name": "镇原县"
}, {
  "area_code": "庆阳市",
  "code": "621027",
  "name": "镇原县"
}, {
  "area_code": "庆阳市",
  "code": "621027",
  "name": "镇原县"
}, {
  "area_code": "定西市",
  "code": "621102",
  "name": "安定区"
}, {
  "area_code": "定西市",
  "code": "621102",
  "name": "安定区"
}, {
  "area_code": "定西市",
  "code": "621102",
  "name": "安定区"
}, {
  "area_code": "定西市",
  "code": "621102",
  "name": "安定区"
}, {
  "area_code": "定西市",
  "code": "621102",
  "name": "安定区"
}, {
  "area_code": "定西市",
  "code": "621102",
  "name": "安定区"
}, {
  "area_code": "定西市",
  "code": "621102",
  "name": "安定区"
}, {
  "area_code": "定西市",
  "code": "621102",
  "name": "安定区"
}, {
  "area_code": "定西市",
  "code": "621102",
  "name": "安定区"
}, {
  "area_code": "定西市",
  "code": "621102",
  "name": "安定区"
}, {
  "area_code": "定西市",
  "code": "621102",
  "name": "安定区"
}, {
  "area_code": "定西市",
  "code": "621102",
  "name": "安定区"
}, {
  "area_code": "定西市",
  "code": "621121",
  "name": "通渭县"
}, {
  "area_code": "定西市",
  "code": "621121",
  "name": "通渭县"
}, {
  "area_code": "定西市",
  "code": "621121",
  "name": "通渭县"
}, {
  "area_code": "定西市",
  "code": "621121",
  "name": "通渭县"
}, {
  "area_code": "定西市",
  "code": "621121",
  "name": "通渭县"
}, {
  "area_code": "定西市",
  "code": "621121",
  "name": "通渭县"
}, {
  "area_code": "定西市",
  "code": "621121",
  "name": "通渭县"
}, {
  "area_code": "定西市",
  "code": "621122",
  "name": "陇西县"
}, {
  "area_code": "定西市",
  "code": "621122",
  "name": "陇西县"
}, {
  "area_code": "定西市",
  "code": "621122",
  "name": "陇西县"
}, {
  "area_code": "定西市",
  "code": "621122",
  "name": "陇西县"
}, {
  "area_code": "定西市",
  "code": "621122",
  "name": "陇西县"
}, {
  "area_code": "定西市",
  "code": "621122",
  "name": "陇西县"
}, {
  "area_code": "定西市",
  "code": "621123",
  "name": "渭源县"
}, {
  "area_code": "定西市",
  "code": "621123",
  "name": "渭源县"
}, {
  "area_code": "定西市",
  "code": "621123",
  "name": "渭源县"
}, {
  "area_code": "定西市",
  "code": "621123",
  "name": "渭源县"
}, {
  "area_code": "定西市",
  "code": "621124",
  "name": "临洮县"
}, {
  "area_code": "定西市",
  "code": "621124",
  "name": "临洮县"
}, {
  "area_code": "定西市",
  "code": "621124",
  "name": "临洮县"
}, {
  "area_code": "定西市",
  "code": "621124",
  "name": "临洮县"
}, {
  "area_code": "定西市",
  "code": "621124",
  "name": "临洮县"
}, {
  "area_code": "定西市",
  "code": "621125",
  "name": "漳县"
}, {
  "area_code": "定西市",
  "code": "621125",
  "name": "漳县"
}, {
  "area_code": "定西市",
  "code": "621126",
  "name": "岷县"
}, {
  "area_code": "定西市",
  "code": "621126",
  "name": "岷县"
}, {
  "area_code": "定西市",
  "code": "621126",
  "name": "岷县"
}, {
  "area_code": "定西市",
  "code": "621126",
  "name": "岷县"
}, {
  "area_code": "陇南市",
  "code": "621202",
  "name": "武都区"
}, {
  "area_code": "陇南市",
  "code": "621202",
  "name": "武都区"
}, {
  "area_code": "陇南市",
  "code": "621202",
  "name": "武都区"
}, {
  "area_code": "陇南市",
  "code": "621202",
  "name": "武都区"
}, {
  "area_code": "陇南市",
  "code": "621202",
  "name": "武都区"
}, {
  "area_code": "陇南市",
  "code": "621202",
  "name": "武都区"
}, {
  "area_code": "陇南市",
  "code": "621202",
  "name": "武都区"
}, {
  "area_code": "陇南市",
  "code": "621221",
  "name": "成县"
}, {
  "area_code": "陇南市",
  "code": "621221",
  "name": "成县"
}, {
  "area_code": "陇南市",
  "code": "621221",
  "name": "成县"
}, {
  "area_code": "陇南市",
  "code": "621221",
  "name": "成县"
}, {
  "area_code": "陇南市",
  "code": "621221",
  "name": "成县"
}, {
  "area_code": "陇南市",
  "code": "621222",
  "name": "文县"
}, {
  "area_code": "陇南市",
  "code": "621222",
  "name": "文县"
}, {
  "area_code": "陇南市",
  "code": "621222",
  "name": "文县"
}, {
  "area_code": "陇南市",
  "code": "621222",
  "name": "文县"
}, {
  "area_code": "陇南市",
  "code": "621223",
  "name": "宕昌县"
}, {
  "area_code": "陇南市",
  "code": "621223",
  "name": "宕昌县"
}, {
  "area_code": "陇南市",
  "code": "621223",
  "name": "宕昌县"
}, {
  "area_code": "陇南市",
  "code": "621224",
  "name": "康县"
}, {
  "area_code": "陇南市",
  "code": "621224",
  "name": "康县"
}, {
  "area_code": "陇南市",
  "code": "621225",
  "name": "西和县"
}, {
  "area_code": "陇南市",
  "code": "621225",
  "name": "西和县"
}, {
  "area_code": "陇南市",
  "code": "621225",
  "name": "西和县"
}, {
  "area_code": "陇南市",
  "code": "621225",
  "name": "西和县"
}, {
  "area_code": "陇南市",
  "code": "621226",
  "name": "礼县"
}, {
  "area_code": "陇南市",
  "code": "621226",
  "name": "礼县"
}, {
  "area_code": "陇南市",
  "code": "621226",
  "name": "礼县"
}, {
  "area_code": "陇南市",
  "code": "621226",
  "name": "礼县"
}, {
  "area_code": "陇南市",
  "code": "621226",
  "name": "礼县"
}, {
  "area_code": "陇南市",
  "code": "621226",
  "name": "礼县"
}, {
  "area_code": "陇南市",
  "code": "621227",
  "name": "徽县"
}, {
  "area_code": "陇南市",
  "code": "621227",
  "name": "徽县"
}, {
  "area_code": "陇南市",
  "code": "621228",
  "name": "两当县"
}, {
  "area_code": "甘南藏族自治州",
  "code": "623001",
  "name": "合作市  "
}, {
  "area_code": "甘南藏族自治州",
  "code": "623001",
  "name": "合作市  "
}, {
  "area_code": "甘南藏族自治州",
  "code": "623001",
  "name": "合作市  "
}, {
  "area_code": "甘南藏族自治州",
  "code": "623001",
  "name": "合作市  "
}, {
  "area_code": "甘南藏族自治州",
  "code": "623021",
  "name": "临潭县"
}, {
  "area_code": "甘南藏族自治州",
  "code": "623021",
  "name": "临潭县"
}, {
  "area_code": "甘南藏族自治州",
  "code": "623022",
  "name": "卓尼县"
}, {
  "area_code": "甘南藏族自治州",
  "code": "623022",
  "name": "卓尼县"
}, {
  "area_code": "甘南藏族自治州",
  "code": "623023",
  "name": "舟曲县"
}, {
  "area_code": "甘南藏族自治州",
  "code": "623024",
  "name": "迭部县  "
}, {
  "area_code": "甘南藏族自治州",
  "code": "623025",
  "name": "玛曲县"
}, {
  "area_code": "甘南藏族自治州",
  "code": "623026",
  "name": "碌曲县"
}, {
  "area_code": "甘南藏族自治州",
  "code": "623026",
  "name": "碌曲县"
}, {
  "area_code": "甘南藏族自治州",
  "code": "623027",
  "name": "夏河县"
}, {
  "area_code": "甘南藏族自治州",
  "code": "623027",
  "name": "夏河县"
}, {
  "area_code": "临夏回族自治州",
  "code": "622901",
  "name": "临夏市"
}, {
  "area_code": "临夏回族自治州",
  "code": "622901",
  "name": "临夏市"
}, {
  "area_code": "临夏回族自治州",
  "code": "622901",
  "name": "临夏市"
}, {
  "area_code": "临夏回族自治州",
  "code": "622921",
  "name": "临夏县"
}, {
  "area_code": "临夏回族自治州",
  "code": "622921",
  "name": "临夏县"
}, {
  "area_code": "临夏回族自治州",
  "code": "622922",
  "name": "康乐县"
}, {
  "area_code": "临夏回族自治州",
  "code": "622923",
  "name": "永靖县"
}, {
  "area_code": "临夏回族自治州",
  "code": "622923",
  "name": "永靖县"
}, {
  "area_code": "临夏回族自治州",
  "code": "622924",
  "name": "广河县"
}, {
  "area_code": "临夏回族自治州",
  "code": "622924",
  "name": "广河县"
}, {
  "area_code": "临夏回族自治州",
  "code": "622925",
  "name": "和政县"
}, {
  "area_code": "临夏回族自治州",
  "code": "622926",
  "name": "东乡县"
}, {
  "area_code": "临夏回族自治州",
  "code": "622926",
  "name": "东乡县"
}, {
  "area_code": "临夏回族自治州",
  "code": "622926",
  "name": "东乡县"
}, {
  "area_code": "临夏回族自治州",
  "code": "622927",
  "name": "积石山县"
}, {
  "area_code": "临夏回族自治州",
  "code": "622927",
  "name": "积石山县"
}, {
  "area_code": "伊犁哈萨克自治州",
  "code": "654025",
  "name": "新源县"
}, {
  "area_code": "伊犁哈萨克自治州",
  "code": "654025",
  "name": "新源县"
}, {
  "area_code": "伊犁哈萨克自治州",
  "code": "654025",
  "name": "新源县"
}, {
  "area_code": "伊犁哈萨克自治州",
  "code": "654025",
  "name": "新源县"
}, {
  "area_code": "伊犁哈萨克自治州",
  "code": "654025",
  "name": "新源县"
}, {
  "area_code": "伊犁哈萨克自治州",
  "code": "654025",
  "name": "新源县"
}, {
  "area_code": "伊犁哈萨克自治州",
  "code": "654026",
  "name": "昭苏县"
}, {
  "area_code": "伊犁哈萨克自治州",
  "code": "654026",
  "name": "昭苏县"
}, {
  "area_code": "伊犁哈萨克自治州",
  "code": "654026",
  "name": "昭苏县"
}, {
  "area_code": "伊犁哈萨克自治州",
  "code": "654026",
  "name": "昭苏县"
}, {
  "area_code": "伊犁哈萨克自治州",
  "code": "654026",
  "name": "昭苏县"
}, {
  "area_code": "伊犁哈萨克自治州",
  "code": "654026",
  "name": "昭苏县"
}, {
  "area_code": "伊犁哈萨克自治州",
  "code": "654027",
  "name": "特克斯县"
}, {
  "area_code": "伊犁哈萨克自治州",
  "code": "654027",
  "name": "特克斯县"
}, {
  "area_code": "伊犁哈萨克自治州",
  "code": "654027",
  "name": "特克斯县"
}, {
  "area_code": "伊犁哈萨克自治州",
  "code": "654027",
  "name": "特克斯县"
}, {
  "area_code": "伊犁哈萨克自治州",
  "code": "654028",
  "name": "尼勒克县"
}, {
  "area_code": "塔城地区",
  "code": "654201",
  "name": "塔城市"
}, {
  "area_code": "塔城地区",
  "code": "654201",
  "name": "塔城市"
}, {
  "area_code": "塔城地区",
  "code": "654201",
  "name": "塔城市"
}, {
  "area_code": "塔城地区",
  "code": "654201",
  "name": "塔城市"
}, {
  "area_code": "塔城地区",
  "code": "654202",
  "name": "乌苏市"
}, {
  "area_code": "塔城地区",
  "code": "654202",
  "name": "乌苏市"
}, {
  "area_code": "塔城地区",
  "code": "654202",
  "name": "乌苏市"
}, {
  "area_code": "塔城地区",
  "code": "654202",
  "name": "乌苏市"
}, {
  "area_code": "塔城地区",
  "code": "654202",
  "name": "乌苏市"
}, {
  "area_code": "塔城地区",
  "code": "654202",
  "name": "乌苏市"
}, {
  "area_code": "塔城地区",
  "code": "654202",
  "name": "乌苏市"
}, {
  "area_code": "塔城地区",
  "code": "654202",
  "name": "乌苏市"
}, {
  "area_code": "塔城地区",
  "code": "654202",
  "name": "乌苏市"
}, {
  "area_code": "塔城地区",
  "code": "654202",
  "name": "乌苏市"
}, {
  "area_code": "塔城地区",
  "code": "654202",
  "name": "乌苏市"
}, {
  "area_code": "塔城地区",
  "code": "654221",
  "name": "额敏县"
}, {
  "area_code": "塔城地区",
  "code": "654221",
  "name": "额敏县"
}, {
  "area_code": "塔城地区",
  "code": "654221",
  "name": "额敏县"
}, {
  "area_code": "塔城地区",
  "code": "654223",
  "name": "沙湾县"
}, {
  "area_code": "塔城地区",
  "code": "654223",
  "name": "沙湾县"
}, {
  "area_code": "塔城地区",
  "code": "654223",
  "name": "沙湾县"
}, {
  "area_code": "塔城地区",
  "code": "654223",
  "name": "沙湾县"
}, {
  "area_code": "塔城地区",
  "code": "654223",
  "name": "沙湾县"
}, {
  "area_code": "塔城地区",
  "code": "654224",
  "name": "托里县"
}, {
  "area_code": "塔城地区",
  "code": "654224",
  "name": "托里县"
}, {
  "area_code": "塔城地区",
  "code": "654224",
  "name": "托里县"
}, {
  "area_code": "塔城地区",
  "code": "654225",
  "name": "裕民县"
}, {
  "area_code": "塔城地区",
  "code": "654225",
  "name": "裕民县"
}, {
  "area_code": "塔城地区",
  "code": "654225",
  "name": "裕民县"
}, {
  "area_code": "塔城地区",
  "code": "654226",
  "name": "和丰县"
}, {
  "area_code": "塔城地区",
  "code": "654226",
  "name": "和丰县"
}, {
  "area_code": "塔城地区",
  "code": "654226",
  "name": "和丰县"
}, {
  "area_code": "阿勒泰地区",
  "code": "654301",
  "name": "阿勒泰市 "
}, {
  "area_code": "阿勒泰地区",
  "code": "654301",
  "name": "阿勒泰市 "
}, {
  "area_code": "阿勒泰地区",
  "code": "654301",
  "name": "阿勒泰市 "
}, {
  "area_code": "阿勒泰地区",
  "code": "654301",
  "name": "阿勒泰市 "
}, {
  "area_code": "阿勒泰地区",
  "code": "654321",
  "name": "布尔津县"
}, {
  "area_code": "阿勒泰地区",
  "code": "654322",
  "name": "富蕴县"
}, {
  "area_code": "阿勒泰地区",
  "code": "654322",
  "name": "富蕴县"
}, {
  "area_code": "阿勒泰地区",
  "code": "654322",
  "name": "富蕴县"
}, {
  "area_code": "阿勒泰地区",
  "code": "654323",
  "name": "福海县"
}, {
  "area_code": "阿勒泰地区",
  "code": "654324",
  "name": "哈巴河县"
}, {
  "area_code": "阿勒泰地区",
  "code": "654324",
  "name": "哈巴河县"
}, {
  "area_code": "阿勒泰地区",
  "code": "654325",
  "name": "青河县"
}, {
  "area_code": "阿勒泰地区",
  "code": "654326",
  "name": "吉木乃县"
}, {
  "area_code": "阿勒泰地区",
  "code": "654326",
  "name": "吉木乃县"
}, {
  "area_code": "阿勒泰地区",
  "code": "654326",
  "name": "吉木乃县"
}, {
  "area_code": "阿勒泰地区",
  "code": "654326",
  "name": "吉木乃县"
}, {
  "area_code": "阿勒泰地区",
  "code": "654326",
  "name": "吉木乃县"
}, {
  "area_code": "直辖行政单位",
  "code": "659001",
  "name": "石河子市"
}, {
  "area_code": "直辖行政单位",
  "code": "659001",
  "name": "石河子市"
}, {
  "area_code": "直辖行政单位",
  "code": "659001",
  "name": "石河子市"
}, {
  "area_code": "直辖行政单位",
  "code": "659001",
  "name": "石河子市"
}, {
  "area_code": "直辖行政单位",
  "code": "659001",
  "name": "石河子市"
}, {
  "area_code": "直辖行政单位",
  "code": "659001",
  "name": "石河子市"
}, {
  "area_code": "直辖行政单位",
  "code": "659001",
  "name": "石河子市"
}, {
  "area_code": "直辖行政单位",
  "code": "659001",
  "name": "石河子市"
}, {
  "area_code": "直辖行政单位",
  "code": "659001",
  "name": "石河子市"
}, {
  "area_code": "直辖行政单位",
  "code": "659001",
  "name": "石河子市"
}, {
  "area_code": "直辖行政单位",
  "code": "659001",
  "name": "石河子市"
}, {
  "area_code": "直辖行政单位",
  "code": "659001",
  "name": "石河子市"
}, {
  "area_code": "直辖行政单位",
  "code": "659001",
  "name": "石河子市"
}, {
  "area_code": "直辖行政单位",
  "code": "659001",
  "name": "石河子市"
}, {
  "area_code": "直辖行政单位",
  "code": "659001",
  "name": "石河子市"
}, {
  "area_code": "直辖行政单位",
  "code": "659001",
  "name": "石河子市"
}, {
  "area_code": "直辖行政单位",
  "code": "659001",
  "name": "石河子市"
}, {
  "area_code": "直辖行政单位",
  "code": "659001",
  "name": "石河子市"
}, {
  "area_code": "直辖行政单位",
  "code": "659001",
  "name": "石河子市"
}, {
  "area_code": "直辖行政单位",
  "code": "659001",
  "name": "石河子市"
}, {
  "area_code": "直辖行政单位",
  "code": "659002",
  "name": "阿拉尔市"
}, {
  "area_code": "直辖行政单位",
  "code": "659002",
  "name": "阿拉尔市"
}, {
  "area_code": "直辖行政单位",
  "code": "659002",
  "name": "阿拉尔市"
}, {
  "area_code": "直辖行政单位",
  "code": "659002",
  "name": "阿拉尔市"
}, {
  "area_code": "直辖行政单位",
  "code": "659002",
  "name": "阿拉尔市"
}, {
  "area_code": "直辖行政单位",
  "code": "659004",
  "name": "五家渠市"
}, {
  "area_code": "直辖行政单位",
  "code": "659004",
  "name": "五家渠市"
}, {
  "area_code": "直辖行政单位",
  "code": "659004",
  "name": "五家渠市"
}, {
  "area_code": "直辖行政单位",
  "code": "659004",
  "name": "五家渠市"
}, {
  "area_code": "直辖行政单位",
  "code": "659004",
  "name": "五家渠市"
}, {
  "area_code": "直辖行政单位",
  "code": "659004",
  "name": "五家渠市"
}, {
  "area_code": "直辖行政单位",
  "code": "659004",
  "name": "五家渠市"
}, {
  "area_code": "直辖行政单位",
  "code": "659004",
  "name": "五家渠市"
}, {
  "area_code": "直辖行政单位",
  "code": "659004",
  "name": "五家渠市"
}, {
  "area_code": "直辖行政单位",
  "code": "659004",
  "name": "五家渠市"
}, {
  "area_code": "",
  "code": "",
  "name": "大丰市"
}, {
  "area_code": "",
  "code": "",
  "name": "盐都区"
}, {
  "area_code": "",
  "code": "",
  "name": "亭湖区"
}, {
  "area_code": "",
  "code": "",
  "name": "市辖区"
}, {
  "area_code": "扬州市",
  "code": "",
  "name": "市辖区"
}, {
  "area_code": "",
  "code": "",
  "name": "宝应县"
}, {
  "area_code": "",
  "code": "",
  "name": "仪征市"
}, {
  "area_code": "",
  "code": "",
  "name": "高邮市"
}, {
  "area_code": "",
  "code": "",
  "name": "江都市"
}, {
  "area_code": "镇江市",
  "code": "",
  "name": "市辖区"
}, {
  "area_code": "",
  "code": "",
  "name": "丹阳市"
}, {
  "area_code": "",
  "code": "",
  "name": "扬中市"
}, {
  "area_code": "",
  "code": "",
  "name": "句容市"
}, {
  "area_code": "泰州市",
  "code": "",
  "name": "海陵区"
}, {
  "area_code": "",
  "code": "",
  "name": "高港区"
}, {
  "area_code": "",
  "code": "",
  "name": "兴化市"
}, {
  "area_code": "",
  "code": "",
  "name": "靖江市"
}, {
  "area_code": "",
  "code": "",
  "name": "泰兴市"
}, {
  "area_code": "",
  "code": "",
  "name": "姜堰市"
}, {
  "area_code": "宿迁市",
  "code": "",
  "name": "宿城区"
}, {
  "area_code": "",
  "code": "",
  "name": "宿豫区"
}, {
  "area_code": "",
  "code": "",
  "name": "沭阳县"
}, {
  "area_code": "",
  "code": "",
  "name": "泗阳县"
}, {
  "area_code": "",
  "code": "",
  "name": "泗洪县"
}, {
  "area_code": "",
  "code": "361127",
  "name": ""
}, {
  "area_code": "",
  "code": "361128",
  "name": "鄱阳县"
}, {
  "area_code": "",
  "code": "361128",
  "name": ""
}, {
  "area_code": "",
  "code": "361128",
  "name": ""
}, {
  "area_code": "",
  "code": "361128",
  "name": ""
}, {
  "area_code": "",
  "code": "361128",
  "name": ""
}, {
  "area_code": "",
  "code": "361128",
  "name": ""
}, {
  "area_code": "",
  "code": "361128",
  "name": ""
}, {
  "area_code": "",
  "code": "361128",
  "name": ""
}, {
  "area_code": "",
  "code": "361129",
  "name": "万年县"
}, {
  "area_code": "",
  "code": "361129",
  "name": ""
}, {
  "area_code": "",
  "code": "361129",
  "name": ""
}, {
  "area_code": "",
  "code": "361130",
  "name": "婺源县"
}, {
  "area_code": "",
  "code": "361130",
  "name": ""
}, {
  "area_code": "",
  "code": "361130",
  "name": ""
}, {
  "area_code": "",
  "code": "361181",
  "name": "德兴市"
}, {
  "area_code": "",
  "code": "361181",
  "name": ""
}, {
  "area_code": "周口市",
  "code": "411624",
  "name": "沈丘县"
}, {
  "area_code": "周口市",
  "code": "411624",
  "name": "沈丘县"
}, {
  "area_code": "周口市",
  "code": "411624",
  "name": "沈丘县"
}, {
  "area_code": "周口市",
  "code": "411624",
  "name": "沈丘县"
}, {
  "area_code": "周口市",
  "code": "411624",
  "name": "沈丘县"
}, {
  "area_code": "周口市",
  "code": "411624",
  "name": "沈丘县"
}, {
  "area_code": "周口市",
  "code": "411627",
  "name": "太康县"
}, {
  "area_code": "周口市",
  "code": "411627",
  "name": "太康县"
}, {
  "area_code": "周口市",
  "code": "411627",
  "name": "太康县"
}, {
  "area_code": "周口市",
  "code": "411627",
  "name": "太康县"
}, {
  "area_code": "周口市",
  "code": "411622",
  "name": "西华县"
}, {
  "area_code": "周口市",
  "code": "411622",
  "name": "西华县"
}, {
  "area_code": "周口市",
  "code": "411622",
  "name": "西华县"
}, {
  "area_code": "周口市",
  "code": "411622",
  "name": "西华县"
}, {
  "area_code": "周口市",
  "code": "411622",
  "name": "西华县"
}, {
  "area_code": "周口市",
  "code": "411681",
  "name": "项城市"
}, {
  "area_code": "周口市",
  "code": "411681",
  "name": "项城市"
}, {
  "area_code": "周口市",
  "code": "411681",
  "name": "项城市"
}, {
  "area_code": "周口市",
  "code": "411681",
  "name": "项城市"
}, {
  "area_code": "周口市",
  "code": "411681",
  "name": "项城市"
}, {
  "area_code": "周口市",
  "code": "411681",
  "name": "项城市"
}, {
  "area_code": "驻马店市",
  "code": "411726",
  "name": "泌阳县"
}, {
  "area_code": "驻马店市",
  "code": "411726",
  "name": "泌阳县"
}, {
  "area_code": "驻马店市",
  "code": "411726",
  "name": "泌阳县"
}, {
  "area_code": "驻马店市",
  "code": "411723",
  "name": "平舆县"
}, {
  "area_code": "驻马店市",
  "code": "411723",
  "name": "平舆县"
}, {
  "area_code": "驻马店市",
  "code": "411723",
  "name": "平舆县"
}, {
  "area_code": "驻马店市",
  "code": "411723",
  "name": "平舆县"
}, {
  "area_code": "驻马店市",
  "code": "411725",
  "name": "确山县"
}, {
  "area_code": "驻马店市",
  "code": "411725",
  "name": "确山县"
}, {
  "area_code": "驻马店市",
  "code": "411727",
  "name": "汝南县"
}, {
  "area_code": "驻马店市",
  "code": "411727",
  "name": "汝南县"
}, {
  "area_code": "驻马店市",
  "code": "411727",
  "name": "汝南县"
}, {
  "area_code": "驻马店市",
  "code": "411722",
  "name": "上蔡县"
}, {
  "area_code": "驻马店市",
  "code": "411722",
  "name": "上蔡县"
}, {
  "area_code": "驻马店市",
  "code": "411722",
  "name": "上蔡县"
}, {
  "area_code": "驻马店市",
  "code": "411728",
  "name": "遂平县"
}, {
  "area_code": "驻马店市",
  "code": "411728",
  "name": "遂平县"
}, {
  "area_code": "驻马店市",
  "code": "411721",
  "name": "西平县"
}, {
  "area_code": "驻马店市",
  "code": "411721",
  "name": "西平县"
}, {
  "area_code": "驻马店市",
  "code": "411721",
  "name": "西平县"
}, {
  "area_code": "驻马店市",
  "code": "411729",
  "name": "新蔡县"
}, {
  "area_code": "驻马店市",
  "code": "411729",
  "name": "新蔡县"
}, {
  "area_code": "驻马店市",
  "code": "411729",
  "name": "新蔡县"
}, {
  "area_code": "驻马店市",
  "code": "411702",
  "name": "驿城区"
}, {
  "area_code": "驻马店市",
  "code": "411702",
  "name": "驿城区"
}, {
  "area_code": "驻马店市",
  "code": "411702",
  "name": "驿城区"
}, {
  "area_code": "驻马店市",
  "code": "411702",
  "name": "驿城区"
}, {
  "area_code": "驻马店市",
  "code": "411702",
  "name": "驿城区"
}, {
  "area_code": "驻马店市",
  "code": "411702",
  "name": "驿城区"
}, {
  "area_code": "驻马店市",
  "code": "411702",
  "name": "驿城区"
}, {
  "area_code": "驻马店市",
  "code": "411702",
  "name": "驿城区"
}, {
  "area_code": "驻马店市",
  "code": "411724",
  "name": "正阳县"
}, {
  "area_code": "驻马店市",
  "code": "411724",
  "name": "正阳县"
}, {
  "area_code": "驻马店市",
  "code": "411724",
  "name": "正阳县"
}, {
  "area_code": "驻马店市",
  "code": "411724",
  "name": "正阳县"
}]
