[{"area_code":"南宁市","code":"450101","name":"市辖区"},{"area_code":"南宁市","code":"450101","name":"市辖区"},{"area_code":"南宁市","code":"450101","name":"市辖区"},{"area_code":"南宁市","code":"450101","name":"市辖区"},{"area_code":"南宁市","code":"450101","name":"市辖区"},{"area_code":"南宁市","code":"450101","name":"市辖区"},{"area_code":"南宁市","code":"450101","name":"市辖区"},{"area_code":"南宁市","code":"450101","name":"市辖区"},{"area_code":"南宁市","code":"450101","name":"市辖区"},{"area_code":"南宁市","code":"450101","name":"市辖区"},{"area_code":"南宁市","code":"450101","name":"市辖区"},{"area_code":"南宁市","code":"450101","name":"市辖区"},{"area_code":"南宁市","code":"450101","name":"市辖区"},{"area_code":"南宁市","code":"450101","name":"市辖区"},{"area_code":"南宁市","code":"450101","name":"市辖区"},{"area_code":"南宁市","code":"450101","name":"市辖区"},{"area_code":"南宁市","code":"450101","name":"市辖区"},{"area_code":"南宁市","code":"450101","name":"市辖区"},{"area_code":"南宁市","code":"450101","name":"市辖区"},{"area_code":"南宁市","code":"450101","name":"市辖区"},{"area_code":"南宁市","code":"450101","name":"市辖区"},{"area_code":"南宁市","code":"450101","name":"市辖区"},{"area_code":"南宁市","code":"450101","name":"市辖区"},{"area_code":"南宁市","code":"450101","name":"市辖区"},{"area_code":"南宁市","code":"450101","name":"市辖区"},{"area_code":"南宁市","code":"450101","name":"市辖区"},{"area_code":"南宁市","code":"450101","name":"市辖区"},{"area_code":"南宁市","code":"450101","name":"市辖区"},{"area_code":"南宁市","code":"450101","name":"市辖区"},{"area_code":"南宁市","code":"450101","name":"市辖区"},{"area_code":"南宁市","code":"450101","name":"市辖区"},{"area_code":"南宁市","code":"450101","name":"市辖区"},{"area_code":"南宁市","code":"450101","name":"市辖区"},{"area_code":"南宁市","code":"450101","name":"市辖区"},{"area_code":"南宁市","code":"450101","name":"市辖区"},{"area_code":"南宁市","code":"450101","name":"市辖区"},{"area_code":"南宁市","code":"450122","name":"武鸣县"},{"area_code":"南宁市","code":"450122","name":"武鸣县"},{"area_code":"南宁市","code":"450122","name":"武鸣县"},{"area_code":"南宁市","code":"450122","name":"武鸣县"},{"area_code":"南宁市","code":"450122","name":"武鸣县"},{"area_code":"南宁市","code":"450122","name":"武鸣县"},{"area_code":"南宁市","code":"450122","name":"武鸣县"},{"area_code":"南宁市","code":"450109","name":"邕宁县"},{"area_code":"南宁市","code":"450109","name":"邕宁县"},{"area_code":"南宁市","code":"450109","name":"邕宁县"},{"area_code":"南宁市","code":"450109","name":"邕宁县"},{"area_code":"南宁市","code":"450109","name":"邕宁县"},{"area_code":"南宁市","code":"450127","name":"横县"},{"area_code":"南宁市","code":"450127","name":"横县"},{"area_code":"南宁市","code":"450127","name":"横县"},{"area_code":"南宁市","code":"450126","name":"宾阳县"},{"area_code":"南宁市","code":"450126","name":"宾阳县"},{"area_code":"南宁市","code":"450126","name":"宾阳县"},{"area_code":"南宁市","code":"450126","name":"宾阳县"},{"area_code":"南宁市","code":"450126","name":"宾阳县"},{"area_code":"南宁市","code":"450126","name":"宾阳县"},{"area_code":"南宁市","code":"450126","name":"宾阳县"},{"area_code":"南宁市","code":"450126","name":"宾阳县"},{"area_code":"南宁市","code":"450126","name":"宾阳县"},{"area_code":"南宁市","code":"450126","name":"宾阳县"},{"area_code":"南宁市","code":"450126","name":"宾阳县"},{"area_code":"南宁市","code":"450126","name":"宾阳县"},{"area_code":"南宁市","code":"450126","name":"宾阳县"},{"area_code":"南宁市","code":"450126","name":"宾阳县"},{"area_code":"南宁市","code":"450125","name":"上林县"},{"area_code":"南宁市","code":"450125","name":"上林县"},{"area_code":"南宁市","code":"450124","name":"马山县"},{"area_code":"南宁市","code":"450124","name":"马山县"},{"area_code":"南宁市","code":"450124","name":"马山县"},{"area_code":"南宁市","code":"450124","name":"马山县"},{"area_code":"南宁市","code":"450123","name":"隆安县"},{"area_code":"南宁市","code":"450123","name":"隆安县"},{"area_code":"南宁市","code":"450123","name":"隆安县"},{"area_code":"柳州市","code":"450202","name":"城中区"},{"area_code":"柳州市","code":"450202","name":"城中区"},{"area_code":"柳州市","code":"450202","name":"城中区"},{"area_code":"柳州市","code":"450205","name":"柳北区"},{"area_code":"柳州市","code":"450205","name":"柳北区"},{"area_code":"柳州市","code":"450205","name":"柳北区"},{"area_code":"柳州市","code":"450205","name":"柳北区"},{"area_code":"柳州市","code":"450205","name":"柳北区"},{"area_code":"柳州市","code":"450203","name":"鱼峰区"},{"area_code":"柳州市","code":"450203","name":"鱼峰区"},{"area_code":"柳州市","code":"450203","name":"鱼峰区"},{"area_code":"柳州市","code":"450203","name":"鱼峰区"},{"area_code":"柳州市","code":"450203","name":"鱼峰区"},{"area_code":"柳州市","code":"450203","name":"鱼峰区"},{"area_code":"柳州市","code":"450204","name":"柳南区"},{"area_code":"柳州市","code":"450204","name":"柳南区"},{"area_code":"柳州市","code":"450204","name":"柳南区"},{"area_code":"柳州市","code":"450221","name":"柳江县"},{"area_code":"柳州市","code":"450221","name":"柳江县"},{"area_code":"柳州市","code":"450222","name":"柳城县"},{"area_code":"柳州市","code":"450222","name":"柳城县"},{"area_code":"柳州市","code":"450222","name":"柳城县"},{"area_code":"柳州市","code":"450222","name":"柳城县"},{"area_code":"柳州市","code":"450224","name":"融安县"},{"area_code":"柳州市","code":"450224","name":"融安县"},{"area_code":"柳州市","code":"450223","name":"鹿寨县"},{"area_code":"柳州市","code":"450225","name":"融水县"},{"area_code":"柳州市","code":"450225","name":"融水县"},{"area_code":"柳州市","code":"450226","name":"三江县"},{"area_code":"柳州市","code":"450226","name":"三江县"},{"area_code":"桂林市","code":"450302","name":"秀峰区"},{"area_code":"桂林市","code":"450302","name":"秀峰区"},{"area_code":"桂林市","code":"450304","name":"象山区"},{"area_code":"桂林市","code":"450311","name":"雁山区"},{"area_code":"桂林市","code":"450305","name":"七星区"},{"area_code":"桂林市","code":"450305","name":"七星区"},{"area_code":"桂林市","code":"450305","name":"七星区"},{"area_code":"桂林市","code":"450322","name":"临桂县"},{"area_code":"桂林市","code":"450322","name":"临桂县"},{"area_code":"桂林市","code":"450322","name":"临桂县"},{"area_code":"桂林市","code":"450322","name":"临桂县"},{"area_code":"桂林市","code":"450323","name":"灵川县"},{"area_code":"桂林市","code":"450323","name":"灵川县"},{"area_code":"桂林市","code":"450323","name":"灵川县"},{"area_code":"桂林市","code":"450323","name":"灵川县"},{"area_code":"桂林市","code":"450325","name":"兴安县"},{"area_code":"桂林市","code":"450325","name":"兴安县"},{"area_code":"桂林市","code":"450325","name":"兴安县"},{"area_code":"桂林市","code":"450324","name":"全州县"},{"area_code":"桂林市","code":"450324","name":"全州县"},{"area_code":"桂林市","code":"450324","name":"全州县"},{"area_code":"桂林市","code":"450324","name":"全州县"},{"area_code":"桂林市","code":"450327","name":"灌阳县"},{"area_code":"桂林市","code":"450328","name":"龙胜各族自治县"},{"area_code":"桂林市","code":"450326","name":"永福县"},{"area_code":"桂林市","code":"450321","name":"阳朔县"},{"area_code":"桂林市","code":"450321","name":"阳朔县"},{"area_code":"桂林市","code":"450321","name":"阳朔县"},{"area_code":"桂林市","code":"450330","name":"平乐县"},{"area_code":"桂林市","code":"450330","name":"平乐县"},{"area_code":"桂林市","code":"450332","name":"恭城瑶族自治县"},{"area_code":"桂林市","code":"450331","name":"荔蒲县"},{"area_code":"桂林市","code":"450331","name":"荔蒲县"},{"area_code":"桂林市","code":"450331","name":"荔蒲县"},{"area_code":"桂林市","code":"450329","name":"资源县"},{"area_code":"桂林市","code":"450329","name":"资源县"},{"area_code":"梧州市","code":"450404","name":"蝶山区"},{"area_code":"梧州市","code":"450404","name":"蝶山区"},{"area_code":"梧州市","code":"450404","name":"蝶山区"},{"area_code":"梧州市","code":"450404","name":"蝶山区"},{"area_code":"梧州市","code":"450404","name":"蝶山区"},{"area_code":"梧州市","code":"450403","name":"万秀区"},{"area_code":"梧州市","code":"450421","name":"苍梧县"},{"area_code":"梧州市","code":"450421","name":"苍梧县"},{"area_code":"梧州市","code":"450421","name":"苍梧县"},{"area_code":"梧州市","code":"450421","name":"苍梧县"},{"area_code":"梧州市","code":"450481","name":"岑溪市"},{"area_code":"梧州市","code":"450481","name":"岑溪市"},{"area_code":"梧州市","code":"450481","name":"岑溪市"},{"area_code":"梧州市","code":"450481","name":"岑溪市"},{"area_code":"梧州市","code":"450481","name":"岑溪市"},{"area_code":"梧州市","code":"450481","name":"岑溪市"},{"area_code":"梧州市","code":"450422","name":"藤县"},{"area_code":"梧州市","code":"450422","name":"藤县"},{"area_code":"梧州市","code":"450423","name":"蒙山县"},{"area_code":"梧州市","code":"450423","name":"蒙山县"},{"area_code":"北海市","code":"450502","name":"海城区"},{"area_code":"北海市","code":"450502","name":"海城区"},{"area_code":"北海市","code":"450502","name":"海城区"},{"area_code":"北海市","code":"450502","name":"海城区"},{"area_code":"北海市","code":"450502","name":"海城区"},{"area_code":"北海市","code":"450502","name":"海城区"},{"area_code":"北海市","code":"450512","name":"铁山港区"},{"area_code":"北海市","code":"450512","name":"铁山港区"},{"area_code":"北海市","code":"450521","name":"合浦县"},{"area_code":"北海市","code":"450521","name":"合浦县"},{"area_code":"北海市","code":"450521","name":"合浦县"},{"area_code":"北海市","code":"450521","name":"合浦县"},{"area_code":"北海市","code":"450521","name":"合浦县"},{"area_code":"北海市","code":"450521","name":"合浦县"},{"area_code":"北海市","code":"450521","name":"合浦县"},{"area_code":"北海市","code":"450521","name":"合浦县"},{"area_code":"防城港市","code":"450602","name":"港口区"},{"area_code":"防城港市","code":"450602","name":"港口区"},{"area_code":"防城港市","code":"450602","name":"港口区"},{"area_code":"防城港市","code":"450602","name":"港口区"},{"area_code":"防城港市","code":"450681","name":"东兴市"},{"area_code":"防城港市","code":"450681","name":"东兴市"},{"area_code":"防城港市","code":"450621","name":"上思县"},{"area_code":"钦州市","code":"450702","name":"钦南区"},{"area_code":"钦州市","code":"450702","name":"钦南区"},{"area_code":"钦州市","code":"450702","name":"钦南区"},{"area_code":"钦州市","code":"450702","name":"钦南区"},{"area_code":"钦州市","code":"450702","name":"钦南区"},{"area_code":"钦州市","code":"450702","name":"钦南区"},{"area_code":"钦州市","code":"450703","name":"钦北区-"},{"area_code":"钦州市","code":"450721","name":"灵山县"},{"area_code":"钦州市","code":"450721","name":"灵山县"},{"area_code":"钦州市","code":"450721","name":"灵山县"},{"area_code":"钦州市","code":"450721","name":"灵山县"},{"area_code":"钦州市","code":"450721","name":"灵山县"},{"area_code":"钦州市","code":"450722","name":"浦北县"},{"area_code":"钦州市","code":"450722","name":"浦北县"},{"area_code":"钦州市","code":"450722","name":"浦北县"},{"area_code":"钦州市","code":"450722","name":"浦北县"},{"area_code":"贵港市","code":"450802","name":"港北区"},{"area_code":"贵港市","code":"450802","name":"港北区"},{"area_code":"贵港市","code":"450802","name":"港北区"},{"area_code":"贵港市","code":"450802","name":"港北区"},{"area_code":"贵港市","code":"450802","name":"港北区"},{"area_code":"贵港市","code":"450802","name":"港北区"},{"area_code":"贵港市","code":"450802","name":"港北区"},{"area_code":"贵港市","code":"450802","name":"港北区"},{"area_code":"贵港市","code":"450802","name":"港北区"},{"area_code":"贵港市","code":"450803","name":"港南区"},{"area_code":"贵港市","code":"450803","name":"港南区"},{"area_code":"贵港市","code":"450803","name":"港南区"},{"area_code":"贵港市","code":"450803","name":"港南区"},{"area_code":"贵港市","code":"450804","name":"覃塘区 "},{"area_code":"贵港市","code":"450804","name":"覃塘区 "},{"area_code":"贵港市","code":"450804","name":"覃塘区 "},{"area_code":"贵港市","code":"450881","name":"桂平市"},{"area_code":"贵港市","code":"450881","name":"桂平市"},{"area_code":"贵港市","code":"450881","name":"桂平市"},{"area_code":"贵港市","code":"450881","name":"桂平市"},{"area_code":"贵港市","code":"450881","name":"桂平市"},{"area_code":"贵港市","code":"450881","name":"桂平市"},{"area_code":"贵港市","code":"450881","name":"桂平市"},{"area_code":"贵港市","code":"450881","name":"桂平市"},{"area_code":"贵港市","code":"450881","name":"桂平市"},{"area_code":"贵港市","code":"450881","name":"桂平市"},{"area_code":"贵港市","code":"450881","name":"桂平市"},{"area_code":"贵港市","code":"450881","name":"桂平市"},{"area_code":"贵港市","code":"450881","name":"桂平市"},{"area_code":"贵港市","code":"450881","name":"桂平市"},{"area_code":"贵港市","code":"450881","name":"桂平市"},{"area_code":"贵港市","code":"450821","name":"平南县"},{"area_code":"贵港市","code":"450821","name":"平南县"},{"area_code":"贵港市","code":"450821","name":"平南县"},{"area_code":"贵港市","code":"450821","name":"平南县"},{"area_code":"贵港市","code":"450821","name":"平南县"},{"area_code":"贵港市","code":"450821","name":"平南县"},{"area_code":"贵港市","code":"450821","name":"平南县"},{"area_code":"贵港市","code":"450821","name":"平南县"},{"area_code":"贵港市","code":"450821","name":"平南县"},{"area_code":"贵港市","code":"450821","name":"平南县"},{"area_code":"贵港市","code":"450821","name":"平南县"},{"area_code":"贵港市","code":"450821","name":"平南县"},{"area_code":"贵港市","code":"450821","name":"平南县"},{"area_code":"贵港市","code":"450821","name":"平南县"},{"area_code":"贵港市","code":"450821","name":"平南县"},{"area_code":"玉林市","code":"450902","name":"玉州区"},{"area_code":"玉林市","code":"450902","name":"玉州区"},{"area_code":"玉林市","code":"450902","name":"玉州区"},{"area_code":"玉林市","code":"450902","name":"玉州区"},{"area_code":"玉林市","code":"450902","name":"玉州区"},{"area_code":"玉林市","code":"450902","name":"玉州区"},{"area_code":"玉林市","code":"450902","name":"玉州区"},{"area_code":"玉林市","code":"450902","name":"玉州区"},{"area_code":"玉林市","code":"450902","name":"玉州区"},{"area_code":"玉林市","code":"450902","name":"玉州区"},{"area_code":"玉林市","code":"450902","name":"玉州区"},{"area_code":"玉林市","code":"450902","name":"玉州区"},{"area_code":"玉林市","code":"450902","name":"玉州区"},{"area_code":"玉林市","code":"450902","name":"玉州区"},{"area_code":"玉林市","code":"450902","name":"玉州区"},{"area_code":"玉林市","code":"450902","name":"玉州区"},{"area_code":"玉林市","code":"450902","name":"玉州区"},{"area_code":"玉林市","code":"450902","name":"玉州区"},{"area_code":"玉林市","code":"450981","name":"北流市"},{"area_code":"玉林市","code":"450981","name":"北流市"},{"area_code":"玉林市","code":"450981","name":"北流市"},{"area_code":"玉林市","code":"450981","name":"北流市"},{"area_code":"玉林市","code":"450981","name":"北流市"},{"area_code":"玉林市","code":"450981","name":"北流市"},{"area_code":"玉林市","code":"450981","name":"北流市"},{"area_code":"玉林市","code":"450981","name":"北流市"},{"area_code":"玉林市","code":"450981","name":"北流市"},{"area_code":"玉林市","code":"450981","name":"北流市"},{"area_code":"玉林市","code":"450981","name":"北流市"},{"area_code":"玉林市","code":"450981","name":"北流市"},{"area_code":"玉林市","code":"450981","name":"北流市"},{"area_code":"玉林市","code":"450981","name":"北流市"},{"area_code":"玉林市","code":"450981","name":"北流市"},{"area_code":"玉林市","code":"450981","name":"北流市"},{"area_code":"玉林市","code":"450921","name":"容县"},{"area_code":"玉林市","code":"450921","name":"容县"},{"area_code":"玉林市","code":"450921","name":"容县"},{"area_code":"玉林市","code":"450921","name":"容县"},{"area_code":"玉林市","code":"450921","name":"容县"},{"area_code":"玉林市","code":"450921","name":"容县"},{"area_code":"玉林市","code":"450923","name":"博白县"},{"area_code":"玉林市","code":"450923","name":"博白县"},{"area_code":"玉林市","code":"450923","name":"博白县"},{"area_code":"玉林市","code":"450923","name":"博白县"},{"area_code":"玉林市","code":"450923","name":"博白县"},{"area_code":"玉林市","code":"450923","name":"博白县"},{"area_code":"玉林市","code":"450923","name":"博白县"},{"area_code":"玉林市","code":"450923","name":"博白县"},{"area_code":"玉林市","code":"450923","name":"博白县"},{"area_code":"玉林市","code":"450923","name":"博白县"},{"area_code":"玉林市","code":"450923","name":"博白县"},{"area_code":"玉林市","code":"450923","name":"博白县"},{"area_code":"玉林市","code":"450923","name":"博白县"},{"area_code":"玉林市","code":"450923","name":"博白县"},{"area_code":"玉林市","code":"450923","name":"博白县"},{"area_code":"玉林市","code":"450923","name":"博白县"},{"area_code":"玉林市","code":"450923","name":"博白县"},{"area_code":"玉林市","code":"450922","name":"陆川县"},{"area_code":"玉林市","code":"450922","name":"陆川县"},{"area_code":"玉林市","code":"450922","name":"陆川县"},{"area_code":"玉林市","code":"450922","name":"陆川县"},{"area_code":"玉林市","code":"450922","name":"陆川县"},{"area_code":"玉林市","code":"450922","name":"陆川县"},{"area_code":"玉林市","code":"450922","name":"陆川县"},{"area_code":"玉林市","code":"450922","name":"陆川县"},{"area_code":"玉林市","code":"450922","name":"陆川县"},{"area_code":"玉林市","code":"450924","name":"兴业县"},{"area_code":"玉林市","code":"450924","name":"兴业县"},{"area_code":"玉林市","code":"450924","name":"兴业县"},{"area_code":"玉林市","code":"450924","name":"兴业县"},{"area_code":"玉林市","code":"450924","name":"兴业县"},{"area_code":"玉林市","code":"450924","name":"兴业县"},{"area_code":"贺州市","code":"451101","name":"贺州市"},{"area_code":"贺州市","code":"451101","name":"贺州市"},{"area_code":"贺州市","code":"451101","name":"贺州市"},{"area_code":"贺州市","code":"451101","name":"贺州市"},{"area_code":"贺州市","code":"451122","name":"钟山县"},{"area_code":"贺州市","code":"451122","name":"钟山县"},{"area_code":"贺州市","code":"451123","name":"富川瑶族自治县"},{"area_code":"贺州市","code":"451123","name":"富川瑶族自治县"},{"area_code":"贺州市","code":"451121","name":"昭平县"},{"area_code":"百色市","code":"451002","name":"右江区"},{"area_code":"百色市","code":"451002","name":"右江区"},{"area_code":"百色市","code":"451002","name":"右江区"},{"area_code":"百色市","code":"451002","name":"右江区"},{"area_code":"百色市","code":"451002","name":"右江区"},{"area_code":"百色市","code":"451002","name":"右江区"},{"area_code":"百色市","code":"451021","name":"田阳县"},{"area_code":"百色市","code":"451022","name":"田东县"},{"area_code":"百色市","code":"451022","name":"田东县"},{"area_code":"百色市","code":"451023","name":"平果县"},{"area_code":"百色市","code":"451023","name":"平果县"},{"area_code":"百色市","code":"451023","name":"平果县"},{"area_code":"百色市","code":"451023","name":"平果县"},{"area_code":"百色市","code":"451023","name":"平果县"},{"area_code":"百色市","code":"451024","name":"德保县"},{"area_code":"百色市","code":"451024","name":"德保县"},{"area_code":"百色市","code":"451025","name":"靖西县"},{"area_code":"百色市","code":"451025","name":"靖西县"},{"area_code":"百色市","code":"451025","name":"靖西县"},{"area_code":"百色市","code":"451025","name":"靖西县"},{"area_code":"百色市","code":"451026","name":"那坡县"},{"area_code":"百色市","code":"451027","name":"凌云县"},{"area_code":"百色市","code":"451028","name":"乐业县"},{"area_code":"百色市","code":"451029","name":"田林县"},{"area_code":"百色市","code":"451030","name":"西林县"},{"area_code":"百色市","code":"451031","name":"隆林县"},{"area_code":"河池市","code":"451201","name":"河池市"},{"area_code":"河池市","code":"451201","name":"河池市"},{"area_code":"河池市","code":"451201","name":"河池市"},{"area_code":"河池市","code":"451201","name":"河池市"},{"area_code":"河池市","code":"451281","name":"宜州市"},{"area_code":"河池市","code":"451281","name":"宜州市"},{"area_code":"河池市","code":"451281","name":"宜州市"},{"area_code":"河池市","code":"451281","name":"宜州市"},{"area_code":"河池市","code":"451281","name":"宜州市"},{"area_code":"河池市","code":"451281","name":"宜州市"},{"area_code":"河池市","code":"451223","name":"凤山县"},{"area_code":"河池市","code":"451225","name":"罗城仫佬族自治县"},{"area_code":"河池市","code":"451225","name":"罗城仫佬族自治县"},{"area_code":"河池市","code":"451225","name":"罗城仫佬族自治县"},{"area_code":"河池市","code":"451226","name":"环江毛南族自治县"},{"area_code":"河池市","code":"451226","name":"环江毛南族自治县"},{"area_code":"河池市","code":"451221","name":"南丹县"},{"area_code":"河池市","code":"451224","name":"东兰县"},{"area_code":"河池市","code":"451224","name":"东兰县"},{"area_code":"河池市","code":"451227","name":"巴马瑶族自治县"},{"area_code":"河池市","code":"451222","name":"天峨县"},{"area_code":"河池市","code":"451229","name":"大化县"},{"area_code":"河池市","code":"451229","name":"大化县"},{"area_code":"河池市","code":"451229","name":"大化县"},{"area_code":"河池市","code":"451228","name":"都安县"},{"area_code":"河池市","code":"451228","name":"都安县"},{"area_code":"河池市","code":"451228","name":"都安县"},{"area_code":"来宾市","code":"451301","name":"来宾县"},{"area_code":"来宾市","code":"451301","name":"来宾县"},{"area_code":"来宾市","code":"451322","name":"象州县"},{"area_code":"来宾市","code":"451322","name":"象州县"},{"area_code":"来宾市","code":"451322","name":"象州县"},{"area_code":"来宾市","code":"451324","name":"金秀瑶族自治县"},{"area_code":"来宾市","code":"451324","name":"金秀瑶族自治县"},{"area_code":"来宾市","code":"451323","name":"武宣县"},{"area_code":"来宾市","code":"451323","name":"武宣县"},{"area_code":"来宾市","code":"451323","name":"武宣县"},{"area_code":"来宾市","code":"451323","name":"武宣县"},{"area_code":"来宾市","code":"451323","name":"武宣县"},{"area_code":"来宾市","code":"451323","name":"武宣县"},{"area_code":"来宾市","code":"451321","name":"忻城县"},{"area_code":"来宾市","code":"451321","name":"忻城县"},{"area_code":"来宾市","code":"451381","name":"合山市"},{"area_code":"崇左市","code":"451402","name":"江洲区"},{"area_code":"崇左市","code":"451421","name":"扶绥县"},{"area_code":"崇左市","code":"451421","name":"扶绥县"},{"area_code":"崇左市","code":"451421","name":"扶绥县"},{"area_code":"崇左市","code":"451422","name":"宁明县"},{"area_code":"崇左市","code":"451423","name":"龙州县"},{"area_code":"崇左市","code":"451424","name":"大新县"},{"area_code":"崇左市","code":"451424","name":"大新县"},{"area_code":"崇左市","code":"451425","name":"天等县"},{"area_code":"崇左市","code":"451425","name":"天等县"},{"area_code":"崇左市","code":"451481","name":"凭祥市"}]