[{"area_code":"广州市","code":"440104","name":"越秀区"},{"area_code":"广州市","code":"440104","name":"越秀区"},{"area_code":"广州市","code":"440104","name":"越秀区"},{"area_code":"广州市","code":"440104","name":"越秀区"},{"area_code":"广州市","code":"440104","name":"越秀区"},{"area_code":"广州市","code":"440104","name":"越秀区"},{"area_code":"广州市","code":"440103","name":"荔湾区"},{"area_code":"广州市","code":"440103","name":"荔湾区"},{"area_code":"广州市","code":"440103","name":"荔湾区"},{"area_code":"广州市","code":"440103","name":"荔湾区"},{"area_code":"广州市","code":"440103","name":"荔湾区"},{"area_code":"广州市","code":"440103","name":"荔湾区"},{"area_code":"广州市","code":"440103","name":"荔湾区"},{"area_code":"广州市","code":"440103","name":"荔湾区"},{"area_code":"广州市","code":"440103","name":"荔湾区"},{"area_code":"广州市","code":"440103","name":"荔湾区"},{"area_code":"广州市","code":"440103","name":"荔湾区"},{"area_code":"广州市","code":"440103","name":"荔湾区"},{"area_code":"广州市","code":"440103","name":"荔湾区"},{"area_code":"广州市","code":"440104","name":"越秀区"},{"area_code":"广州市","code":"440104","name":"越秀区"},{"area_code":"广州市","code":"440104","name":"越秀区"},{"area_code":"广州市","code":"440104","name":"越秀区"},{"area_code":"广州市","code":"440104","name":"越秀区"},{"area_code":"广州市","code":"440104","name":"越秀区"},{"area_code":"广州市","code":"440104","name":"越秀区"},{"area_code":"广州市","code":"440104","name":"越秀区"},{"area_code":"广州市","code":"440104","name":"越秀区"},{"area_code":"广州市","code":"440104","name":"越秀区"},{"area_code":"广州市","code":"440104","name":"越秀区"},{"area_code":"广州市","code":"440104","name":"越秀区"},{"area_code":"广州市","code":"440104","name":"越秀区"},{"area_code":"广州市","code":"440104","name":"越秀区"},{"area_code":"广州市","code":"440104","name":"越秀区"},{"area_code":"广州市","code":"440104","name":"越秀区"},{"area_code":"广州市","code":"440104","name":"越秀区"},{"area_code":"广州市","code":"440104","name":"越秀区"},{"area_code":"广州市","code":"440104","name":"越秀区"},{"area_code":"广州市","code":"440104","name":"越秀区"},{"area_code":"广州市","code":"440104","name":"越秀区"},{"area_code":"广州市","code":"440104","name":"越秀区"},{"area_code":"广州市","code":"440104","name":"越秀区"},{"area_code":"广州市","code":"440105","name":"海珠区"},{"area_code":"广州市","code":"440105","name":"海珠区"},{"area_code":"广州市","code":"440105","name":"海珠区"},{"area_code":"广州市","code":"440105","name":"海珠区"},{"area_code":"广州市","code":"440105","name":"海珠区"},{"area_code":"广州市","code":"440105","name":"海珠区"},{"area_code":"广州市","code":"440105","name":"海珠区"},{"area_code":"广州市","code":"440105","name":"海珠区"},{"area_code":"广州市","code":"440105","name":"海珠区"},{"area_code":"广州市","code":"440105","name":"海珠区"},{"area_code":"广州市","code":"440105","name":"海珠区"},{"area_code":"广州市","code":"440105","name":"海珠区"},{"area_code":"广州市","code":"440105","name":"海珠区"},{"area_code":"广州市","code":"440105","name":"海珠区"},{"area_code":"广州市","code":"440105","name":"海珠区"},{"area_code":"广州市","code":"440105","name":"海珠区"},{"area_code":"广州市","code":"440106","name":"天河区"},{"area_code":"广州市","code":"440106","name":"天河区"},{"area_code":"广州市","code":"440106","name":"天河区"},{"area_code":"广州市","code":"440106","name":"天河区"},{"area_code":"广州市","code":"440106","name":"天河区"},{"area_code":"广州市","code":"440106","name":"天河区"},{"area_code":"广州市","code":"440106","name":"天河区"},{"area_code":"广州市","code":"440106","name":"天河区"},{"area_code":"广州市","code":"440106","name":"天河区"},{"area_code":"广州市","code":"440106","name":"天河区"},{"area_code":"广州市","code":"440106","name":"天河区"},{"area_code":"广州市","code":"440106","name":"天河区"},{"area_code":"广州市","code":"440106","name":"天河区"},{"area_code":"广州市","code":"440103","name":"荔湾区"},{"area_code":"广州市","code":"440103","name":"荔湾区"},{"area_code":"广州市","code":"440103","name":"荔湾区"},{"area_code":"广州市","code":"440103","name":"荔湾区"},{"area_code":"广州市","code":"440111","name":"白云区"},{"area_code":"广州市","code":"440111","name":"白云区"},{"area_code":"广州市","code":"440111","name":"白云区"},{"area_code":"广州市","code":"440111","name":"白云区"},{"area_code":"广州市","code":"440111","name":"白云区"},{"area_code":"广州市","code":"440111","name":"白云区"},{"area_code":"广州市","code":"440111","name":"白云区"},{"area_code":"广州市","code":"440111","name":"白云区"},{"area_code":"广州市","code":"440111","name":"白云区"},{"area_code":"广州市","code":"440111","name":"白云区"},{"area_code":"广州市","code":"440111","name":"白云区"},{"area_code":"广州市","code":"440111","name":"白云区"},{"area_code":"广州市","code":"440111","name":"白云区"},{"area_code":"广州市","code":"440111","name":"白云区"},{"area_code":"广州市","code":"440111","name":"白云区"},{"area_code":"广州市","code":"440112","name":"黄埔区"},{"area_code":"广州市","code":"440112","name":"黄埔区"},{"area_code":"广州市","code":"440112","name":"黄埔区"},{"area_code":"广州市","code":"440112","name":"黄埔区"},{"area_code":"广州市","code":"440112","name":"黄埔区"},{"area_code":"广州市","code":"440113","name":"番禺区"},{"area_code":"广州市","code":"440113","name":"番禺区"},{"area_code":"广州市","code":"440113","name":"番禺区"},{"area_code":"广州市","code":"440113","name":"番禺区"},{"area_code":"广州市","code":"440113","name":"番禺区"},{"area_code":"广州市","code":"440113","name":"番禺区"},{"area_code":"广州市","code":"440113","name":"番禺区"},{"area_code":"广州市","code":"440113","name":"番禺区"},{"area_code":"广州市","code":"440113","name":"番禺区"},{"area_code":"广州市","code":"440113","name":"番禺区"},{"area_code":"广州市","code":"440113","name":"番禺区"},{"area_code":"广州市","code":"440113","name":"番禺区"},{"area_code":"广州市","code":"440113","name":"番禺区"},{"area_code":"广州市","code":"440113","name":"番禺区"},{"area_code":"广州市","code":"440113","name":"番禺区"},{"area_code":"广州市","code":"440113","name":"番禺区"},{"area_code":"广州市","code":"440114","name":"花都区"},{"area_code":"广州市","code":"440114","name":"花都区"},{"area_code":"广州市","code":"440114","name":"花都区"},{"area_code":"广州市","code":"440114","name":"花都区"},{"area_code":"广州市","code":"440114","name":"花都区"},{"area_code":"广州市","code":"440114","name":"花都区"},{"area_code":"广州市","code":"440114","name":"花都区"},{"area_code":"广州市","code":"440114","name":"花都区"},{"area_code":"广州市","code":"440114","name":"花都区"},{"area_code":"广州市","code":"440114","name":"花都区"},{"area_code":"广州市","code":"440114","name":"花都区"},{"area_code":"广州市","code":"440115","name":"南沙区"},{"area_code":"广州市","code":"440115","name":"南沙区"},{"area_code":"广州市","code":"440115","name":"南沙区"},{"area_code":"广州市","code":"440116","name":"萝岗区"},{"area_code":"广州市","code":"440116","name":"萝岗区"},{"area_code":"广州市","code":"440116","name":"萝岗区"},{"area_code":"广州市","code":"440116","name":"萝岗区"},{"area_code":"广州市","code":"440116","name":"萝岗区"},{"area_code":"广州市","code":"440116","name":"萝岗区"},{"area_code":"广州市","code":"440183","name":"增城市"},{"area_code":"广州市","code":"440183","name":"增城市"},{"area_code":"广州市","code":"440183","name":"增城市"},{"area_code":"广州市","code":"440183","name":"增城市"},{"area_code":"广州市","code":"440183","name":"增城市"},{"area_code":"广州市","code":"440183","name":"增城市"},{"area_code":"广州市","code":"440183","name":"增城市"},{"area_code":"广州市","code":"440183","name":"增城市"},{"area_code":"广州市","code":"440183","name":"增城市"},{"area_code":"广州市","code":"440183","name":"增城市"},{"area_code":"广州市","code":"440183","name":"增城市"},{"area_code":"广州市","code":"440184","name":"从化市"},{"area_code":"广州市","code":"440184","name":"从化市"},{"area_code":"广州市","code":"440184","name":"从化市"},{"area_code":"广州市","code":"440184","name":"从化市"},{"area_code":"广州市","code":"440184","name":"从化市"},{"area_code":"广州市","code":"440184","name":"从化市"},{"area_code":"广州市","code":"440184","name":"从化市"},{"area_code":"广州市","code":"440184","name":"从化市"},{"area_code":"广州市","code":"441881","name":"英德市"},{"area_code":"广州市","code":"441881","name":"英德市"},{"area_code":"广州市","code":"441881","name":"英德市"},{"area_code":"广州市","code":"441881","name":"英德市"},{"area_code":"广州市","code":"441881","name":"英德市"},{"area_code":"韶关市","code":"","name":"韶关市"},{"area_code":"韶关市","code":"","name":"韶关市"},{"area_code":"韶关市","code":"","name":"韶关市"},{"area_code":"韶关市","code":"","name":"韶关市"},{"area_code":"韶关市","code":"","name":"武江区"},{"area_code":"韶关市","code":"","name":"武江区"},{"area_code":"韶关市","code":"","name":"武江区"},{"area_code":"韶关市","code":"","name":"武江区"},{"area_code":"韶关市","code":"","name":"武江区"},{"area_code":"韶关市","code":"","name":"浈江区"},{"area_code":"韶关市","code":"","name":"浈江区"},{"area_code":"韶关市","code":"","name":"浈江区"},{"area_code":"韶关市","code":"","name":"浈江区"},{"area_code":"韶关市","code":"","name":"曲江县"},{"area_code":"韶关市","code":"","name":"曲江县"},{"area_code":"韶关市","code":"","name":"曲江县"},{"area_code":"韶关市","code":"","name":"曲江县"},{"area_code":"韶关市","code":"","name":"曲江县"},{"area_code":"韶关市","code":"","name":"曲江县"},{"area_code":"韶关市","code":"","name":"曲江县"},{"area_code":"韶关市","code":"","name":"曲江县"},{"area_code":"韶关市","code":"","name":"曲江县"},{"area_code":"韶关市","code":"","name":"曲江县"},{"area_code":"韶关市","code":"","name":"曲江县"},{"area_code":"韶关市","code":"","name":"始兴县"},{"area_code":"韶关市","code":"","name":"始兴县"},{"area_code":"韶关市","code":"","name":"始兴县"},{"area_code":"韶关市","code":"","name":"始兴县"},{"area_code":"韶关市","code":"","name":"始兴县"},{"area_code":"韶关市","code":"","name":"始兴县"},{"area_code":"韶关市","code":"","name":"始兴县"},{"area_code":"韶关市","code":"","name":"始兴县"},{"area_code":"韶关市","code":"","name":"始兴县"},{"area_code":"韶关市","code":"","name":"始兴县"},{"area_code":"韶关市","code":"","name":"翁源县"},{"area_code":"韶关市","code":"","name":"翁源县"},{"area_code":"韶关市","code":"","name":"乳源县"},{"area_code":"韶关市","code":"","name":"乐昌市"},{"area_code":"韶关市","code":"","name":"乐昌市"},{"area_code":"韶关市","code":"","name":"乐昌市"},{"area_code":"韶关市","code":"","name":"乐昌市"},{"area_code":"韶关市","code":"","name":"乐昌市"},{"area_code":"韶关市","code":"","name":"乐昌市"},{"area_code":"韶关市","code":"","name":"乐昌市"},{"area_code":"韶关市","code":"","name":"乐昌市"},{"area_code":"韶关市","code":"","name":"乐昌市"},{"area_code":"韶关市","code":"","name":"乐昌市"},{"area_code":"韶关市","code":"","name":"乐昌市"},{"area_code":"韶关市","code":"","name":"新丰县"},{"area_code":"韶关市","code":"","name":"南雄市"},{"area_code":"韶关市","code":"","name":"南雄市"},{"area_code":"韶关市","code":"","name":"南雄市"},{"area_code":"深圳市","code":"","name":"罗湖区"},{"area_code":"深圳市","code":"","name":"龙岗区"},{"area_code":"深圳市","code":"","name":"盐田区"},{"area_code":"深圳市","code":"","name":"盐田区"},{"area_code":"深圳市","code":"","name":"盐田区"},{"area_code":"深圳市","code":"","name":"盐田区"},{"area_code":"深圳市","code":"","name":"罗湖区"},{"area_code":"深圳市","code":"","name":"罗湖区"},{"area_code":"深圳市","code":"","name":"罗湖区"},{"area_code":"深圳市","code":"","name":"罗湖区"},{"area_code":"深圳市","code":"","name":"罗湖区"},{"area_code":"深圳市","code":"","name":"罗湖区"},{"area_code":"深圳市","code":"","name":"罗湖区"},{"area_code":"深圳市","code":"","name":"罗湖区"},{"area_code":"深圳市","code":"","name":"罗湖区"},{"area_code":"深圳市","code":"","name":"福田区"},{"area_code":"深圳市","code":"","name":"福田区"},{"area_code":"深圳市","code":"","name":"福田区"},{"area_code":"深圳市","code":"","name":"福田区"},{"area_code":"深圳市","code":"","name":"福田区"},{"area_code":"深圳市","code":"","name":"福田区"},{"area_code":"深圳市","code":"","name":"福田区"},{"area_code":"深圳市","code":"","name":"福田区"},{"area_code":"深圳市","code":"","name":"福田区"},{"area_code":"深圳市","code":"","name":"福田区"},{"area_code":"深圳市","code":"","name":"福田区"},{"area_code":"深圳市","code":"","name":"福田区"},{"area_code":"深圳市","code":"","name":"福田区"},{"area_code":"深圳市","code":"","name":"南山区"},{"area_code":"深圳市","code":"","name":"南山区"},{"area_code":"深圳市","code":"","name":"南山区"},{"area_code":"深圳市","code":"","name":"南山区"},{"area_code":"深圳市","code":"","name":"南山区"},{"area_code":"深圳市","code":"","name":"南山区"},{"area_code":"深圳市","code":"","name":"南山区"},{"area_code":"深圳市","code":"","name":"南山区"},{"area_code":"深圳市","code":"","name":"南山区"},{"area_code":"深圳市","code":"","name":"南山区"},{"area_code":"深圳市","code":"","name":"龙岗区"},{"area_code":"深圳市","code":"","name":"龙岗区"},{"area_code":"深圳市","code":"","name":"龙岗区"},{"area_code":"深圳市","code":"","name":"龙岗区"},{"area_code":"深圳市","code":"","name":"龙岗区"},{"area_code":"深圳市","code":"","name":"龙岗区"},{"area_code":"深圳市","code":"","name":"龙岗区"},{"area_code":"深圳市","code":"","name":"龙岗区"},{"area_code":"深圳市","code":"","name":"龙岗区"},{"area_code":"深圳市","code":"","name":"宝安区"},{"area_code":"深圳市","code":"","name":"宝安区"},{"area_code":"深圳市","code":"","name":"宝安区"},{"area_code":"深圳市","code":"","name":"宝安区"},{"area_code":"深圳市","code":"","name":"宝安区"},{"area_code":"深圳市","code":"","name":"宝安区"},{"area_code":"深圳市","code":"","name":"宝安区"},{"area_code":"深圳市","code":"","name":"宝安区"},{"area_code":"深圳市","code":"","name":"宝安区"},{"area_code":"深圳市","code":"","name":"宝安区"},{"area_code":"深圳市","code":"","name":"宝安区"},{"area_code":"深圳市","code":"","name":"宝安区"},{"area_code":"深圳市","code":"","name":"宝安区"},{"area_code":"深圳市","code":"","name":"宝安区"},{"area_code":"深圳市","code":"","name":"宝安区"},{"area_code":"深圳市","code":"","name":"宝安区"},{"area_code":"深圳市","code":"","name":"宝安区"},{"area_code":"深圳市","code":"","name":"宝安区"},{"area_code":"珠海市","code":"","name":"香洲区"},{"area_code":"珠海市","code":"","name":"香洲区"},{"area_code":"珠海市","code":"","name":"香洲区"},{"area_code":"珠海市","code":"","name":"香洲区"},{"area_code":"珠海市","code":"","name":"香洲区"},{"area_code":"珠海市","code":"","name":"香洲区"},{"area_code":"珠海市","code":"","name":"香洲区"},{"area_code":"珠海市","code":"","name":"香洲区"},{"area_code":"珠海市","code":"","name":"香洲区"},{"area_code":"珠海市","code":"","name":"香洲区"},{"area_code":"珠海市","code":"","name":"香洲区"},{"area_code":"珠海市","code":"","name":"斗门区"},{"area_code":"珠海市","code":"","name":"斗门区"},{"area_code":"珠海市","code":"","name":"斗门区"},{"area_code":"珠海市","code":"","name":"斗门区"},{"area_code":"珠海市","code":"","name":"斗门区"},{"area_code":"珠海市","code":"","name":"金湾区"},{"area_code":"珠海市","code":"","name":"金湾区"},{"area_code":"佛山市","code":"","name":"禅城区"},{"area_code":"佛山市","code":"","name":"禅城区"},{"area_code":"佛山市","code":"","name":"禅城区"},{"area_code":"佛山市","code":"","name":"禅城区"},{"area_code":"佛山市","code":"","name":"禅城区"},{"area_code":"佛山市","code":"","name":"禅城区"},{"area_code":"佛山市","code":"","name":"禅城区"},{"area_code":"佛山市","code":"","name":"禅城区"},{"area_code":"佛山市","code":"","name":"禅城区"},{"area_code":"佛山市","code":"","name":"禅城区"},{"area_code":"佛山市","code":"","name":"南海区"},{"area_code":"佛山市","code":"","name":"南海区"},{"area_code":"佛山市","code":"","name":"南海区"},{"area_code":"佛山市","code":"","name":"南海区"},{"area_code":"佛山市","code":"","name":"南海区"},{"area_code":"佛山市","code":"","name":"南海区"},{"area_code":"佛山市","code":"","name":"南海区"},{"area_code":"佛山市","code":"","name":"南海区"},{"area_code":"佛山市","code":"","name":"南海区"},{"area_code":"佛山市","code":"","name":"南海区"},{"area_code":"佛山市","code":"","name":"南海区"},{"area_code":"佛山市","code":"","name":"南海区"},{"area_code":"佛山市","code":"","name":"南海区"},{"area_code":"佛山市","code":"","name":"南海区"},{"area_code":"佛山市","code":"","name":"南海区"},{"area_code":"佛山市","code":"","name":"南海区"},{"area_code":"佛山市","code":"","name":"南海区"},{"area_code":"佛山市","code":"","name":"南海区"},{"area_code":"佛山市","code":"","name":"南海区"},{"area_code":"佛山市","code":"","name":"南海区"},{"area_code":"佛山市","code":"","name":"南海区"},{"area_code":"佛山市","code":"","name":"南海区"},{"area_code":"佛山市","code":"","name":"南海区"},{"area_code":"佛山市","code":"","name":"南海区"},{"area_code":"佛山市","code":"","name":"南海区"},{"area_code":"佛山市","code":"","name":"南海区"},{"area_code":"佛山市","code":"","name":"顺德区"},{"area_code":"佛山市","code":"","name":"顺德区"},{"area_code":"佛山市","code":"","name":"顺德区"},{"area_code":"佛山市","code":"","name":"顺德区"},{"area_code":"佛山市","code":"","name":"顺德区"},{"area_code":"佛山市","code":"","name":"顺德区"},{"area_code":"佛山市","code":"","name":"顺德区"},{"area_code":"佛山市","code":"","name":"顺德区"},{"area_code":"佛山市","code":"","name":"顺德区"},{"area_code":"佛山市","code":"","name":"顺德区"},{"area_code":"佛山市","code":"","name":"顺德区"},{"area_code":"佛山市","code":"","name":"顺德区"},{"area_code":"佛山市","code":"","name":"顺德区"},{"area_code":"佛山市","code":"","name":"顺德区"},{"area_code":"佛山市","code":"","name":"顺德区"},{"area_code":"佛山市","code":"","name":"顺德区"},{"area_code":"佛山市","code":"","name":"顺德区"},{"area_code":"佛山市","code":"","name":"高明区"},{"area_code":"佛山市","code":"","name":"高明区"},{"area_code":"佛山市","code":"","name":"高明区"},{"area_code":"佛山市","code":"","name":"高明区"},{"area_code":"佛山市","code":"","name":"高明区"},{"area_code":"佛山市","code":"","name":"三水市"},{"area_code":"佛山市","code":"","name":"三水市"},{"area_code":"佛山市","code":"","name":"三水市"},{"area_code":"佛山市","code":"","name":"三水市"},{"area_code":"江门市","code":"","name":"台山市"},{"area_code":"江门市","code":"","name":"台山市"},{"area_code":"江门市","code":"","name":"台山市"},{"area_code":"江门市","code":"","name":"台山市"},{"area_code":"江门市","code":"","name":"台山市"},{"area_code":"江门市","code":"","name":"台山市"},{"area_code":"江门市","code":"","name":"台山市"},{"area_code":"江门市","code":"","name":"台山市"},{"area_code":"江门市","code":"","name":"台山市"},{"area_code":"江门市","code":"","name":"台山市"},{"area_code":"江门市","code":"","name":"台山市"},{"area_code":"江门市","code":"","name":"台山市"},{"area_code":"江门市","code":"","name":"台山市"},{"area_code":"江门市","code":"","name":"台山市"},{"area_code":"江门市","code":"","name":"台山市"},{"area_code":"江门市","code":"","name":"台山市"},{"area_code":"江门市","code":"","name":"开平市"},{"area_code":"江门市","code":"","name":"开平市"},{"area_code":"江门市","code":"","name":"开平市"},{"area_code":"江门市","code":"","name":"开平市"},{"area_code":"江门市","code":"","name":"开平市"},{"area_code":"江门市","code":"","name":"开平市"},{"area_code":"江门市","code":"","name":"开平市"},{"area_code":"江门市","code":"","name":"开平市"},{"area_code":"江门市","code":"","name":"开平市"},{"area_code":"江门市","code":"","name":"开平市"},{"area_code":"江门市","code":"","name":"开平市"},{"area_code":"江门市","code":"","name":"市辖区"},{"area_code":"江门市","code":"","name":"市辖区"},{"area_code":"江门市","code":"","name":"市辖区"},{"area_code":"江门市","code":"","name":"市辖区"},{"area_code":"江门市","code":"","name":"蓬江区"},{"area_code":"江门市","code":"","name":"蓬江区"},{"area_code":"江门市","code":"","name":"蓬江区"},{"area_code":"江门市","code":"","name":"江海区"},{"area_code":"江门市","code":"","name":"江海区"},{"area_code":"江门市","code":"","name":"江海区"},{"area_code":"江门市","code":"","name":"江海区"},{"area_code":"江门市","code":"","name":"江海区"},{"area_code":"江门市","code":"","name":"新会区"},{"area_code":"江门市","code":"","name":"新会区"},{"area_code":"江门市","code":"","name":"新会区"},{"area_code":"江门市","code":"","name":"新会区"},{"area_code":"江门市","code":"","name":"新会区"},{"area_code":"江门市","code":"","name":"新会区"},{"area_code":"江门市","code":"","name":"新会区"},{"area_code":"江门市","code":"","name":"新会区"},{"area_code":"江门市","code":"","name":"新会区"},{"area_code":"江门市","code":"","name":"新会区"},{"area_code":"江门市","code":"","name":"新会区"},{"area_code":"江门市","code":"","name":"鹤山市"},{"area_code":"江门市","code":"","name":"鹤山市"},{"area_code":"江门市","code":"","name":"鹤山市"},{"area_code":"江门市","code":"","name":"鹤山市"},{"area_code":"江门市","code":"","name":"鹤山市"},{"area_code":"江门市","code":"","name":"鹤山市"},{"area_code":"江门市","code":"","name":"鹤山市"},{"area_code":"江门市","code":"","name":"鹤山市"},{"area_code":"江门市","code":"","name":"恩平市"},{"area_code":"江门市","code":"","name":"恩平市"},{"area_code":"江门市","code":"","name":"恩平市"},{"area_code":"江门市","code":"","name":"恩平市"},{"area_code":"江门市","code":"","name":"恩平市"},{"area_code":"江门市","code":"","name":"恩平市"},{"area_code":"江门市","code":"","name":"恩平市"},{"area_code":"江门市","code":"","name":"恩平市"},{"area_code":"江门市","code":"","name":"恩平市"},{"area_code":"茂名市","code":"","name":"茂名市"},{"area_code":"茂名市","code":"","name":"茂名市"},{"area_code":"茂名市","code":"","name":"茂名市"},{"area_code":"茂名市","code":"","name":"茂名市"},{"area_code":"茂名市","code":"","name":"茂名市"},{"area_code":"茂名市","code":"","name":"茂名市"},{"area_code":"茂名市","code":"","name":"茂名市"},{"area_code":"茂名市","code":"","name":"茂名市"},{"area_code":"茂名市","code":"","name":"茂名市"},{"area_code":"茂名市","code":"","name":"茂名市"},{"area_code":"茂名市","code":"","name":"茂名市"},{"area_code":"茂名市","code":"","name":"茂名市"},{"area_code":"茂名市","code":"","name":"茂名市"},{"area_code":"茂名市","code":"","name":"茂南区"},{"area_code":"茂名市","code":"","name":"茂南区"},{"area_code":"茂名市","code":"","name":"茂南区"},{"area_code":"茂名市","code":"","name":"茂南区"},{"area_code":"茂名市","code":"","name":"茂南区"},{"area_code":"茂名市","code":"","name":"茂南区"},{"area_code":"茂名市","code":"","name":"茂南区"},{"area_code":"茂名市","code":"","name":"茂南区"},{"area_code":"茂名市","code":"","name":"茂南区"},{"area_code":"茂名市","code":"","name":"茂南区"},{"area_code":"茂名市","code":"","name":"茂南区"},{"area_code":"茂名市","code":"","name":"茂南区"},{"area_code":"茂名市","code":"","name":"茂南区"},{"area_code":"茂名市","code":"","name":"茂港区"},{"area_code":"茂名市","code":"","name":"茂港区"},{"area_code":"茂名市","code":"","name":"茂港区"},{"area_code":"茂名市","code":"","name":"茂港区"},{"area_code":"茂名市","code":"","name":"茂港区"},{"area_code":"茂名市","code":"","name":"电白县"},{"area_code":"茂名市","code":"","name":"电白县"},{"area_code":"茂名市","code":"","name":"电白县"},{"area_code":"茂名市","code":"","name":"电白县"},{"area_code":"茂名市","code":"","name":"电白县"},{"area_code":"茂名市","code":"","name":"电白县"},{"area_code":"茂名市","code":"","name":"电白县"},{"area_code":"茂名市","code":"","name":"电白县"},{"area_code":"茂名市","code":"","name":"电白县"},{"area_code":"茂名市","code":"","name":"电白县"},{"area_code":"茂名市","code":"","name":"电白县"},{"area_code":"茂名市","code":"","name":"电白县"},{"area_code":"茂名市","code":"","name":"电白县"},{"area_code":"茂名市","code":"","name":"电白县"},{"area_code":"茂名市","code":"","name":"电白县"},{"area_code":"茂名市","code":"","name":"电白县"},{"area_code":"茂名市","code":"","name":"电白县"},{"area_code":"茂名市","code":"","name":"电白县"},{"area_code":"茂名市","code":"","name":"电白县"},{"area_code":"茂名市","code":"","name":"电白县"},{"area_code":"茂名市","code":"","name":"电白县"},{"area_code":"茂名市","code":"","name":"电白县"},{"area_code":"茂名市","code":"","name":"电白县"},{"area_code":"茂名市","code":"","name":"高州市"},{"area_code":"茂名市","code":"","name":"高州市"},{"area_code":"茂名市","code":"","name":"高州市"},{"area_code":"茂名市","code":"","name":"高州市"},{"area_code":"茂名市","code":"","name":"高州市"},{"area_code":"茂名市","code":"","name":"高州市"},{"area_code":"茂名市","code":"","name":"高州市"},{"area_code":"茂名市","code":"","name":"高州市"},{"area_code":"茂名市","code":"","name":"高州市"},{"area_code":"茂名市","code":"","name":"高州市"},{"area_code":"茂名市","code":"","name":"高州市"},{"area_code":"茂名市","code":"","name":"高州市"},{"area_code":"茂名市","code":"","name":"高州市"},{"area_code":"茂名市","code":"","name":"高州市"},{"area_code":"茂名市","code":"","name":"高州市"},{"area_code":"茂名市","code":"","name":"高州市"},{"area_code":"茂名市","code":"","name":"高州市"},{"area_code":"茂名市","code":"","name":"高州市"},{"area_code":"茂名市","code":"","name":"高州市"},{"area_code":"茂名市","code":"","name":"高州市"},{"area_code":"茂名市","code":"","name":"高州市"},{"area_code":"茂名市","code":"","name":"高州市"},{"area_code":"茂名市","code":"","name":"高州市"},{"area_code":"茂名市","code":"","name":"高州市"},{"area_code":"茂名市","code":"","name":"高州市"},{"area_code":"茂名市","code":"","name":"高州市"},{"area_code":"茂名市","code":"","name":"高州市"},{"area_code":"茂名市","code":"","name":"高州市"},{"area_code":"茂名市","code":"","name":"高州市"},{"area_code":"茂名市","code":"","name":"高州市"},{"area_code":"茂名市","code":"","name":"高州市"},{"area_code":"茂名市","code":"","name":"高州市"},{"area_code":"茂名市","code":"","name":"高州市"},{"area_code":"茂名市","code":"","name":"高州市"},{"area_code":"茂名市","code":"","name":"高州市"},{"area_code":"茂名市","code":"","name":"化州市"},{"area_code":"茂名市","code":"","name":"化州市"},{"area_code":"茂名市","code":"","name":"化州市"},{"area_code":"茂名市","code":"","name":"化州市"},{"area_code":"茂名市","code":"","name":"化州市"},{"area_code":"茂名市","code":"","name":"化州市"},{"area_code":"茂名市","code":"","name":"化州市"},{"area_code":"茂名市","code":"","name":"化州市"},{"area_code":"茂名市","code":"","name":"化州市"},{"area_code":"茂名市","code":"","name":"化州市"},{"area_code":"茂名市","code":"","name":"化州市"},{"area_code":"茂名市","code":"","name":"化州市"},{"area_code":"茂名市","code":"","name":"化州市"},{"area_code":"茂名市","code":"","name":"化州市"},{"area_code":"茂名市","code":"","name":"化州市"},{"area_code":"茂名市","code":"","name":"化州市"},{"area_code":"茂名市","code":"","name":"化州市"},{"area_code":"茂名市","code":"","name":"化州市"},{"area_code":"茂名市","code":"","name":"信宜市"},{"area_code":"茂名市","code":"","name":"信宜市"},{"area_code":"茂名市","code":"","name":"信宜市"},{"area_code":"茂名市","code":"","name":"信宜市"},{"area_code":"茂名市","code":"","name":"信宜市"},{"area_code":"茂名市","code":"","name":"信宜市"},{"area_code":"茂名市","code":"","name":"信宜市"},{"area_code":"茂名市","code":"","name":"信宜市"},{"area_code":"茂名市","code":"","name":"信宜市"},{"area_code":"茂名市","code":"","name":"信宜市"},{"area_code":"茂名市","code":"","name":"信宜市"},{"area_code":"茂名市","code":"","name":"信宜市"},{"area_code":"茂名市","code":"","name":"信宜市"},{"area_code":"茂名市","code":"","name":"信宜市"},{"area_code":"茂名市","code":"","name":"信宜市"},{"area_code":"茂名市","code":"","name":"信宜市"},{"area_code":"茂名市","code":"","name":"信宜市"},{"area_code":"茂名市","code":"","name":"信宜市"},{"area_code":"茂名市","code":"","name":"信宜市"},{"area_code":"茂名市","code":"","name":"信宜市"},{"area_code":"茂名市","code":"","name":"信宜市"},{"area_code":"茂名市","code":"","name":"信宜市"},{"area_code":"茂名市","code":"","name":"信宜市"},{"area_code":"茂名市","code":"","name":"信宜市"},{"area_code":"惠州市","code":"","name":"惠城区"},{"area_code":"惠州市","code":"","name":"惠城区"},{"area_code":"惠州市","code":"","name":"惠城区"},{"area_code":"惠州市","code":"","name":"惠城区"},{"area_code":"惠州市","code":"","name":"惠城区"},{"area_code":"惠州市","code":"","name":"惠城区"},{"area_code":"惠州市","code":"","name":"惠城区"},{"area_code":"惠州市","code":"","name":"惠城区"},{"area_code":"惠州市","code":"","name":"惠城区"},{"area_code":"惠州市","code":"","name":"惠城区"},{"area_code":"惠州市","code":"","name":"惠城区"},{"area_code":"惠州市","code":"","name":"惠城区"},{"area_code":"惠州市","code":"","name":"惠城区"},{"area_code":"惠州市","code":"","name":"惠城区"},{"area_code":"惠州市","code":"","name":"惠城区"},{"area_code":"惠州市","code":"","name":"惠城区"},{"area_code":"惠州市","code":"","name":"惠城区"},{"area_code":"惠州市","code":"","name":"惠城区"},{"area_code":"惠州市","code":"","name":"惠城区"},{"area_code":"惠州市","code":"","name":"惠城区"},{"area_code":"惠州市","code":"","name":"惠城区"},{"area_code":"惠州市","code":"","name":"惠城区"},{"area_code":"惠州市","code":"","name":"惠城区"},{"area_code":"惠州市","code":"","name":"惠阳区"},{"area_code":"惠州市","code":"","name":"惠阳区"},{"area_code":"惠州市","code":"","name":"惠阳区"},{"area_code":"惠州市","code":"","name":"惠阳区"},{"area_code":"惠州市","code":"","name":"惠阳区"},{"area_code":"惠州市","code":"","name":"惠阳区"},{"area_code":"惠州市","code":"","name":"惠阳区"},{"area_code":"惠州市","code":"","name":"惠阳区"},{"area_code":"惠州市","code":"","name":"博罗县"},{"area_code":"惠州市","code":"","name":"博罗县"},{"area_code":"惠州市","code":"","name":"博罗县"},{"area_code":"惠州市","code":"","name":"博罗县"},{"area_code":"惠州市","code":"","name":"博罗县"},{"area_code":"惠州市","code":"","name":"博罗县"},{"area_code":"惠州市","code":"","name":"博罗县"},{"area_code":"惠州市","code":"","name":"博罗县"},{"area_code":"惠州市","code":"","name":"博罗县"},{"area_code":"惠州市","code":"","name":"博罗县"},{"area_code":"惠州市","code":"","name":"博罗县"},{"area_code":"惠州市","code":"","name":"博罗县"},{"area_code":"惠州市","code":"","name":"惠东县"},{"area_code":"惠州市","code":"","name":"惠东县"},{"area_code":"惠州市","code":"","name":"惠东县"},{"area_code":"惠州市","code":"","name":"惠东县"},{"area_code":"惠州市","code":"","name":"惠东县"},{"area_code":"惠州市","code":"","name":"惠东县"},{"area_code":"惠州市","code":"","name":"惠东县"},{"area_code":"惠州市","code":"","name":"惠东县"},{"area_code":"惠州市","code":"","name":"惠东县"},{"area_code":"惠州市","code":"","name":"惠东县"},{"area_code":"惠州市","code":"","name":"惠东县"},{"area_code":"惠州市","code":"","name":"龙门县"},{"area_code":"惠州市","code":"","name":"龙门县"},{"area_code":"惠州市","code":"","name":"龙门县"},{"area_code":"惠州市","code":"","name":"龙门县"},{"area_code":"惠州市","code":"","name":"龙门县"},{"area_code":"惠州市","code":"","name":"龙门县"},{"area_code":"梅州市","code":"","name":"梅江区"},{"area_code":"梅州市","code":"","name":"梅江区"},{"area_code":"梅州市","code":"","name":"梅江区"},{"area_code":"梅州市","code":"","name":"梅江区"},{"area_code":"梅州市","code":"","name":"梅江区"},{"area_code":"梅州市","code":"","name":"梅江区"},{"area_code":"梅州市","code":"","name":"梅江区"},{"area_code":"梅州市","code":"","name":"梅江区"},{"area_code":"梅州市","code":"","name":"梅江区"},{"area_code":"梅州市","code":"","name":"梅江区"},{"area_code":"梅州市","code":"","name":"梅江区"},{"area_code":"梅州市","code":"","name":"梅江区"},{"area_code":"梅州市","code":"","name":"梅江区"},{"area_code":"梅州市","code":"","name":"梅江区"},{"area_code":"梅州市","code":"","name":"梅江区"},{"area_code":"梅州市","code":"","name":"梅江区"},{"area_code":"梅州市","code":"","name":"梅江区"},{"area_code":"梅州市","code":"","name":"梅县"},{"area_code":"梅州市","code":"","name":"梅县"},{"area_code":"梅州市","code":"","name":"梅县"},{"area_code":"梅州市","code":"","name":"梅县"},{"area_code":"梅州市","code":"","name":"梅县"},{"area_code":"梅州市","code":"","name":"梅县"},{"area_code":"梅州市","code":"","name":"梅县"},{"area_code":"梅州市","code":"","name":"梅县"},{"area_code":"梅州市","code":"","name":"梅县"},{"area_code":"梅州市","code":"","name":"梅县"},{"area_code":"梅州市","code":"","name":"梅县"},{"area_code":"梅州市","code":"","name":"梅县"},{"area_code":"梅州市","code":"","name":"梅县"},{"area_code":"梅州市","code":"","name":"梅县"},{"area_code":"梅州市","code":"","name":"梅县"},{"area_code":"梅州市","code":"","name":"梅县"},{"area_code":"梅州市","code":"","name":"梅县"},{"area_code":"梅州市","code":"","name":"大埔县"},{"area_code":"梅州市","code":"","name":"大埔县"},{"area_code":"梅州市","code":"","name":"大埔县"},{"area_code":"梅州市","code":"","name":"大埔县"},{"area_code":"梅州市","code":"","name":"大埔县"},{"area_code":"梅州市","code":"","name":"大埔县"},{"area_code":"梅州市","code":"","name":"大埔县"},{"area_code":"梅州市","code":"","name":"大埔县"},{"area_code":"梅州市","code":"","name":"大埔县"},{"area_code":"梅州市","code":"","name":"丰顺县"},{"area_code":"梅州市","code":"","name":"丰顺县"},{"area_code":"梅州市","code":"","name":"丰顺县"},{"area_code":"梅州市","code":"","name":"丰顺县"},{"area_code":"梅州市","code":"","name":"丰顺县"},{"area_code":"梅州市","code":"","name":"丰顺县"},{"area_code":"梅州市","code":"","name":"丰顺县"},{"area_code":"梅州市","code":"","name":"丰顺县"},{"area_code":"梅州市","code":"","name":"丰顺县"},{"area_code":"梅州市","code":"","name":"丰顺县"},{"area_code":"梅州市","code":"","name":"丰顺县"},{"area_code":"梅州市","code":"","name":"丰顺县"},{"area_code":"梅州市","code":"","name":"丰顺县"},{"area_code":"梅州市","code":"","name":"丰顺县"},{"area_code":"梅州市","code":"","name":"丰顺县"},{"area_code":"梅州市","code":"","name":"丰顺县"},{"area_code":"梅州市","code":"","name":"丰顺县"},{"area_code":"梅州市","code":"","name":"五华县"},{"area_code":"梅州市","code":"","name":"五华县"},{"area_code":"梅州市","code":"","name":"五华县"},{"area_code":"梅州市","code":"","name":"五华县"},{"area_code":"梅州市","code":"","name":"五华县"},{"area_code":"梅州市","code":"","name":"五华县"},{"area_code":"梅州市","code":"","name":"五华县"},{"area_code":"梅州市","code":"","name":"五华县"},{"area_code":"梅州市","code":"","name":"五华县"},{"area_code":"梅州市","code":"","name":"五华县"},{"area_code":"梅州市","code":"","name":"兴宁市"},{"area_code":"梅州市","code":"","name":"兴宁市"},{"area_code":"梅州市","code":"","name":"兴宁市"},{"area_code":"梅州市","code":"","name":"兴宁市"},{"area_code":"梅州市","code":"","name":"兴宁市"},{"area_code":"梅州市","code":"","name":"兴宁市"},{"area_code":"梅州市","code":"","name":"兴宁市"},{"area_code":"梅州市","code":"","name":"兴宁市"},{"area_code":"梅州市","code":"","name":"兴宁市"},{"area_code":"梅州市","code":"","name":"兴宁市"},{"area_code":"梅州市","code":"","name":"兴宁市"},{"area_code":"梅州市","code":"","name":"兴宁市"},{"area_code":"梅州市","code":"","name":"兴宁市"},{"area_code":"梅州市","code":"","name":"兴宁市"},{"area_code":"梅州市","code":"","name":"蕉岭县"},{"area_code":"梅州市","code":"","name":"蕉岭县"},{"area_code":"梅州市","code":"","name":"平远县"},{"area_code":"梅州市","code":"","name":"平远县"},{"area_code":"汕尾市","code":"","name":"城区"},{"area_code":"汕尾市","code":"","name":"城区"},{"area_code":"汕尾市","code":"","name":"城区"},{"area_code":"汕尾市","code":"","name":"城区"},{"area_code":"汕尾市","code":"","name":"城区"},{"area_code":"汕尾市","code":"","name":"城区"},{"area_code":"汕尾市","code":"","name":"城区"},{"area_code":"汕尾市","code":"","name":"城区"},{"area_code":"汕尾市","code":"","name":"城区"},{"area_code":"汕尾市","code":"","name":"城区"},{"area_code":"汕尾市","code":"","name":"城区"},{"area_code":"汕尾市","code":"","name":"海丰县"},{"area_code":"汕尾市","code":"","name":"海丰县"},{"area_code":"汕尾市","code":"","name":"海丰县"},{"area_code":"汕尾市","code":"","name":"海丰县"},{"area_code":"汕尾市","code":"","name":"海丰县"},{"area_code":"汕尾市","code":"","name":"海丰县"},{"area_code":"汕尾市","code":"","name":"海丰县"},{"area_code":"汕尾市","code":"","name":"海丰县"},{"area_code":"汕尾市","code":"","name":"海丰县"},{"area_code":"汕尾市","code":"","name":"海丰县"},{"area_code":"汕尾市","code":"","name":"海丰县"},{"area_code":"汕尾市","code":"","name":"海丰县"},{"area_code":"汕尾市","code":"","name":"海丰县"},{"area_code":"汕尾市","code":"","name":"海丰县"},{"area_code":"汕尾市","code":"","name":"海丰县"},{"area_code":"汕尾市","code":"","name":"陆河县"},{"area_code":"汕尾市","code":"","name":"陆河县"},{"area_code":"汕尾市","code":"","name":"陆河县"},{"area_code":"汕尾市","code":"","name":"陆河县"},{"area_code":"汕尾市","code":"","name":"陆丰市"},{"area_code":"汕尾市","code":"","name":"陆丰市"},{"area_code":"汕尾市","code":"","name":"陆丰市"},{"area_code":"汕尾市","code":"","name":"陆丰市"},{"area_code":"汕尾市","code":"","name":"陆丰市"},{"area_code":"汕尾市","code":"","name":"陆丰市"},{"area_code":"汕尾市","code":"","name":"陆丰市"},{"area_code":"汕尾市","code":"","name":"陆丰市"},{"area_code":"汕尾市","code":"","name":"陆丰市"},{"area_code":"汕尾市","code":"","name":"陆丰市"},{"area_code":"汕尾市","code":"","name":"陆丰市"},{"area_code":"汕尾市","code":"","name":"陆丰市"},{"area_code":"汕尾市","code":"","name":"陆丰市"},{"area_code":"汕尾市","code":"","name":"陆丰市"},{"area_code":"汕尾市","code":"","name":"陆丰市"},{"area_code":"汕尾市","code":"","name":"陆丰市"},{"area_code":"汕尾市","code":"","name":"陆丰市"},{"area_code":"汕尾市","code":"","name":"陆丰市"},{"area_code":"汕尾市","code":"","name":"陆丰市"},{"area_code":"汕尾市","code":"","name":"陆丰市"},{"area_code":"汕尾市","code":"","name":"陆丰市"},{"area_code":"汕尾市","code":"","name":"陆丰市"},{"area_code":"河源市","code":"","name":"源城区"},{"area_code":"河源市","code":"","name":"源城区"},{"area_code":"河源市","code":"","name":"源城区"},{"area_code":"河源市","code":"","name":"源城区"},{"area_code":"河源市","code":"","name":"源城区"},{"area_code":"河源市","code":"","name":"源城区"},{"area_code":"河源市","code":"","name":"紫金县"},{"area_code":"河源市","code":"","name":"紫金县"},{"area_code":"河源市","code":"","name":"紫金县"},{"area_code":"河源市","code":"","name":"紫金县"},{"area_code":"河源市","code":"","name":"紫金县"},{"area_code":"河源市","code":"","name":"紫金县"},{"area_code":"河源市","code":"","name":"紫金县"},{"area_code":"河源市","code":"","name":"紫金县"},{"area_code":"河源市","code":"","name":"紫金县"},{"area_code":"河源市","code":"","name":"紫金县"},{"area_code":"河源市","code":"","name":"紫金县"},{"area_code":"河源市","code":"","name":"紫金县"},{"area_code":"河源市","code":"","name":"紫金县"},{"area_code":"河源市","code":"","name":"紫金县"},{"area_code":"河源市","code":"","name":"紫金县"},{"area_code":"河源市","code":"","name":"紫金县"},{"area_code":"河源市","code":"","name":"龙川县"},{"area_code":"河源市","code":"","name":"龙川县"},{"area_code":"河源市","code":"","name":"龙川县"},{"area_code":"河源市","code":"","name":"龙川县"},{"area_code":"河源市","code":"","name":"龙川县"},{"area_code":"河源市","code":"","name":"龙川县"},{"area_code":"河源市","code":"","name":"龙川县"},{"area_code":"河源市","code":"","name":"龙川县"},{"area_code":"河源市","code":"","name":"龙川县"},{"area_code":"河源市","code":"","name":"龙川县"},{"area_code":"河源市","code":"","name":"龙川县"},{"area_code":"河源市","code":"","name":"龙川县"},{"area_code":"河源市","code":"","name":"龙川县"},{"area_code":"河源市","code":"","name":"龙川县"},{"area_code":"河源市","code":"","name":"龙川县"},{"area_code":"河源市","code":"","name":"龙川县"},{"area_code":"河源市","code":"","name":"龙川县"},{"area_code":"河源市","code":"","name":"龙川县"},{"area_code":"河源市","code":"","name":"龙川县"},{"area_code":"河源市","code":"","name":"龙川县"},{"area_code":"河源市","code":"","name":"龙川县"},{"area_code":"河源市","code":"","name":"连平县"},{"area_code":"河源市","code":"","name":"连平县"},{"area_code":"河源市","code":"","name":"连平县"},{"area_code":"河源市","code":"","name":"连平县"},{"area_code":"河源市","code":"","name":"连平县"},{"area_code":"河源市","code":"","name":"连平县"},{"area_code":"河源市","code":"","name":"和平县"},{"area_code":"河源市","code":"","name":"和平县"},{"area_code":"河源市","code":"","name":"和平县"},{"area_code":"河源市","code":"","name":"和平县"},{"area_code":"河源市","code":"","name":"和平县"},{"area_code":"河源市","code":"","name":"和平县"},{"area_code":"河源市","code":"","name":"和平县"},{"area_code":"河源市","code":"","name":"和平县"},{"area_code":"河源市","code":"","name":"和平县"},{"area_code":"河源市","code":"","name":"和平县"},{"area_code":"河源市","code":"","name":"和平县"},{"area_code":"河源市","code":"","name":"和平县"},{"area_code":"河源市","code":"","name":"和平县"},{"area_code":"河源市","code":"","name":"和平县"},{"area_code":"河源市","code":"","name":"和平县"},{"area_code":"河源市","code":"","name":"和平县"},{"area_code":"河源市","code":"","name":"和平县"},{"area_code":"河源市","code":"","name":"和平县"},{"area_code":"河源市","code":"","name":"和平县"},{"area_code":"河源市","code":"","name":"和平县"},{"area_code":"河源市","code":"","name":"东源县"},{"area_code":"河源市","code":"","name":"东源县"},{"area_code":"河源市","code":"","name":"东源县"},{"area_code":"河源市","code":"","name":"东源县"},{"area_code":"河源市","code":"","name":"东源县"},{"area_code":"河源市","code":"","name":"东源县"},{"area_code":"河源市","code":"","name":"东源县"},{"area_code":"河源市","code":"","name":"东源县"},{"area_code":"河源市","code":"","name":"东源县"},{"area_code":"河源市","code":"","name":"东源县"},{"area_code":"河源市","code":"","name":"东源县"},{"area_code":"河源市","code":"","name":"东源县"},{"area_code":"河源市","code":"","name":"东源县"},{"area_code":"阳江市","code":"","name":"市辖区"},{"area_code":"阳江市","code":"","name":"市辖区"},{"area_code":"阳江市","code":"","name":"市辖区"},{"area_code":"阳江市","code":"","name":"市辖区"},{"area_code":"阳江市","code":"","name":"市辖区"},{"area_code":"阳江市","code":"","name":"江城区"},{"area_code":"阳江市","code":"","name":"江城区"},{"area_code":"阳江市","code":"","name":"江城区"},{"area_code":"阳江市","code":"","name":"江城区"},{"area_code":"阳江市","code":"","name":"江城区"},{"area_code":"阳江市","code":"","name":"江城区"},{"area_code":"阳江市","code":"","name":"江城区"},{"area_code":"阳江市","code":"","name":"江城区"},{"area_code":"阳江市","code":"","name":"江城区"},{"area_code":"阳江市","code":"","name":"江城区"},{"area_code":"阳江市","code":"","name":"江城区"},{"area_code":"阳江市","code":"","name":"江城区"},{"area_code":"阳江市","code":"","name":"阳西县"},{"area_code":"阳江市","code":"","name":"阳西县"},{"area_code":"阳江市","code":"","name":"阳西县"},{"area_code":"阳江市","code":"","name":"阳东县"},{"area_code":"阳江市","code":"","name":"阳东县"},{"area_code":"阳江市","code":"","name":"阳东县"},{"area_code":"阳江市","code":"","name":"阳春市"},{"area_code":"阳江市","code":"","name":"阳春市"},{"area_code":"阳江市","code":"","name":"阳春市"},{"area_code":"阳江市","code":"","name":"阳春市"},{"area_code":"阳江市","code":"","name":"阳春市"},{"area_code":"阳江市","code":"","name":"阳春市"},{"area_code":"阳江市","code":"","name":"阳春市"},{"area_code":"阳江市","code":"","name":"阳春市"},{"area_code":"阳江市","code":"","name":"阳春市"},{"area_code":"阳江市","code":"","name":"阳春市"},{"area_code":"阳江市","code":"","name":"阳春市"},{"area_code":"阳江市","code":"","name":"阳春市"},{"area_code":"阳江市","code":"","name":"阳春市"},{"area_code":"清远市","code":"","name":"清城区"},{"area_code":"清远市","code":"","name":"清城区"},{"area_code":"清远市","code":"","name":"清城区"},{"area_code":"清远市","code":"","name":"清城区"},{"area_code":"清远市","code":"","name":"清城区"},{"area_code":"清远市","code":"","name":"清城区"},{"area_code":"清远市","code":"","name":"清城区"},{"area_code":"清远市","code":"","name":"清城区"},{"area_code":"清远市","code":"","name":"清城区"},{"area_code":"清远市","code":"","name":"清城区"},{"area_code":"清远市","code":"","name":"清城区"},{"area_code":"清远市","code":"","name":"清城区"},{"area_code":"清远市","code":"","name":"清城区"},{"area_code":"清远市","code":"","name":"佛冈县"},{"area_code":"清远市","code":"","name":"佛冈县"},{"area_code":"清远市","code":"","name":"佛冈县"},{"area_code":"清远市","code":"","name":"佛冈县"},{"area_code":"清远市","code":"","name":"佛冈县"},{"area_code":"清远市","code":"","name":"佛冈县"},{"area_code":"清远市","code":"","name":"佛冈县"},{"area_code":"清远市","code":"","name":"阳山县"},{"area_code":"清远市","code":"","name":"阳山县"},{"area_code":"清远市","code":"","name":"阳山县"},{"area_code":"清远市","code":"","name":"阳山县"},{"area_code":"清远市","code":"","name":"阳山县"},{"area_code":"清远市","code":"","name":"连山壮族瑶族自治县"},{"area_code":"清远市","code":"","name":"连山壮族瑶族自治县"},{"area_code":"清远市","code":"","name":"连山壮族瑶族自治县"},{"area_code":"清远市","code":"","name":"连山壮族瑶族自治县"},{"area_code":"清远市","code":"","name":"连山壮族瑶族自治县"},{"area_code":"清远市","code":"","name":"连南瑶族自治县"},{"area_code":"清远市","code":"","name":"清新区"},{"area_code":"清远市","code":"","name":"清新区"},{"area_code":"清远市","code":"","name":"清新区"},{"area_code":"清远市","code":"","name":"清新区"},{"area_code":"清远市","code":"","name":"清新区"},{"area_code":"清远市","code":"","name":"清新区"},{"area_code":"清远市","code":"","name":"清新区"},{"area_code":"清远市","code":"","name":"清新区"},{"area_code":"清远市","code":"","name":"清新区"},{"area_code":"清远市","code":"","name":"清新区"},{"area_code":"清远市","code":"","name":"清新区"},{"area_code":"清远市","code":"","name":"清新区"},{"area_code":"清远市","code":"","name":"清新区"},{"area_code":"清远市","code":"","name":"连州市"},{"area_code":"清远市","code":"","name":"连州市"},{"area_code":"清远市","code":"","name":"连州市"},{"area_code":"清远市","code":"","name":"连州市"},{"area_code":"清远市","code":"","name":"连州市"},{"area_code":"清远市","code":"","name":"连州市"},{"area_code":"东莞市","code":"","name":"东莞市"},{"area_code":"东莞市","code":"","name":"东莞市"},{"area_code":"东莞市","code":"","name":"东莞市"},{"area_code":"东莞市","code":"","name":"东莞市"},{"area_code":"东莞市","code":"","name":"东莞市"},{"area_code":"东莞市","code":"","name":"东莞市"},{"area_code":"东莞市","code":"","name":"东莞市"},{"area_code":"东莞市","code":"","name":"东莞市"},{"area_code":"东莞市","code":"","name":"东莞市"},{"area_code":"东莞市","code":"","name":"东莞市"},{"area_code":"东莞市","code":"","name":"东莞市"},{"area_code":"东莞市","code":"","name":"东莞市"},{"area_code":"东莞市","code":"","name":"东莞市"},{"area_code":"东莞市","code":"","name":"东莞市"},{"area_code":"东莞市","code":"","name":"东莞市"},{"area_code":"东莞市","code":"","name":"东莞市"},{"area_code":"东莞市","code":"","name":"东莞市"},{"area_code":"东莞市","code":"","name":"东莞市"},{"area_code":"东莞市","code":"","name":"东莞市"},{"area_code":"东莞市","code":"","name":"东莞市"},{"area_code":"东莞市","code":"","name":"东莞市"},{"area_code":"东莞市","code":"","name":"东莞市"},{"area_code":"东莞市","code":"","name":"东莞市"},{"area_code":"东莞市","code":"","name":"东莞市"},{"area_code":"东莞市","code":"","name":"东莞市"},{"area_code":"东莞市","code":"","name":"东莞市"},{"area_code":"东莞市","code":"","name":"东莞市"},{"area_code":"东莞市","code":"","name":"东莞市"},{"area_code":"东莞市","code":"","name":"东莞市"},{"area_code":"东莞市","code":"","name":"东莞市"},{"area_code":"东莞市","code":"","name":"东莞市"},{"area_code":"东莞市","code":"","name":"东莞市"},{"area_code":"东莞市","code":"","name":"东莞市"},{"area_code":"东莞市","code":"","name":"东莞市"},{"area_code":"东莞市","code":"","name":"东莞市"},{"area_code":"东莞市","code":"","name":"东莞市"},{"area_code":"东莞市","code":"","name":"东莞市"},{"area_code":"东莞市","code":"","name":"东莞市"},{"area_code":"东莞市","code":"","name":"东莞市"},{"area_code":"东莞市","code":"","name":"东莞市"},{"area_code":"东莞市","code":"","name":"东莞市"},{"area_code":"东莞市","code":"","name":"东莞市"},{"area_code":"东莞市","code":"","name":"东莞市"},{"area_code":"东莞市","code":"","name":"东莞市"},{"area_code":"东莞市","code":"","name":"东莞市"},{"area_code":"东莞市","code":"","name":"东莞市"},{"area_code":"东莞市","code":"","name":"东莞市"},{"area_code":"东莞市","code":"","name":"东莞市"},{"area_code":"东莞市","code":"","name":"东莞市"},{"area_code":"东莞市","code":"","name":"东莞市"},{"area_code":"东莞市","code":"","name":"东莞市"},{"area_code":"东莞市","code":"","name":"东莞市"},{"area_code":"东莞市","code":"","name":"东莞市"},{"area_code":"东莞市","code":"","name":"东莞市"},{"area_code":"东莞市","code":"","name":"东莞市"},{"area_code":"东莞市","code":"","name":"东莞市"},{"area_code":"东莞市","code":"","name":"东莞市"},{"area_code":"东莞市","code":"","name":"东莞市"},{"area_code":"东莞市","code":"","name":"东莞市"},{"area_code":"东莞市","code":"","name":"东莞市"},{"area_code":"东莞市","code":"","name":"东莞市"},{"area_code":"东莞市","code":"","name":"东莞市"},{"area_code":"东莞市","code":"","name":"东莞市"},{"area_code":"东莞市","code":"","name":"东莞市"},{"area_code":"东莞市","code":"","name":"东莞市"},{"area_code":"东莞市","code":"","name":"东莞市"},{"area_code":"东莞市","code":"","name":"东莞市"},{"area_code":"中山市","code":"","name":"中山市"},{"area_code":"中山市","code":"","name":"中山市"},{"area_code":"潮州市","code":"","name":"湘桥区"},{"area_code":"潮州市","code":"","name":"湘桥区"},{"area_code":"潮州市","code":"","name":"湘桥区"},{"area_code":"潮州市","code":"","name":"湘桥区"},{"area_code":"潮州市","code":"","name":"湘桥区"},{"area_code":"潮州市","code":"","name":"湘桥区"},{"area_code":"潮州市","code":"","name":"湘桥区"},{"area_code":"潮州市","code":"","name":"湘桥区"},{"area_code":"潮州市","code":"","name":"湘桥区"},{"area_code":"潮州市","code":"","name":"潮安县"},{"area_code":"潮州市","code":"","name":"潮安县"},{"area_code":"潮州市","code":"","name":"潮安县"},{"area_code":"潮州市","code":"","name":"潮安县"},{"area_code":"潮州市","code":"","name":"潮安县"},{"area_code":"潮州市","code":"","name":"潮安县"},{"area_code":"潮州市","code":"","name":"潮安县"},{"area_code":"潮州市","code":"","name":"潮安县"},{"area_code":"潮州市","code":"","name":"潮安县"},{"area_code":"潮州市","code":"","name":"潮安县"},{"area_code":"潮州市","code":"","name":"潮安县"},{"area_code":"潮州市","code":"","name":"潮安县"},{"area_code":"潮州市","code":"","name":"潮安县"},{"area_code":"潮州市","code":"","name":"潮安县"},{"area_code":"潮州市","code":"","name":"潮安县"},{"area_code":"潮州市","code":"","name":"潮安县"},{"area_code":"潮州市","code":"","name":"潮安县"},{"area_code":"潮州市","code":"","name":"潮安县"},{"area_code":"潮州市","code":"","name":"潮安县"},{"area_code":"潮州市","code":"","name":"潮安县"},{"area_code":"潮州市","code":"","name":"潮安县"},{"area_code":"潮州市","code":"","name":"潮安县"},{"area_code":"潮州市","code":"","name":"潮安县"},{"area_code":"潮州市","code":"","name":"潮安县"},{"area_code":"潮州市","code":"","name":"潮安县"},{"area_code":"潮州市","code":"","name":"潮安县"},{"area_code":"潮州市","code":"","name":"潮安县"},{"area_code":"潮州市","code":"","name":"潮安县"},{"area_code":"潮州市","code":"","name":"饶平县"},{"area_code":"潮州市","code":"","name":"饶平县"},{"area_code":"潮州市","code":"","name":"饶平县"},{"area_code":"潮州市","code":"","name":"饶平县"},{"area_code":"潮州市","code":"","name":"饶平县"},{"area_code":"潮州市","code":"","name":"饶平县"},{"area_code":"潮州市","code":"","name":"饶平县"},{"area_code":"潮州市","code":"","name":"饶平县"},{"area_code":"潮州市","code":"","name":"饶平县"},{"area_code":"潮州市","code":"","name":"饶平县"},{"area_code":"潮州市","code":"","name":"饶平县"},{"area_code":"潮州市","code":"","name":"饶平县"},{"area_code":"潮州市","code":"","name":"饶平县"},{"area_code":"潮州市","code":"","name":"饶平县"},{"area_code":"潮州市","code":"","name":"饶平县"},{"area_code":"潮州市","code":"","name":"饶平县"},{"area_code":"揭阳市","code":"","name":"揭阳市"},{"area_code":"揭阳市","code":"","name":"揭阳市"},{"area_code":"揭阳市","code":"","name":"揭阳市"},{"area_code":"揭阳市","code":"","name":"揭阳市"},{"area_code":"揭阳市","code":"","name":"揭阳市"},{"area_code":"揭阳市","code":"","name":"揭阳市"},{"area_code":"揭阳市","code":"","name":"揭阳市"},{"area_code":"揭阳市","code":"","name":"揭阳市"},{"area_code":"揭阳市","code":"","name":"榕城区"},{"area_code":"揭阳市","code":"","name":"榕城区"},{"area_code":"揭阳市","code":"","name":"榕城区"},{"area_code":"揭阳市","code":"","name":"榕城区"},{"area_code":"揭阳市","code":"","name":"榕城区"},{"area_code":"揭阳市","code":"","name":"榕城区"},{"area_code":"揭阳市","code":"","name":"榕城区"},{"area_code":"揭阳市","code":"","name":"榕城区"},{"area_code":"揭阳市","code":"","name":"榕城区"},{"area_code":"揭阳市","code":"","name":"揭东县"},{"area_code":"揭阳市","code":"","name":"揭东县"},{"area_code":"揭阳市","code":"","name":"揭东县"},{"area_code":"揭阳市","code":"","name":"揭东县"},{"area_code":"揭阳市","code":"","name":"揭东县"},{"area_code":"揭阳市","code":"","name":"揭东县"},{"area_code":"揭阳市","code":"","name":"揭东县"},{"area_code":"揭阳市","code":"","name":"揭东县"},{"area_code":"揭阳市","code":"","name":"揭东县"},{"area_code":"揭阳市","code":"","name":"揭东县"},{"area_code":"揭阳市","code":"","name":"揭东县"},{"area_code":"揭阳市","code":"","name":"揭东县"},{"area_code":"揭阳市","code":"","name":"揭东县"},{"area_code":"揭阳市","code":"","name":"揭东县"},{"area_code":"揭阳市","code":"","name":"揭东县"},{"area_code":"揭阳市","code":"","name":"揭西县"},{"area_code":"揭阳市","code":"","name":"揭西县"},{"area_code":"揭阳市","code":"","name":"揭西县"},{"area_code":"揭阳市","code":"","name":"揭西县"},{"area_code":"揭阳市","code":"","name":"揭西县"},{"area_code":"揭阳市","code":"","name":"揭西县"},{"area_code":"揭阳市","code":"","name":"揭西县"},{"area_code":"揭阳市","code":"","name":"揭西县"},{"area_code":"揭阳市","code":"","name":"揭西县"},{"area_code":"揭阳市","code":"","name":"揭西县"},{"area_code":"揭阳市","code":"","name":"揭西县"},{"area_code":"揭阳市","code":"","name":"揭西县"},{"area_code":"揭阳市","code":"","name":"揭西县"},{"area_code":"揭阳市","code":"","name":"揭西县"},{"area_code":"揭阳市","code":"","name":"揭西县"},{"area_code":"揭阳市","code":"","name":"揭西县"},{"area_code":"揭阳市","code":"","name":"揭西县"},{"area_code":"揭阳市","code":"","name":"揭西县"},{"area_code":"揭阳市","code":"","name":"揭西县"},{"area_code":"揭阳市","code":"","name":"揭西县"},{"area_code":"揭阳市","code":"","name":"揭西县"},{"area_code":"揭阳市","code":"","name":"惠来县"},{"area_code":"揭阳市","code":"","name":"惠来县"},{"area_code":"揭阳市","code":"","name":"惠来县"},{"area_code":"揭阳市","code":"","name":"惠来县"},{"area_code":"揭阳市","code":"","name":"惠来县"},{"area_code":"揭阳市","code":"","name":"惠来县"},{"area_code":"揭阳市","code":"","name":"惠来县"},{"area_code":"揭阳市","code":"","name":"惠来县"},{"area_code":"揭阳市","code":"","name":"惠来县"},{"area_code":"揭阳市","code":"","name":"惠来县"},{"area_code":"揭阳市","code":"","name":"惠来县"},{"area_code":"揭阳市","code":"","name":"普宁市"},{"area_code":"揭阳市","code":"","name":"普宁市"},{"area_code":"揭阳市","code":"","name":"普宁市"},{"area_code":"揭阳市","code":"","name":"普宁市"},{"area_code":"揭阳市","code":"","name":"普宁市"},{"area_code":"揭阳市","code":"","name":"普宁市"},{"area_code":"揭阳市","code":"","name":"普宁市"},{"area_code":"揭阳市","code":"","name":"普宁市"},{"area_code":"揭阳市","code":"","name":"普宁市"},{"area_code":"揭阳市","code":"","name":"普宁市"},{"area_code":"揭阳市","code":"","name":"普宁市"},{"area_code":"揭阳市","code":"","name":"普宁市"},{"area_code":"揭阳市","code":"","name":"普宁市"},{"area_code":"揭阳市","code":"","name":"普宁市"},{"area_code":"揭阳市","code":"","name":"普宁市"},{"area_code":"揭阳市","code":"","name":"普宁市"},{"area_code":"揭阳市","code":"","name":"普宁市"},{"area_code":"揭阳市","code":"","name":"普宁市"},{"area_code":"揭阳市","code":"","name":"普宁市"},{"area_code":"揭阳市","code":"","name":"普宁市"},{"area_code":"揭阳市","code":"","name":"普宁市"},{"area_code":"云浮市","code":"","name":"云城区"},{"area_code":"云浮市","code":"","name":"云城区"},{"area_code":"云浮市","code":"","name":"云城区"},{"area_code":"云浮市","code":"","name":"新兴县"},{"area_code":"云浮市","code":"","name":"新兴县"},{"area_code":"云浮市","code":"","name":"新兴县"},{"area_code":"云浮市","code":"","name":"新兴县"},{"area_code":"云浮市","code":"","name":"新兴县"},{"area_code":"云浮市","code":"","name":"新兴县"},{"area_code":"云浮市","code":"","name":"新兴县"},{"area_code":"云浮市","code":"","name":"郁南县"},{"area_code":"云浮市","code":"","name":"郁南县"},{"area_code":"云浮市","code":"","name":"云安县"},{"area_code":"云浮市","code":"","name":"云安县"},{"area_code":"云浮市","code":"","name":"云安县"},{"area_code":"云浮市","code":"","name":"云安县"},{"area_code":"云浮市","code":"","name":"云安县"},{"area_code":"云浮市","code":"","name":"云安县"},{"area_code":"云浮市","code":"","name":"罗定市"},{"area_code":"云浮市","code":"","name":"罗定市"},{"area_code":"云浮市","code":"","name":"罗定市"},{"area_code":"云浮市","code":"","name":"罗定市"},{"area_code":"云浮市","code":"","name":"罗定市"},{"area_code":"云浮市","code":"","name":"罗定市"},{"area_code":"云浮市","code":"","name":"罗定市"},{"area_code":"云浮市","code":"","name":"罗定市"},{"area_code":"云浮市","code":"","name":"罗定市"},{"area_code":"云浮市","code":"","name":"罗定市"},{"area_code":"云浮市","code":"","name":"罗定市"},{"area_code":"云浮市","code":"","name":"罗定市"},{"area_code":"云浮市","code":"","name":"罗定市"},{"area_code":"云浮市","code":"","name":"罗定市"}]