[{"area_code":"贵阳市","code":"520102","name":"南明区"},{"area_code":"贵阳市","code":"520102","name":"南明区"},{"area_code":"贵阳市","code":"520102","name":"南明区"},{"area_code":"贵阳市","code":"520102","name":"南明区"},{"area_code":"贵阳市","code":"520102","name":"南明区"},{"area_code":"贵阳市","code":"520102","name":"南明区"},{"area_code":"贵阳市","code":"520102","name":"南明区"},{"area_code":"贵阳市","code":"520102","name":"南明区"},{"area_code":"贵阳市","code":"520102","name":"南明区"},{"area_code":"贵阳市","code":"520102","name":"南明区"},{"area_code":"贵阳市","code":"520102","name":"南明区"},{"area_code":"贵阳市","code":"520103","name":"云岩区"},{"area_code":"贵阳市","code":"520103","name":"云岩区"},{"area_code":"贵阳市","code":"520103","name":"云岩区"},{"area_code":"贵阳市","code":"520103","name":"云岩区"},{"area_code":"贵阳市","code":"520103","name":"云岩区"},{"area_code":"贵阳市","code":"520103","name":"云岩区"},{"area_code":"贵阳市","code":"520103","name":"云岩区"},{"area_code":"贵阳市","code":"520111","name":"花溪区"},{"area_code":"贵阳市","code":"520111","name":"花溪区"},{"area_code":"贵阳市","code":"520111","name":"花溪区"},{"area_code":"贵阳市","code":"520111","name":"花溪区"},{"area_code":"贵阳市","code":"520111","name":"花溪区"},{"area_code":"贵阳市","code":"520112","name":"乌当区"},{"area_code":"贵阳市","code":"520112","name":"乌当区"},{"area_code":"贵阳市","code":"520113","name":"白云区"},{"area_code":"贵阳市","code":"520113","name":"白云区"},{"area_code":"贵阳市","code":"520113","name":"白云区"},{"area_code":"贵阳市","code":"520114","name":"小河区"},{"area_code":"贵阳市","code":"520114","name":"小河区"},{"area_code":"贵阳市","code":"520114","name":"小河区"},{"area_code":"贵阳市","code":"520114","name":"小河区"},{"area_code":"贵阳市","code":"520121","name":"开阳县"},{"area_code":"贵阳市","code":"520121","name":"开阳县"},{"area_code":"贵阳市","code":"520121","name":"开阳县"},{"area_code":"贵阳市","code":"520121","name":"开阳县"},{"area_code":"贵阳市","code":"520121","name":"开阳县"},{"area_code":"贵阳市","code":"520121","name":"开阳县"},{"area_code":"贵阳市","code":"520121","name":"开阳县"},{"area_code":"贵阳市","code":"520121","name":"开阳县"},{"area_code":"贵阳市","code":"520122","name":"息烽县"},{"area_code":"贵阳市","code":"520122","name":"息烽县"},{"area_code":"贵阳市","code":"520122","name":"息烽县"},{"area_code":"贵阳市","code":"520123","name":"修文县"},{"area_code":"贵阳市","code":"520123","name":"修文县"},{"area_code":"贵阳市","code":"520123","name":"修文县"},{"area_code":"贵阳市","code":"520123","name":"修文县"},{"area_code":"贵阳市","code":"520123","name":"修文县"},{"area_code":"贵阳市","code":"520181","name":"清镇市"},{"area_code":"贵阳市","code":"520181","name":"清镇市"},{"area_code":"贵阳市","code":"520181","name":"清镇市"},{"area_code":"六盘水市","code":"520201","name":"钟山区"},{"area_code":"六盘水市","code":"520201","name":""},{"area_code":"六盘水市","code":"520201","name":""},{"area_code":"六盘水市","code":"520201","name":""},{"area_code":"六盘水市","code":"520201","name":""},{"area_code":"六盘水市","code":"520201","name":""},{"area_code":"六盘水市","code":"520201","name":""},{"area_code":"六盘水市","code":"520201","name":""},{"area_code":"六盘水市","code":"520203","name":"六枝特区"},{"area_code":"六盘水市","code":"520203","name":""},{"area_code":"六盘水市","code":"520203","name":""},{"area_code":"六盘水市","code":"520203","name":""},{"area_code":"六盘水市","code":"520203","name":""},{"area_code":"六盘水市","code":"520221","name":"水城县"},{"area_code":"六盘水市","code":"520221","name":""},{"area_code":"六盘水市","code":"520222","name":"盘县"},{"area_code":"六盘水市","code":"520222","name":""},{"area_code":"六盘水市","code":"520222","name":""},{"area_code":"六盘水市","code":"520222","name":""},{"area_code":"六盘水市","code":"520222","name":""},{"area_code":"六盘水市","code":"520222","name":""},{"area_code":"六盘水市","code":"520222","name":""},{"area_code":"六盘水市","code":"520222","name":""},{"area_code":"六盘水市","code":"520222","name":""},{"area_code":"遵义市","code":"520302","name":"红花岗区"},{"area_code":"","code":"520302","name":""},{"area_code":"","code":"520302","name":""},{"area_code":"","code":"520302","name":""},{"area_code":"","code":"520302","name":""},{"area_code":"","code":"520302","name":""},{"area_code":"","code":"520302","name":""},{"area_code":"","code":"520302","name":""},{"area_code":"","code":"520302","name":""},{"area_code":"","code":"520302","name":""},{"area_code":"","code":"520302","name":""},{"area_code":"","code":"520302","name":""},{"area_code":"","code":"520303","name":"汇川区"},{"area_code":"","code":"520303","name":""},{"area_code":"","code":"520303","name":""},{"area_code":"","code":"520303","name":""},{"area_code":"","code":"520303","name":""},{"area_code":"","code":"520303","name":""},{"area_code":"","code":"520303","name":""},{"area_code":"","code":"520303","name":""},{"area_code":"","code":"520321","name":"遵义县"},{"area_code":"","code":"520321","name":""},{"area_code":"","code":"520321","name":""},{"area_code":"","code":"520321","name":""},{"area_code":"","code":"520321","name":""},{"area_code":"","code":"520321","name":""},{"area_code":"","code":"520321","name":""},{"area_code":"","code":"520321","name":""},{"area_code":"","code":"520321","name":""},{"area_code":"","code":"520322","name":"桐梓县"},{"area_code":"","code":"520322","name":""},{"area_code":"","code":"520322","name":""},{"area_code":"","code":"520322","name":""},{"area_code":"","code":"520322","name":""},{"area_code":"","code":"520322","name":""},{"area_code":"","code":"520323","name":"绥阳县"},{"area_code":"","code":"520323","name":""},{"area_code":"","code":"520323","name":""},{"area_code":"","code":"520324","name":"正安县"},{"area_code":"","code":"520324","name":""},{"area_code":"","code":"520324","name":""},{"area_code":"","code":"520325","name":"道真县"},{"area_code":"","code":"520326","name":"务川县"},{"area_code":"","code":"520326","name":""},{"area_code":"","code":"520327","name":"凤冈县"},{"area_code":"","code":"520327","name":""},{"area_code":"","code":"520328","name":"湄潭县"},{"area_code":"","code":"520328","name":""},{"area_code":"","code":"520328","name":""},{"area_code":"","code":"520329","name":"余庆县"},{"area_code":"","code":"520329","name":""},{"area_code":"","code":"520329","name":""},{"area_code":"","code":"520330","name":"习水县"},{"area_code":"","code":"520330","name":""},{"area_code":"","code":"520330","name":""},{"area_code":"","code":"520330","name":""},{"area_code":"","code":"520330","name":""},{"area_code":"","code":"520330","name":""},{"area_code":"","code":"520381","name":"赤水市"},{"area_code":"","code":"520381","name":""},{"area_code":"","code":"520381","name":""},{"area_code":"","code":"520382","name":"仁怀市"},{"area_code":"","code":"520382","name":""},{"area_code":"","code":"520382","name":""},{"area_code":"","code":"520382","name":""},{"area_code":"","code":"520382","name":""},{"area_code":"","code":"520382","name":""},{"area_code":"","code":"520382","name":""},{"area_code":"安顺市","code":"520402","name":"西秀区"},{"area_code":"","code":"520402","name":""},{"area_code":"","code":"520402","name":""},{"area_code":"","code":"520402","name":""},{"area_code":"","code":"520402","name":""},{"area_code":"","code":"520402","name":""},{"area_code":"","code":"520402","name":""},{"area_code":"","code":"520402","name":""},{"area_code":"","code":"520402","name":""},{"area_code":"","code":"520421","name":"平坝县"},{"area_code":"","code":"520421","name":""},{"area_code":"","code":"520421","name":""},{"area_code":"","code":"520421","name":""},{"area_code":"","code":"520421","name":""},{"area_code":"","code":"520421","name":""},{"area_code":"","code":"520421","name":""},{"area_code":"","code":"520422","name":"普定县"},{"area_code":"","code":"520422","name":""},{"area_code":"","code":"520423","name":"镇宁县"},{"area_code":"","code":"520424","name":"关岭县"},{"area_code":"","code":"520425","name":"紫云县"},{"area_code":"铜仁地区","code":"520600","name":"铜仁市"},{"area_code":"","code":"520600","name":""},{"area_code":"","code":"520600","name":""},{"area_code":"","code":"520600","name":""},{"area_code":"","code":"520600","name":""},{"area_code":"","code":"520621","name":"江口县"},{"area_code":"","code":"520621","name":""},{"area_code":"","code":"520622","name":"玉屏县"},{"area_code":"","code":"520623","name":"石阡县"},{"area_code":"","code":"520623","name":""},{"area_code":"","code":"520624","name":"思南县"},{"area_code":"","code":"520624","name":""},{"area_code":"","code":"520624","name":""},{"area_code":"","code":"520624","name":""},{"area_code":"","code":"520625","name":"印江县"},{"area_code":"","code":"520625","name":""},{"area_code":"","code":"520626","name":"德江县"},{"area_code":"","code":"520626","name":""},{"area_code":"","code":"520626","name":""},{"area_code":"","code":"520626","name":""},{"area_code":"","code":"520626","name":""},{"area_code":"","code":"520627","name":"沿河县"},{"area_code":"","code":"520627","name":""},{"area_code":"","code":"520627","name":""},{"area_code":"","code":"520628","name":"松桃县"},{"area_code":"","code":"520628","name":""},{"area_code":"","code":"520628","name":""},{"area_code":"","code":"520628","name":""},{"area_code":"","code":"520628","name":""},{"area_code":"","code":"520628","name":""},{"area_code":"","code":"520603","name":"万山特区"},{"area_code":"黔西南布依族苗族自治州","code":"522301","name":"兴义市"},{"area_code":"","code":"522301","name":""},{"area_code":"","code":"522301","name":""},{"area_code":"","code":"522301","name":""},{"area_code":"","code":"522301","name":""},{"area_code":"","code":"522301","name":""},{"area_code":"","code":"522301","name":""},{"area_code":"","code":"522301","name":""},{"area_code":"","code":"522301","name":""},{"area_code":"","code":"522301","name":""},{"area_code":"","code":"522301","name":""},{"area_code":"","code":"522301","name":""},{"area_code":"","code":"522301","name":""},{"area_code":"","code":"522301","name":""},{"area_code":"","code":"522322","name":"兴仁县"},{"area_code":"","code":"522322","name":""},{"area_code":"","code":"522322","name":""},{"area_code":"","code":"522322","name":""},{"area_code":"","code":"522323","name":"普安县"},{"area_code":"","code":"522323","name":""},{"area_code":"","code":"522324","name":"晴隆县"},{"area_code":"","code":"522324","name":""},{"area_code":"","code":"522325","name":"贞丰县"},{"area_code":"","code":"522325","name":""},{"area_code":"","code":"522326","name":"望谟县"},{"area_code":"","code":"522327","name":"册亨县"},{"area_code":"","code":"522328","name":"安龙县"},{"area_code":"","code":"522328","name":""},{"area_code":"","code":"522328","name":""},{"area_code":"","code":"522328","name":""},{"area_code":"毕节地区","code":"520500","name":"毕节市"},{"area_code":"","code":"520500","name":""},{"area_code":"","code":"520500","name":""},{"area_code":"","code":"520500","name":""},{"area_code":"","code":"520500","name":""},{"area_code":"","code":"520500","name":""},{"area_code":"","code":"520500","name":""},{"area_code":"","code":"520500","name":""},{"area_code":"","code":"520500","name":""},{"area_code":"","code":"520500","name":""},{"area_code":"","code":"520500","name":""},{"area_code":"","code":"520500","name":""},{"area_code":"","code":"520521","name":"大方县"},{"area_code":"","code":"520521","name":""},{"area_code":"","code":"520521","name":""},{"area_code":"","code":"520521","name":""},{"area_code":"","code":"520521","name":""},{"area_code":"","code":"520521","name":""},{"area_code":"","code":"520521","name":""},{"area_code":"","code":"520521","name":""},{"area_code":"","code":"520522","name":"黔西县"},{"area_code":"","code":"520522","name":""},{"area_code":"","code":"520522","name":""},{"area_code":"","code":"520522","name":""},{"area_code":"","code":"520522","name":""},{"area_code":"","code":"520522","name":""},{"area_code":"","code":"520522","name":""},{"area_code":"","code":"520522","name":""},{"area_code":"","code":"520522","name":""},{"area_code":"","code":"520522","name":""},{"area_code":"","code":"520523","name":"金沙县"},{"area_code":"","code":"520523","name":""},{"area_code":"","code":"520523","name":""},{"area_code":"","code":"520523","name":""},{"area_code":"","code":"520523","name":""},{"area_code":"","code":"520523","name":""},{"area_code":"","code":"520523","name":""},{"area_code":"","code":"520524","name":"织金县"},{"area_code":"","code":"520524","name":""},{"area_code":"","code":"520524","name":""},{"area_code":"","code":"520524","name":""},{"area_code":"","code":"520524","name":""},{"area_code":"","code":"520524","name":""},{"area_code":"","code":"520524","name":""},{"area_code":"","code":"520525","name":"纳雍县"},{"area_code":"","code":"520525","name":""},{"area_code":"","code":"520525","name":""},{"area_code":"","code":"520525","name":""},{"area_code":"","code":"520525","name":""},{"area_code":"","code":"520526","name":"威宁县"},{"area_code":"","code":"520526","name":""},{"area_code":"","code":"520526","name":""},{"area_code":"","code":"520526","name":""},{"area_code":"","code":"520526","name":""},{"area_code":"","code":"520526","name":""},{"area_code":"","code":"520526","name":""},{"area_code":"","code":"520526","name":""},{"area_code":"","code":"520527","name":"赫章县"},{"area_code":"","code":"520527","name":""},{"area_code":"","code":"520527","name":""},{"area_code":"","code":"520527","name":""},{"area_code":"","code":"520527","name":""},{"area_code":"","code":"520527","name":""},{"area_code":"","code":"520527","name":""},{"area_code":"","code":"520527","name":""},{"area_code":"","code":"520527","name":""},{"area_code":"","code":"520527","name":""},{"area_code":"黔东南苗族侗族自治州","code":"522601","name":"凯里市"},{"area_code":"","code":"522601","name":""},{"area_code":"","code":"522601","name":""},{"area_code":"","code":"522601","name":""},{"area_code":"","code":"522601","name":""},{"area_code":"","code":"522601","name":""},{"area_code":"","code":"522601","name":""},{"area_code":"","code":"522601","name":""},{"area_code":"","code":"522622","name":"黄平县"},{"area_code":"","code":"522622","name":""},{"area_code":"","code":"522623","name":"施秉县"},{"area_code":"","code":"522624","name":"三穗县"},{"area_code":"","code":"522625","name":"镇远县"},{"area_code":"","code":"522625","name":""},{"area_code":"","code":"522626","name":"岑巩县"},{"area_code":"","code":"522626","name":""},{"area_code":"","code":"522627","name":"天柱县"},{"area_code":"","code":"522627","name":""},{"area_code":"","code":"522627","name":""},{"area_code":"","code":"522628","name":"锦屏县"},{"area_code":"","code":"522628","name":""},{"area_code":"","code":"522628","name":""},{"area_code":"","code":"522628","name":""},{"area_code":"","code":"522629","name":"剑河县"},{"area_code":"","code":"522629","name":""},{"area_code":"","code":"522630","name":"台江县"},{"area_code":"","code":"522631","name":"黎平县"},{"area_code":"","code":"522631","name":""},{"area_code":"","code":"522632","name":"榕江县"},{"area_code":"","code":"522632","name":""},{"area_code":"","code":"522633","name":"从江县"},{"area_code":"","code":"522634","name":"雷山县"},{"area_code":"","code":"522635","name":"麻江县"},{"area_code":"","code":"522635","name":""},{"area_code":"","code":"522636","name":"丹寨县"},{"area_code":"黔南布依族苗族自治州","code":"522701","name":"都匀市"},{"area_code":"","code":"522701","name":""},{"area_code":"","code":"522701","name":""},{"area_code":"","code":"522701","name":""},{"area_code":"","code":"522702","name":"福泉市"},{"area_code":"","code":"522702","name":""},{"area_code":"","code":"522702","name":""},{"area_code":"","code":"522702","name":""},{"area_code":"","code":"522722","name":"荔波县"},{"area_code":"","code":"522723","name":"贵定县"},{"area_code":"","code":"522723","name":""},{"area_code":"","code":"522725","name":"瓮安县"},{"area_code":"","code":"522725","name":""},{"area_code":"","code":"522725","name":""},{"area_code":"","code":"522725","name":""},{"area_code":"","code":"522726","name":"独山县"},{"area_code":"","code":"522726","name":""},{"area_code":"","code":"522726","name":""},{"area_code":"","code":"522727","name":"平塘县"},{"area_code":"","code":"522728","name":"罗甸县"},{"area_code":"","code":"522728","name":""},{"area_code":"","code":"522729","name":"长顺县"},{"area_code":"","code":"522730","name":"龙里县"},{"area_code":"","code":"522731","name":"惠水县"},{"area_code":"","code":"522731","name":""},{"area_code":"","code":"522732","name":"三都县"},{"area_code":"德宏傣族景颇族自治州　","code":"533103","name":"芒市"},{"area_code":"德宏傣族景颇族自治州　","code":"533122","name":"梁河县"},{"area_code":"怒江僳族自治州","code":"533325","name":"兰坪县"},{"area_code":"怒江僳族自治州","code":"533321","name":"泸水县"},{"area_code":"迪庆藏族自治州","code":"533423","name":"维西傈僳族自治县"},{"area_code":"河池市","code":"451281","name":"宜州市"},{"area_code":"河池市","code":"451281","name":"宜州市"},{"area_code":"河池市","code":"451281","name":"宜州市"},{"area_code":"河池市","code":"451281","name":"宜州市"},{"area_code":"河池市","code":"451223","name":"凤山县"},{"area_code":"河池市","code":"451225","name":"罗城仫佬族自治县"},{"area_code":"河池市","code":"451225","name":"罗城仫佬族自治县"},{"area_code":"河池市","code":"451225","name":"罗城仫佬族自治县"},{"area_code":"河池市","code":"451226","name":"环江毛南族自治县"},{"area_code":"河池市","code":"451226","name":"环江毛南族自治县"},{"area_code":"河池市","code":"451221","name":"南丹县"},{"area_code":"河池市","code":"451224","name":"东兰县"},{"area_code":"河池市","code":"451224","name":"东兰县"},{"area_code":"河池市","code":"451227","name":"巴马瑶族自治县"},{"area_code":"河池市","code":"451222","name":"天峨县"},{"area_code":"河池市","code":"451229","name":"大化县"},{"area_code":"河池市","code":"451229","name":"大化县"},{"area_code":"河池市","code":"451229","name":"大化县"},{"area_code":"河池市","code":"451228","name":"都安县"},{"area_code":"河池市","code":"451228","name":"都安县"},{"area_code":"河池市","code":"451228","name":"都安县"},{"area_code":"来宾市","code":"451301","name":"来宾县"},{"area_code":"来宾市","code":"451301","name":"来宾县"},{"area_code":"来宾市","code":"451322","name":"象州县"},{"area_code":"来宾市","code":"451322","name":"象州县"},{"area_code":"来宾市","code":"451322","name":"象州县"},{"area_code":"来宾市","code":"451324","name":"金秀瑶族自治县"},{"area_code":"来宾市","code":"451324","name":"金秀瑶族自治县"},{"area_code":"来宾市","code":"451323","name":"武宣县"},{"area_code":"来宾市","code":"451323","name":"武宣县"},{"area_code":"来宾市","code":"451323","name":"武宣县"},{"area_code":"来宾市","code":"451323","name":"武宣县"},{"area_code":"来宾市","code":"451323","name":"武宣县"},{"area_code":"来宾市","code":"451323","name":"武宣县"},{"area_code":"来宾市","code":"451321","name":"忻城县"},{"area_code":"来宾市","code":"451321","name":"忻城县"},{"area_code":"来宾市","code":"451381","name":"合山市"},{"area_code":"崇左市","code":"451402","name":"江洲区"},{"area_code":"崇左市","code":"451421","name":"扶绥县"},{"area_code":"崇左市","code":"451421","name":"扶绥县"},{"area_code":"崇左市","code":"451421","name":"扶绥县"},{"area_code":"崇左市","code":"451422","name":"宁明县"},{"area_code":"崇左市","code":"451423","name":"龙州县"},{"area_code":"崇左市","code":"451424","name":"大新县"},{"area_code":"崇左市","code":"451424","name":"大新县"},{"area_code":"崇左市","code":"451425","name":"天等县"},{"area_code":"崇左市","code":"451425","name":"天等县"},{"area_code":"崇左市","code":"451481","name":"凭祥市"}]