[{"area_code":"石家庄市","code":"130101","name":"市辖区"},{"area_code":"石家庄市","code":"130101","name":"市辖区"},{"area_code":"石家庄市","code":"130101","name":"市辖区"},{"area_code":"石家庄市","code":"130101","name":"市辖区"},{"area_code":"石家庄市","code":"130101","name":"市辖区"},{"area_code":"石家庄市","code":"130101","name":"市辖区"},{"area_code":"石家庄市","code":"130101","name":"市辖区"},{"area_code":"石家庄市","code":"130101","name":"市辖区"},{"area_code":"石家庄市","code":"130101","name":"市辖区"},{"area_code":"石家庄市","code":"130103","name":"桥东区"},{"area_code":"石家庄市","code":"130103","name":"桥东区"},{"area_code":"石家庄市","code":"130103","name":"桥东区"},{"area_code":"石家庄市","code":"130103","name":"桥东区"},{"area_code":"石家庄市","code":"130103","name":"桥东区"},{"area_code":"石家庄市","code":"130103","name":"桥东区"},{"area_code":"石家庄市","code":"130103","name":"桥东区"},{"area_code":"石家庄市","code":"130103","name":"桥东区"},{"area_code":"石家庄市","code":"130103","name":"桥东区"},{"area_code":"石家庄市","code":"130103","name":"桥东区"},{"area_code":"石家庄市","code":"130103","name":"桥东区"},{"area_code":"石家庄市","code":"130103","name":"桥东区"},{"area_code":"石家庄市","code":"130103","name":"桥东区"},{"area_code":"石家庄市","code":"130103","name":"桥东区"},{"area_code":"石家庄市","code":"130103","name":"桥东区"},{"area_code":"石家庄市","code":"130103","name":"桥东区"},{"area_code":"石家庄市","code":"130103","name":"桥东区"},{"area_code":"石家庄市","code":"130103","name":"桥东区"},{"area_code":"石家庄市","code":"130103","name":"桥东区"},{"area_code":"石家庄市","code":"130103","name":"桥东区"},{"area_code":"石家庄市","code":"130105","name":"新华区"},{"area_code":"石家庄市","code":"130105","name":"新华区"},{"area_code":"石家庄市","code":"130105","name":"新华区"},{"area_code":"石家庄市","code":"130105","name":"新华区"},{"area_code":"石家庄市","code":"130105","name":"新华区"},{"area_code":"石家庄市","code":"130105","name":"新华区"},{"area_code":"石家庄市","code":"130107","name":"井陉矿区"},{"area_code":"石家庄市","code":"130107","name":"井陉矿区"},{"area_code":"石家庄市","code":"130107","name":"井陉矿区"},{"area_code":"石家庄市","code":"130108","name":"裕华区"},{"area_code":"石家庄市","code":"130108","name":"裕华区"},{"area_code":"石家庄市","code":"130108","name":"裕华区"},{"area_code":"石家庄市","code":"130108","name":"裕华区"},{"area_code":"石家庄市","code":"130108","name":"裕华区"},{"area_code":"石家庄市","code":"130121","name":"井陉县"},{"area_code":"石家庄市","code":"130121","name":"井陉县"},{"area_code":"石家庄市","code":"130121","name":"井陉县"},{"area_code":"石家庄市","code":"130121","name":"井陉县"},{"area_code":"石家庄市","code":"130123","name":"正定县"},{"area_code":"石家庄市","code":"130123","name":"正定县"},{"area_code":"石家庄市","code":"130123","name":"正定县"},{"area_code":"石家庄市","code":"130123","name":"正定县"},{"area_code":"石家庄市","code":"130123","name":"正定县"},{"area_code":"石家庄市","code":"130123","name":"正定县"},{"area_code":"石家庄市","code":"130123","name":"正定县"},{"area_code":"石家庄市","code":"130124","name":"栾城县"},{"area_code":"石家庄市","code":"130124","name":"栾城县"},{"area_code":"石家庄市","code":"130124","name":"栾城县"},{"area_code":"石家庄市","code":"130125","name":"行唐县"},{"area_code":"石家庄市","code":"130125","name":"行唐县"},{"area_code":"石家庄市","code":"130125","name":"行唐县"},{"area_code":"石家庄市","code":"130125","name":"行唐县"},{"area_code":"石家庄市","code":"130125","name":"行唐县"},{"area_code":"石家庄市","code":"130125","name":"行唐县"},{"area_code":"石家庄市","code":"130126","name":"灵寿县"},{"area_code":"石家庄市","code":"130126","name":"灵寿县"},{"area_code":"石家庄市","code":"130126","name":"灵寿县"},{"area_code":"石家庄市","code":"130126","name":"灵寿县"},{"area_code":"石家庄市","code":"130127","name":"高邑县"},{"area_code":"石家庄市","code":"130127","name":"高邑县"},{"area_code":"石家庄市","code":"130128","name":"深泽县"},{"area_code":"石家庄市","code":"130129","name":"赞皇县"},{"area_code":"石家庄市","code":"130129","name":"赞皇县"},{"area_code":"石家庄市","code":"130130","name":"无极县"},{"area_code":"石家庄市","code":"130130","name":"无极县"},{"area_code":"石家庄市","code":"130130","name":"无极县"},{"area_code":"石家庄市","code":"130131","name":"平山县"},{"area_code":"石家庄市","code":"130131","name":"平山县"},{"area_code":"石家庄市","code":"130131","name":"平山县"},{"area_code":"石家庄市","code":"130131","name":"平山县"},{"area_code":"石家庄市","code":"130131","name":"平山县"},{"area_code":"石家庄市","code":"130131","name":"平山县"},{"area_code":"石家庄市","code":"130132","name":"元氏县"},{"area_code":"石家庄市","code":"130132","name":"元氏县"},{"area_code":"石家庄市","code":"130132","name":"元氏县"},{"area_code":"石家庄市","code":"130132","name":"元氏县"},{"area_code":"石家庄市","code":"130133","name":"赵县"},{"area_code":"石家庄市","code":"130133","name":"赵县"},{"area_code":"石家庄市","code":"130133","name":"赵县"},{"area_code":"石家庄市","code":"130133","name":"赵县"},{"area_code":"石家庄市","code":"130133","name":"赵县"},{"area_code":"石家庄市","code":"130133","name":"赵县"},{"area_code":"石家庄市","code":"130133","name":"赵县"},{"area_code":"石家庄市","code":"130181","name":"辛集市"},{"area_code":"石家庄市","code":"130181","name":"辛集市"},{"area_code":"石家庄市","code":"130181","name":"辛集市"},{"area_code":"石家庄市","code":"130181","name":"辛集市"},{"area_code":"石家庄市","code":"130181","name":"辛集市"},{"area_code":"石家庄市","code":"130181","name":"辛集市"},{"area_code":"石家庄市","code":"130181","name":"辛集市"},{"area_code":"石家庄市","code":"130181","name":"辛集市"},{"area_code":"石家庄市","code":"130181","name":"辛集市"},{"area_code":"石家庄市","code":"130181","name":"辛集市"},{"area_code":"石家庄市","code":"130183","name":"晋州市"},{"area_code":"石家庄市","code":"130183","name":"晋州市"},{"area_code":"石家庄市","code":"130183","name":"晋州市"},{"area_code":"石家庄市","code":"130184","name":"新乐市"},{"area_code":"石家庄市","code":"130184","name":"新乐市"},{"area_code":"石家庄市","code":"130184","name":"新乐市"},{"area_code":"石家庄市","code":"130184","name":"新乐市"},{"area_code":"石家庄市","code":"130185","name":"鹿泉市"},{"area_code":"石家庄市","code":"130185","name":"鹿泉市"},{"area_code":"石家庄市","code":"130185","name":"鹿泉市"},{"area_code":"石家庄市","code":"130185","name":"鹿泉市"},{"area_code":"石家庄市","code":"130182","name":"藁城市"},{"area_code":"石家庄市","code":"130182","name":"藁城市"},{"area_code":"石家庄市","code":"130182","name":"藁城市"},{"area_code":"石家庄市","code":"130182","name":"藁城市"},{"area_code":"石家庄市","code":"130182","name":"藁城市"},{"area_code":"石家庄市","code":"130182","name":"藁城市"},{"area_code":"石家庄市","code":"130182","name":"藁城市"},{"area_code":"唐山市","code":"130202","name":"路南区"},{"area_code":"唐山市","code":"130202","name":"路南区"},{"area_code":"唐山市","code":"130202","name":"路南区"},{"area_code":"唐山市","code":"130202","name":"路南区"},{"area_code":"唐山市","code":"130203","name":"路北区"},{"area_code":"唐山市","code":"130203","name":"路北区"},{"area_code":"唐山市","code":"130203","name":"路北区"},{"area_code":"唐山市","code":"130203","name":"路北区"},{"area_code":"唐山市","code":"130203","name":"路北区"},{"area_code":"唐山市","code":"130203","name":"路北区"},{"area_code":"唐山市","code":"130203","name":"路北区"},{"area_code":"唐山市","code":"130204","name":"古冶区"},{"area_code":"唐山市","code":"130204","name":"古冶区"},{"area_code":"唐山市","code":"130204","name":"古冶区"},{"area_code":"唐山市","code":"130204","name":"古冶区"},{"area_code":"唐山市","code":"130207","name":"丰南区"},{"area_code":"唐山市","code":"130207","name":"丰南区"},{"area_code":"唐山市","code":"130207","name":"丰南区"},{"area_code":"唐山市","code":"130207","name":"丰南区"},{"area_code":"唐山市","code":"130208","name":"丰润区"},{"area_code":"唐山市","code":"130208","name":"丰润区"},{"area_code":"唐山市","code":"130208","name":"丰润区"},{"area_code":"唐山市","code":"130208","name":"丰润区"},{"area_code":"唐山市","code":"130208","name":"丰润区"},{"area_code":"唐山市","code":"130208","name":"丰润区"},{"area_code":"唐山市","code":"130208","name":"丰润区"},{"area_code":"唐山市","code":"130223","name":"滦县"},{"area_code":"唐山市","code":"130223","name":"滦县"},{"area_code":"唐山市","code":"130223","name":"滦县"},{"area_code":"唐山市","code":"130223","name":"滦县"},{"area_code":"唐山市","code":"130223","name":"滦县"},{"area_code":"唐山市","code":"130223","name":"滦县"},{"area_code":"唐山市","code":"130224","name":"滦南县"},{"area_code":"唐山市","code":"130224","name":"滦南县"},{"area_code":"唐山市","code":"130224","name":"滦南县"},{"area_code":"唐山市","code":"130224","name":"滦南县"},{"area_code":"唐山市","code":"130224","name":"滦南县"},{"area_code":"唐山市","code":"130225","name":"乐亭县"},{"area_code":"唐山市","code":"130225","name":"乐亭县"},{"area_code":"唐山市","code":"130225","name":"乐亭县"},{"area_code":"唐山市","code":"130225","name":"乐亭县"},{"area_code":"唐山市","code":"130225","name":"乐亭县"},{"area_code":"唐山市","code":"130227","name":"迁西县"},{"area_code":"唐山市","code":"130227","name":"迁西县"},{"area_code":"唐山市","code":"130227","name":"迁西县"},{"area_code":"唐山市","code":"130227","name":"迁西县"},{"area_code":"唐山市","code":"130227","name":"迁西县"},{"area_code":"唐山市","code":"130229","name":"玉田县"},{"area_code":"唐山市","code":"130229","name":"玉田县"},{"area_code":"唐山市","code":"130229","name":"玉田县"},{"area_code":"唐山市","code":"130229","name":"玉田县"},{"area_code":"唐山市","code":"130229","name":"玉田县"},{"area_code":"唐山市","code":"130229","name":"玉田县"},{"area_code":"唐山市","code":"130229","name":"玉田县"},{"area_code":"唐山市","code":"130229","name":"玉田县"},{"area_code":"唐山市","code":"130209","name":"唐海县"},{"area_code":"唐山市","code":"130281","name":"遵化市"},{"area_code":"唐山市","code":"130281","name":"遵化市"},{"area_code":"唐山市","code":"130281","name":"遵化市"},{"area_code":"唐山市","code":"130281","name":"遵化市"},{"area_code":"唐山市","code":"130281","name":"遵化市"},{"area_code":"唐山市","code":"130281","name":"遵化市"},{"area_code":"唐山市","code":"130281","name":"遵化市"},{"area_code":"唐山市","code":"130281","name":"遵化市"},{"area_code":"唐山市","code":"130281","name":"遵化市"},{"area_code":"唐山市","code":"130283","name":"迁安市"},{"area_code":"唐山市","code":"130283","name":"迁安市"},{"area_code":"唐山市","code":"130283","name":"迁安市"},{"area_code":"唐山市","code":"130283","name":"迁安市"},{"area_code":"唐山市","code":"130283","name":"迁安市"},{"area_code":"唐山市","code":"130283","name":"迁安市"},{"area_code":"唐山市","code":"130283","name":"迁安市"},{"area_code":"唐山市","code":"130283","name":"迁安市"},{"area_code":"唐山市","code":"130283","name":"迁安市"},{"area_code":"秦皇岛市","code":"130302","name":"海港区"},{"area_code":"秦皇岛市","code":"130302","name":"海港区"},{"area_code":"秦皇岛市","code":"130302","name":"海港区"},{"area_code":"秦皇岛市","code":"130302","name":"海港区"},{"area_code":"秦皇岛市","code":"130302","name":"海港区"},{"area_code":"秦皇岛市","code":"130302","name":"海港区"},{"area_code":"秦皇岛市","code":"130302","name":"海港区"},{"area_code":"秦皇岛市","code":"130303","name":"山海关区"},{"area_code":"秦皇岛市","code":"130303","name":"山海关区"},{"area_code":"秦皇岛市","code":"130304","name":"北戴河区"},{"area_code":"秦皇岛市","code":"130304","name":"北戴河区"},{"area_code":"秦皇岛市","code":"130304","name":"北戴河区"},{"area_code":"秦皇岛市","code":"130321","name":"青龙县"},{"area_code":"秦皇岛市","code":"130321","name":"青龙县"},{"area_code":"秦皇岛市","code":"130321","name":"青龙县"},{"area_code":"秦皇岛市","code":"130321","name":"青龙县"},{"area_code":"秦皇岛市","code":"130321","name":"青龙县"},{"area_code":"秦皇岛市","code":"130322","name":"昌黎县"},{"area_code":"秦皇岛市","code":"130322","name":"昌黎县"},{"area_code":"秦皇岛市","code":"130322","name":"昌黎县"},{"area_code":"秦皇岛市","code":"130322","name":"昌黎县"},{"area_code":"秦皇岛市","code":"130323","name":"抚宁县"},{"area_code":"秦皇岛市","code":"130323","name":"抚宁县"},{"area_code":"秦皇岛市","code":"130323","name":"抚宁县"},{"area_code":"秦皇岛市","code":"130323","name":"抚宁县"},{"area_code":"秦皇岛市","code":"130323","name":"抚宁县"},{"area_code":"秦皇岛市","code":"130323","name":"抚宁县"},{"area_code":"秦皇岛市","code":"130324","name":"卢龙县"},{"area_code":"秦皇岛市","code":"130324","name":"卢龙县"},{"area_code":"秦皇岛市","code":"130324","name":"卢龙县"},{"area_code":"秦皇岛市","code":"130324","name":"卢龙县"},{"area_code":"秦皇岛市","code":"130324","name":"卢龙县"},{"area_code":"邯郸市","code":"130401","name":"市辖区"},{"area_code":"邯郸市","code":"130401","name":"市辖区"},{"area_code":"邯郸市","code":"130401","name":"市辖区"},{"area_code":"邯郸市","code":"130401","name":"市辖区"},{"area_code":"邯郸市","code":"130401","name":"市辖区"},{"area_code":"邯郸市","code":"130401","name":"市辖区"},{"area_code":"邯郸市","code":"130401","name":"市辖区"},{"area_code":"邯郸市","code":"130401","name":"市辖区"},{"area_code":"邯郸市","code":"130401","name":"市辖区"},{"area_code":"邯郸市","code":"130402","name":"邯山区"},{"area_code":"邯郸市","code":"130402","name":"邯山区"},{"area_code":"邯郸市","code":"130402","name":"邯山区"},{"area_code":"邯郸市","code":"130402","name":"邯山区"},{"area_code":"邯郸市","code":"130402","name":"邯山区"},{"area_code":"邯郸市","code":"130403","name":"丛台区"},{"area_code":"邯郸市","code":"130403","name":"丛台区"},{"area_code":"邯郸市","code":"130403","name":"丛台区"},{"area_code":"邯郸市","code":"130403","name":"丛台区"},{"area_code":"邯郸市","code":"130404","name":"复兴区"},{"area_code":"邯郸市","code":"130406","name":"峰峰矿区"},{"area_code":"邯郸市","code":"130406","name":"峰峰矿区"},{"area_code":"邯郸市","code":"130406","name":"峰峰矿区"},{"area_code":"邯郸市","code":"130406","name":"峰峰矿区"},{"area_code":"邯郸市","code":"130421","name":"邯郸县"},{"area_code":"邯郸市","code":"130421","name":"邯郸县"},{"area_code":"邯郸市","code":"130421","name":"邯郸县"},{"area_code":"邯郸市","code":"130421","name":"邯郸县"},{"area_code":"邯郸市","code":"130423","name":"临漳县"},{"area_code":"邯郸市","code":"130423","name":"临漳县"},{"area_code":"邯郸市","code":"130423","name":"临漳县"},{"area_code":"邯郸市","code":"130424","name":"成安县"},{"area_code":"邯郸市","code":"130424","name":"成安县"},{"area_code":"邯郸市","code":"130424","name":"成安县"},{"area_code":"邯郸市","code":"130424","name":"成安县"},{"area_code":"邯郸市","code":"130425","name":"大名县"},{"area_code":"邯郸市","code":"130425","name":"大名县"},{"area_code":"邯郸市","code":"130425","name":"大名县"},{"area_code":"邯郸市","code":"130426","name":"涉县"},{"area_code":"邯郸市","code":"130426","name":"涉县"},{"area_code":"邯郸市","code":"130426","name":"涉县"},{"area_code":"邯郸市","code":"130426","name":"涉县"},{"area_code":"邯郸市","code":"130427","name":"磁县"},{"area_code":"邯郸市","code":"130427","name":"磁县"},{"area_code":"邯郸市","code":"130427","name":"磁县"},{"area_code":"邯郸市","code":"130427","name":"磁县"},{"area_code":"邯郸市","code":"130428","name":"肥乡县"},{"area_code":"邯郸市","code":"130428","name":"肥乡县"},{"area_code":"邯郸市","code":"130429","name":"永年县"},{"area_code":"邯郸市","code":"130429","name":"永年县"},{"area_code":"邯郸市","code":"130429","name":"永年县"},{"area_code":"邯郸市","code":"130430","name":"邱县"},{"area_code":"邯郸市","code":"130431","name":"鸡泽县"},{"area_code":"邯郸市","code":"130432","name":"广平县"},{"area_code":"邯郸市","code":"130432","name":"广平县"},{"area_code":"邯郸市","code":"130432","name":"广平县"},{"area_code":"邯郸市","code":"130433","name":"馆陶县"},{"area_code":"邯郸市","code":"130433","name":"馆陶县"},{"area_code":"邯郸市","code":"130434","name":"魏县"},{"area_code":"邯郸市","code":"130434","name":"魏县"},{"area_code":"邯郸市","code":"130434","name":"魏县"},{"area_code":"邯郸市","code":"130434","name":"魏县"},{"area_code":"邯郸市","code":"130435","name":"曲周县"},{"area_code":"邯郸市","code":"130435","name":"曲周县"},{"area_code":"邯郸市","code":"130481","name":"武安市"},{"area_code":"邯郸市","code":"130481","name":"武安市"},{"area_code":"邯郸市","code":"130481","name":"武安市"},{"area_code":"邯郸市","code":"130481","name":"武安市"},{"area_code":"邯郸市","code":"130481","name":"武安市"},{"area_code":"邯郸市","code":"130481","name":"武安市"},{"area_code":"邢台市","code":"130501","name":"市辖区"},{"area_code":"邢台市","code":"130501","name":"市辖区"},{"area_code":"邢台市","code":"130501","name":"市辖区"},{"area_code":"邢台市","code":"130501","name":"市辖区"},{"area_code":"邢台市","code":"130501","name":"市辖区"},{"area_code":"邢台市","code":"130501","name":"市辖区"},{"area_code":"邢台市","code":"130501","name":"市辖区"},{"area_code":"邢台市","code":"130501","name":"市辖区"},{"area_code":"邢台市","code":"130501","name":"市辖区"},{"area_code":"邢台市","code":"130501","name":"市辖区"},{"area_code":"邢台市","code":"130501","name":"市辖区"},{"area_code":"邢台市","code":"130501","name":"市辖区"},{"area_code":"邢台市","code":"130501","name":"市辖区"},{"area_code":"邢台市","code":"130501","name":"市辖区"},{"area_code":"邢台市","code":"130501","name":"市辖区"},{"area_code":"邢台市","code":"130501","name":"市辖区"},{"area_code":"邢台市","code":"130501","name":"市辖区"},{"area_code":"邢台市","code":"130501","name":"市辖区"},{"area_code":"邢台市","code":"130501","name":"市辖区"},{"area_code":"邢台市","code":"130501","name":"市辖区"},{"area_code":"邢台市","code":"130501","name":"市辖区"},{"area_code":"邢台市","code":"130501","name":"市辖区"},{"area_code":"邢台市","code":"130501","name":"市辖区"},{"area_code":"邢台市","code":"130501","name":"市辖区"},{"area_code":"邢台市","code":"130501","name":"市辖区"},{"area_code":"邢台市","code":"130501","name":"市辖区"},{"area_code":"邢台市","code":"130501","name":"市辖区"},{"area_code":"邢台市","code":"130501","name":"市辖区"},{"area_code":"邢台市","code":"130501","name":"市辖区"},{"area_code":"邢台市","code":"130501","name":"市辖区"},{"area_code":"邢台市","code":"130501","name":"市辖区"},{"area_code":"邢台市","code":"130501","name":"市辖区"},{"area_code":"邢台市","code":"130501","name":"市辖区"},{"area_code":"邢台市","code":"130501","name":"市辖区"},{"area_code":"邢台市","code":"130521","name":"邢台县"},{"area_code":"邢台市","code":"130521","name":"邢台县"},{"area_code":"邢台市","code":"130521","name":"邢台县"},{"area_code":"邢台市","code":"130522","name":"临城县"},{"area_code":"邢台市","code":"130523","name":"内丘县"},{"area_code":"邢台市","code":"130523","name":"内丘县"},{"area_code":"邢台市","code":"130523","name":"内丘县"},{"area_code":"邢台市","code":"130523","name":"内丘县"},{"area_code":"邢台市","code":"130524","name":"柏乡县"},{"area_code":"邢台市","code":"130525","name":"隆尧县"},{"area_code":"邢台市","code":"130525","name":"隆尧县"},{"area_code":"邢台市","code":"130525","name":"隆尧县"},{"area_code":"邢台市","code":"130526","name":"任县"},{"area_code":"邢台市","code":"130526","name":"任县"},{"area_code":"邢台市","code":"130527","name":"南和县"},{"area_code":"邢台市","code":"130528","name":"宁晋县"},{"area_code":"邢台市","code":"130528","name":"宁晋县"},{"area_code":"邢台市","code":"130528","name":"宁晋县"},{"area_code":"邢台市","code":"130528","name":"宁晋县"},{"area_code":"邢台市","code":"130528","name":"宁晋县"},{"area_code":"邢台市","code":"130528","name":"宁晋县"},{"area_code":"邢台市","code":"130528","name":"宁晋县"},{"area_code":"邢台市","code":"130528","name":"宁晋县"},{"area_code":"邢台市","code":"130529","name":"巨鹿县"},{"area_code":"邢台市","code":"130529","name":"巨鹿县"},{"area_code":"邢台市","code":"130530","name":"新河县"},{"area_code":"邢台市","code":"130531","name":"广宗县"},{"area_code":"邢台市","code":"130532","name":"平乡县"},{"area_code":"邢台市","code":"130532","name":"平乡县"},{"area_code":"邢台市","code":"130532","name":"平乡县"},{"area_code":"邢台市","code":"130533","name":"威县"},{"area_code":"邢台市","code":"130533","name":"威县"},{"area_code":"邢台市","code":"130534","name":"清河县"},{"area_code":"邢台市","code":"130534","name":"清河县"},{"area_code":"邢台市","code":"130534","name":"清河县"},{"area_code":"邢台市","code":"130534","name":"清河县"},{"area_code":"邢台市","code":"130535","name":"临西县"},{"area_code":"邢台市","code":"130535","name":"临西县"},{"area_code":"邢台市","code":"130535","name":"临西县"},{"area_code":"邢台市","code":"130535","name":"临西县"},{"area_code":"邢台市","code":"130581","name":"南宫市"},{"area_code":"邢台市","code":"130581","name":"南宫市"},{"area_code":"邢台市","code":"130581","name":"南宫市"},{"area_code":"邢台市","code":"130582","name":"沙河市"},{"area_code":"邢台市","code":"130582","name":"沙河市"},{"area_code":"邢台市","code":"130582","name":"沙河市"},{"area_code":"邢台市","code":"130582","name":"沙河市"},{"area_code":"保定市","code":"130601","name":"市辖区"},{"area_code":"保定市","code":"130601","name":"市辖区"},{"area_code":"保定市","code":"130601","name":"市辖区"},{"area_code":"保定市","code":"130601","name":"市辖区"},{"area_code":"保定市","code":"130601","name":"市辖区"},{"area_code":"保定市","code":"130601","name":"市辖区"},{"area_code":"保定市","code":"130601","name":"市辖区"},{"area_code":"保定市","code":"130601","name":"市辖区"},{"area_code":"保定市","code":"130601","name":"市辖区"},{"area_code":"保定市","code":"130601","name":"市辖区"},{"area_code":"保定市","code":"130601","name":"市辖区"},{"area_code":"保定市","code":"130601","name":"市辖区"},{"area_code":"保定市","code":"130621","name":"满城县"},{"area_code":"保定市","code":"130621","name":"满城县"},{"area_code":"保定市","code":"130622","name":"清苑县"},{"area_code":"保定市","code":"130622","name":"清苑县"},{"area_code":"保定市","code":"130622","name":"清苑县"},{"area_code":"保定市","code":"130622","name":"清苑县"},{"area_code":"保定市","code":"130622","name":"清苑县"},{"area_code":"保定市","code":"130623","name":"涞水县"},{"area_code":"保定市","code":"130623","name":"涞水县"},{"area_code":"保定市","code":"130623","name":"涞水县"},{"area_code":"保定市","code":"130623","name":"涞水县"},{"area_code":"保定市","code":"130623","name":"涞水县"},{"area_code":"保定市","code":"130624","name":"阜平县"},{"area_code":"保定市","code":"130625","name":"徐水县"},{"area_code":"保定市","code":"130625","name":"徐水县"},{"area_code":"保定市","code":"130625","name":"徐水县"},{"area_code":"保定市","code":"130625","name":"徐水县"},{"area_code":"保定市","code":"130626","name":"定兴县"},{"area_code":"保定市","code":"130626","name":"定兴县"},{"area_code":"保定市","code":"130626","name":"定兴县"},{"area_code":"保定市","code":"130627","name":"唐县"},{"area_code":"保定市","code":"130627","name":"唐县"},{"area_code":"保定市","code":"130627","name":"唐县"},{"area_code":"保定市","code":"130627","name":"唐县"},{"area_code":"保定市","code":"130627","name":"唐县"},{"area_code":"保定市","code":"130628","name":"高阳县"},{"area_code":"保定市","code":"130629","name":"容城县"},{"area_code":"保定市","code":"130629","name":"容城县"},{"area_code":"保定市","code":"130630","name":"涞源县"},{"area_code":"保定市","code":"130630","name":"涞源县"},{"area_code":"保定市","code":"130631","name":"望都县"},{"area_code":"保定市","code":"130631","name":"望都县"},{"area_code":"保定市","code":"130631","name":"望都县"},{"area_code":"保定市","code":"130632","name":"安新县"},{"area_code":"保定市","code":"130633","name":"易县"},{"area_code":"保定市","code":"130633","name":"易县"},{"area_code":"保定市","code":"130634","name":"曲阳县"},{"area_code":"保定市","code":"130634","name":"曲阳县"},{"area_code":"保定市","code":"130634","name":"曲阳县"},{"area_code":"保定市","code":"130634","name":"曲阳县"},{"area_code":"保定市","code":"130634","name":"曲阳县"},{"area_code":"保定市","code":"130635","name":"蠡县"},{"area_code":"保定市","code":"130635","name":"蠡县"},{"area_code":"保定市","code":"130635","name":"蠡县"},{"area_code":"保定市","code":"130635","name":"蠡县"},{"area_code":"保定市","code":"130635","name":"蠡县"},{"area_code":"保定市","code":"130636","name":"顺平县"},{"area_code":"保定市","code":"130636","name":"顺平县"},{"area_code":"保定市","code":"130636","name":"顺平县"},{"area_code":"保定市","code":"130637","name":"博野县"},{"area_code":"保定市","code":"130638","name":"雄县"},{"area_code":"保定市","code":"130681","name":"涿州市"},{"area_code":"保定市","code":"130681","name":"涿州市"},{"area_code":"保定市","code":"130681","name":"涿州市"},{"area_code":"保定市","code":"130681","name":"涿州市"},{"area_code":"保定市","code":"130681","name":"涿州市"},{"area_code":"保定市","code":"130681","name":"涿州市"},{"area_code":"保定市","code":"130681","name":"涿州市"},{"area_code":"保定市","code":"130682","name":"定州市"},{"area_code":"保定市","code":"130682","name":"定州市"},{"area_code":"保定市","code":"130682","name":"定州市"},{"area_code":"保定市","code":"130682","name":"定州市"},{"area_code":"保定市","code":"130682","name":"定州市"},{"area_code":"保定市","code":"130682","name":"定州市"},{"area_code":"保定市","code":"130682","name":"定州市"},{"area_code":"保定市","code":"130682","name":"定州市"},{"area_code":"保定市","code":"130682","name":"定州市"},{"area_code":"保定市","code":"130682","name":"定州市"},{"area_code":"保定市","code":"130682","name":"定州市"},{"area_code":"保定市","code":"130683","name":"安国市"},{"area_code":"保定市","code":"130683","name":"安国市"},{"area_code":"保定市","code":"130684","name":"高碑店市"},{"area_code":"保定市","code":"130684","name":"高碑店市"},{"area_code":"保定市","code":"130684","name":"高碑店市"},{"area_code":"保定市","code":"130684","name":"高碑店市"},{"area_code":"张家口市","code":"130701","name":"市辖区"},{"area_code":"张家口市","code":"130701","name":"市辖区"},{"area_code":"张家口市","code":"130701","name":"市辖区"},{"area_code":"张家口市","code":"130701","name":"市辖区"},{"area_code":"张家口市","code":"130701","name":"市辖区"},{"area_code":"张家口市","code":"130701","name":"市辖区"},{"area_code":"张家口市","code":"130701","name":"市辖区"},{"area_code":"张家口市","code":"130701","name":"市辖区"},{"area_code":"张家口市","code":"130701","name":"市辖区"},{"area_code":"张家口市","code":"130701","name":"市辖区"},{"area_code":"张家口市","code":"130701","name":"市辖区"},{"area_code":"张家口市","code":"130701","name":"市辖区"},{"area_code":"张家口市","code":"130701","name":"市辖区"},{"area_code":"张家口市","code":"130701","name":"市辖区"},{"area_code":"张家口市","code":"130701","name":"市辖区"},{"area_code":"张家口市","code":"130701","name":"市辖区"},{"area_code":"张家口市","code":"130701","name":"市辖区"},{"area_code":"张家口市","code":"130701","name":"市辖区"},{"area_code":"张家口市","code":"130722","name":"张北县"},{"area_code":"张家口市","code":"130722","name":"张北县"},{"area_code":"张家口市","code":"130723","name":"康保县"},{"area_code":"张家口市","code":"130723","name":"康保县"},{"area_code":"张家口市","code":"130724","name":"沽源县"},{"area_code":"张家口市","code":"130725","name":"尚义县"},{"area_code":"张家口市","code":"130726","name":"蔚县"},{"area_code":"张家口市","code":"130726","name":"蔚县"},{"area_code":"张家口市","code":"130727","name":"阳原县"},{"area_code":"张家口市","code":"130728","name":"怀安县"},{"area_code":"张家口市","code":"130729","name":"万全县"},{"area_code":"张家口市","code":"130730","name":"怀来县"},{"area_code":"张家口市","code":"130730","name":"怀来县"},{"area_code":"张家口市","code":"130730","name":"怀来县"},{"area_code":"张家口市","code":"130730","name":"怀来县"},{"area_code":"张家口市","code":"130731","name":"涿鹿县"},{"area_code":"张家口市","code":"130731","name":"涿鹿县"},{"area_code":"张家口市","code":"130732","name":"赤城县"},{"area_code":"张家口市","code":"130732","name":"赤城县"},{"area_code":"张家口市","code":"130733","name":"崇礼县"},{"area_code":"承德市","code":"130802","name":"双桥区"},{"area_code":"承德市","code":"130803","name":"双滦区"},{"area_code":"承德市","code":"130804","name":"鹰手营区"},{"area_code":"承德市","code":"130804","name":"鹰手营区"},{"area_code":"承德市","code":"130804","name":"鹰手营区"},{"area_code":"承德市","code":"130821","name":"承德县"},{"area_code":"承德市","code":"130821","name":"承德县"},{"area_code":"承德市","code":"130821","name":"承德县"},{"area_code":"承德市","code":"130821","name":"承德县"},{"area_code":"承德市","code":"130822","name":"兴隆县"},{"area_code":"承德市","code":"130822","name":"兴隆县"},{"area_code":"承德市","code":"130823","name":"平泉县"},{"area_code":"承德市","code":"130823","name":"平泉县"},{"area_code":"承德市","code":"130823","name":"平泉县"},{"area_code":"承德市","code":"130823","name":"平泉县"},{"area_code":"承德市","code":"130824","name":"滦平县"},{"area_code":"承德市","code":"130824","name":"滦平县"},{"area_code":"承德市","code":"130825","name":"隆化县"},{"area_code":"承德市","code":"130825","name":"隆化县"},{"area_code":"承德市","code":"130825","name":"隆化县"},{"area_code":"承德市","code":"130825","name":"隆化县"},{"area_code":"承德市","code":"130826","name":"丰宁县"},{"area_code":"承德市","code":"130826","name":"丰宁县"},{"area_code":"承德市","code":"130827","name":"宽城县"},{"area_code":"承德市","code":"130827","name":"宽城县"},{"area_code":"承德市","code":"130827","name":"宽城县"},{"area_code":"承德市","code":"130828","name":"围场县"},{"area_code":"承德市","code":"130828","name":"围场县"},{"area_code":"承德市","code":"130828","name":"围场县"},{"area_code":"承德市","code":"130828","name":"围场县"},{"area_code":"沧州市","code":"130901","name":"市辖区"},{"area_code":"沧州市","code":"130901","name":"市辖区"},{"area_code":"沧州市","code":"130901","name":"市辖区"},{"area_code":"沧州市","code":"130901","name":"市辖区"},{"area_code":"沧州市","code":"130901","name":"市辖区"},{"area_code":"沧州市","code":"130901","name":"市辖区"},{"area_code":"沧州市","code":"130901","name":"市辖区"},{"area_code":"沧州市","code":"130901","name":"市辖区"},{"area_code":"沧州市","code":"130902","name":"新华区"},{"area_code":"沧州市","code":"130902","name":"新华区"},{"area_code":"沧州市","code":"130902","name":"新华区"},{"area_code":"沧州市","code":"130902","name":"新华区"},{"area_code":"沧州市","code":"130902","name":"新华区"},{"area_code":"沧州市","code":"130903","name":"运河区"},{"area_code":"沧州市","code":"130903","name":"运河区"},{"area_code":"沧州市","code":"130921","name":"沧县"},{"area_code":"沧州市","code":"130921","name":"沧县"},{"area_code":"沧州市","code":"130921","name":"沧县"},{"area_code":"沧州市","code":"130921","name":"沧县"},{"area_code":"沧州市","code":"130921","name":"沧县"},{"area_code":"沧州市","code":"130922","name":"青县"},{"area_code":"沧州市","code":"130922","name":"青县"},{"area_code":"沧州市","code":"130922","name":"青县"},{"area_code":"沧州市","code":"130922","name":"青县"},{"area_code":"沧州市","code":"130922","name":"青县"},{"area_code":"沧州市","code":"130922","name":"青县"},{"area_code":"沧州市","code":"130923","name":"东光县"},{"area_code":"沧州市","code":"130923","name":"东光县"},{"area_code":"沧州市","code":"130924","name":"海兴县"},{"area_code":"沧州市","code":"130925","name":"盐山县"},{"area_code":"沧州市","code":"130925","name":"盐山县"},{"area_code":"沧州市","code":"130926","name":"肃宁县"},{"area_code":"沧州市","code":"130926","name":"肃宁县"},{"area_code":"沧州市","code":"130927","name":"南皮县"},{"area_code":"沧州市","code":"130927","name":"南皮县"},{"area_code":"沧州市","code":"130927","name":"南皮县"},{"area_code":"沧州市","code":"130927","name":"南皮县"},{"area_code":"沧州市","code":"130928","name":"吴桥县"},{"area_code":"沧州市","code":"130928","name":"吴桥县"},{"area_code":"沧州市","code":"130929","name":"献县"},{"area_code":"沧州市","code":"130929","name":"献县"},{"area_code":"沧州市","code":"130929","name":"献县"},{"area_code":"沧州市","code":"130929","name":"献县"},{"area_code":"沧州市","code":"130929","name":"献县"},{"area_code":"沧州市","code":"130930","name":"孟村县"},{"area_code":"沧州市","code":"130981","name":"泊头市"},{"area_code":"沧州市","code":"130981","name":"泊头市"},{"area_code":"沧州市","code":"130981","name":"泊头市"},{"area_code":"沧州市","code":"130981","name":"泊头市"},{"area_code":"沧州市","code":"130981","name":"泊头市"},{"area_code":"沧州市","code":"130981","name":"泊头市"},{"area_code":"沧州市","code":"130982","name":"任丘市"},{"area_code":"沧州市","code":"130982","name":"任丘市"},{"area_code":"沧州市","code":"130982","name":"任丘市"},{"area_code":"沧州市","code":"130982","name":"任丘市"},{"area_code":"沧州市","code":"130982","name":"任丘市"},{"area_code":"沧州市","code":"130982","name":"任丘市"},{"area_code":"沧州市","code":"130982","name":"任丘市"},{"area_code":"沧州市","code":"130982","name":"任丘市"},{"area_code":"沧州市","code":"130983","name":"黄骅市"},{"area_code":"沧州市","code":"130983","name":"黄骅市"},{"area_code":"沧州市","code":"130983","name":"黄骅市"},{"area_code":"沧州市","code":"130983","name":"黄骅市"},{"area_code":"沧州市","code":"130983","name":"黄骅市"},{"area_code":"沧州市","code":"130984","name":"河间市"},{"area_code":"沧州市","code":"130984","name":"河间市"},{"area_code":"沧州市","code":"130984","name":"河间市"},{"area_code":"沧州市","code":"130984","name":"河间市"},{"area_code":"沧州市","code":"130984","name":"河间市"},{"area_code":"沧州市","code":"130984","name":"河间市"},{"area_code":"廊坊市","code":"131001","name":"市辖区"},{"area_code":"廊坊市","code":"131001","name":"市辖区"},{"area_code":"廊坊市","code":"131001","name":"市辖区"},{"area_code":"廊坊市","code":"131001","name":"市辖区"},{"area_code":"廊坊市","code":"131001","name":"市辖区"},{"area_code":"廊坊市","code":"131001","name":"市辖区"},{"area_code":"廊坊市","code":"131001","name":"市辖区"},{"area_code":"廊坊市","code":"131002","name":"安次区"},{"area_code":"廊坊市","code":"131003","name":"广阳区"},{"area_code":"廊坊市","code":"131003","name":"广阳区"},{"area_code":"廊坊市","code":"131022","name":"固安县"},{"area_code":"廊坊市","code":"131022","name":"固安县"},{"area_code":"廊坊市","code":"131022","name":"固安县"},{"area_code":"廊坊市","code":"131022","name":"固安县"},{"area_code":"廊坊市","code":"131023","name":"永清县"},{"area_code":"廊坊市","code":"131024","name":"香河县"},{"area_code":"廊坊市","code":"131024","name":"香河县"},{"area_code":"廊坊市","code":"131024","name":"香河县"},{"area_code":"廊坊市","code":"131025","name":"大城县"},{"area_code":"廊坊市","code":"131025","name":"大城县"},{"area_code":"廊坊市","code":"131026","name":"文安县"},{"area_code":"廊坊市","code":"131026","name":"文安县"},{"area_code":"廊坊市","code":"131028","name":"大厂县"},{"area_code":"廊坊市","code":"131028","name":"大厂县"},{"area_code":"廊坊市","code":"131081","name":"霸州市"},{"area_code":"廊坊市","code":"131081","name":"霸州市"},{"area_code":"廊坊市","code":"131081","name":"霸州市"},{"area_code":"廊坊市","code":"131081","name":"霸州市"},{"area_code":"廊坊市","code":"131081","name":"霸州市"},{"area_code":"廊坊市","code":"131082","name":"三河市"},{"area_code":"廊坊市","code":"131082","name":"三河市"},{"area_code":"廊坊市","code":"131082","name":"三河市"},{"area_code":"衡水市","code":"131102","name":"桃城区"},{"area_code":"衡水市","code":"131102","name":"桃城区"},{"area_code":"衡水市","code":"131102","name":"桃城区"},{"area_code":"衡水市","code":"131102","name":"桃城区"},{"area_code":"衡水市","code":"131102","name":"桃城区"},{"area_code":"衡水市","code":"131102","name":"桃城区"},{"area_code":"衡水市","code":"131121","name":"枣强县"},{"area_code":"衡水市","code":"131121","name":"枣强县"},{"area_code":"衡水市","code":"131121","name":"枣强县"},{"area_code":"衡水市","code":"131122","name":"武邑县"},{"area_code":"衡水市","code":"131122","name":"武邑县"},{"area_code":"衡水市","code":"131122","name":"武邑县"},{"area_code":"衡水市","code":"131122","name":"武邑县"},{"area_code":"衡水市","code":"131123","name":"武强县"},{"area_code":"衡水市","code":"131124","name":"饶阳县"},{"area_code":"衡水市","code":"131125","name":"安平县"},{"area_code":"衡水市","code":"131125","name":"安平县"},{"area_code":"衡水市","code":"131125","name":"安平县"},{"area_code":"衡水市","code":"131126","name":"故城县"},{"area_code":"衡水市","code":"131126","name":"故城县"},{"area_code":"衡水市","code":"131127","name":"景县"},{"area_code":"衡水市","code":"131127","name":"景县"},{"area_code":"衡水市","code":"131127","name":"景县"},{"area_code":"衡水市","code":"131128","name":"阜城县"},{"area_code":"衡水市","code":"131128","name":"阜城县"},{"area_code":"衡水市","code":"131181","name":"冀州市"},{"area_code":"衡水市","code":"131181","name":"冀州市"},{"area_code":"衡水市","code":"131181","name":"冀州市"},{"area_code":"衡水市","code":"131182","name":"深州市"},{"area_code":"衡水市","code":"131182","name":"深州市"},{"area_code":"衡水市","code":"131182","name":"深州市"}]