[{"area_code":"哈尔滨市","code":"230104","name":"道外区"},{"area_code":"哈尔滨市","code":"230104","name":"道外区"},{"area_code":"哈尔滨市","code":"230104","name":"道外区"},{"area_code":"哈尔滨市","code":"230104","name":"道外区"},{"area_code":"哈尔滨市","code":"230104","name":"道外区"},{"area_code":"哈尔滨市","code":"230104","name":"道外区"},{"area_code":"哈尔滨市","code":"230104","name":"道外区"},{"area_code":"哈尔滨市","code":"230104","name":"道外区"},{"area_code":"哈尔滨市","code":"230103","name":"南岗区"},{"area_code":"哈尔滨市","code":"230103","name":"南岗区"},{"area_code":"哈尔滨市","code":"230103","name":"南岗区"},{"area_code":"哈尔滨市","code":"230103","name":"南岗区"},{"area_code":"哈尔滨市","code":"230103","name":"南岗区"},{"area_code":"哈尔滨市","code":"230103","name":"南岗区"},{"area_code":"哈尔滨市","code":"230103","name":"南岗区"},{"area_code":"哈尔滨市","code":"230103","name":"南岗区"},{"area_code":"哈尔滨市","code":"230103","name":"南岗区"},{"area_code":"哈尔滨市","code":"230103","name":"南岗区"},{"area_code":"哈尔滨市","code":"230103","name":"南岗区"},{"area_code":"哈尔滨市","code":"230103","name":"南岗区"},{"area_code":"哈尔滨市","code":"230103","name":"南岗区"},{"area_code":"哈尔滨市","code":"230103","name":"南岗区"},{"area_code":"哈尔滨市","code":"230102","name":"道里区"},{"area_code":"哈尔滨市","code":"230102","name":"道里区"},{"area_code":"哈尔滨市","code":"230102","name":"道里区"},{"area_code":"哈尔滨市","code":"230102","name":"道里区"},{"area_code":"哈尔滨市","code":"230102","name":"道里区"},{"area_code":"哈尔滨市","code":"230102","name":"道里区"},{"area_code":"哈尔滨市","code":"230102","name":"道里区"},{"area_code":"哈尔滨市","code":"230102","name":"道里区"},{"area_code":"哈尔滨市","code":"230102","name":"道里区"},{"area_code":"哈尔滨市","code":"230102","name":"道里区"},{"area_code":"哈尔滨市","code":"230102","name":"道里区"},{"area_code":"哈尔滨市","code":"230110","name":"香坊区"},{"area_code":"哈尔滨市","code":"230110","name":"香坊区"},{"area_code":"哈尔滨市","code":"230110","name":"香坊区"},{"area_code":"哈尔滨市","code":"230110","name":"香坊区"},{"area_code":"哈尔滨市","code":"230110","name":"香坊区"},{"area_code":"哈尔滨市","code":"230110","name":"香坊区"},{"area_code":"哈尔滨市","code":"230110","name":"香坊区"},{"area_code":"哈尔滨市","code":"230110","name":"香坊区"},{"area_code":"哈尔滨市","code":"230110","name":"香坊区"},{"area_code":"哈尔滨市","code":"230110","name":"香坊区"},{"area_code":"哈尔滨市","code":"230110","name":"香坊区"},{"area_code":"哈尔滨市","code":"230110","name":"香坊区"},{"area_code":"哈尔滨市","code":"230110","name":"香坊区"},{"area_code":"哈尔滨市","code":"230110","name":"香坊区"},{"area_code":"哈尔滨市","code":"230110","name":"动力区"},{"area_code":"哈尔滨市","code":"230110","name":"动力区"},{"area_code":"哈尔滨市","code":"230110","name":"动力区"},{"area_code":"哈尔滨市","code":"230110","name":"动力区"},{"area_code":"哈尔滨市","code":"230110","name":"动力区"},{"area_code":"哈尔滨市","code":"230110","name":"动力区"},{"area_code":"哈尔滨市","code":"230110","name":"动力区"},{"area_code":"哈尔滨市","code":"230110","name":"动力区"},{"area_code":"哈尔滨市","code":"230110","name":"动力区"},{"area_code":"哈尔滨市","code":"230108","name":"平房区"},{"area_code":"哈尔滨市","code":"230108","name":"平房区"},{"area_code":"哈尔滨市","code":"230108","name":"平房区"},{"area_code":"哈尔滨市","code":"230108","name":"平房区"},{"area_code":"哈尔滨市","code":"230108","name":"平房区"},{"area_code":"哈尔滨市","code":"230108","name":"平房区"},{"area_code":"哈尔滨市","code":"230108","name":"平房区"},{"area_code":"哈尔滨市","code":"230109","name":"松北区"},{"area_code":"哈尔滨市","code":"230109","name":"松北区"},{"area_code":"哈尔滨市","code":"230109","name":"松北区"},{"area_code":"哈尔滨市","code":"230111","name":"呼兰区"},{"area_code":"哈尔滨市","code":"230111","name":"呼兰区"},{"area_code":"哈尔滨市","code":"230111","name":"呼兰区"},{"area_code":"哈尔滨市","code":"230111","name":"呼兰区"},{"area_code":"哈尔滨市","code":"230111","name":"呼兰区"},{"area_code":"哈尔滨市","code":"230111","name":"呼兰区"},{"area_code":"哈尔滨市","code":"230111","name":"呼兰区"},{"area_code":"哈尔滨市","code":"230123","name":"依兰县"},{"area_code":"哈尔滨市","code":"230123","name":"依兰县"},{"area_code":"哈尔滨市","code":"230123","name":"依兰县"},{"area_code":"哈尔滨市","code":"230124","name":"方正县"},{"area_code":"哈尔滨市","code":"230124","name":"方正县"},{"area_code":"哈尔滨市","code":"230124","name":"方正县"},{"area_code":"哈尔滨市","code":"230125","name":"宾县"},{"area_code":"哈尔滨市","code":"230125","name":"宾县"},{"area_code":"哈尔滨市","code":"230125","name":"宾县"},{"area_code":"哈尔滨市","code":"230126","name":"巴彦县"},{"area_code":"哈尔滨市","code":"230126","name":"巴彦县"},{"area_code":"哈尔滨市","code":"230126","name":"巴彦县"},{"area_code":"哈尔滨市","code":"230126","name":"巴彦县"},{"area_code":"哈尔滨市","code":"230127","name":"木兰县"},{"area_code":"哈尔滨市","code":"230127","name":"木兰县"},{"area_code":"哈尔滨市","code":"230128","name":"通河县"},{"area_code":"哈尔滨市","code":"230129","name":"延寿县"},{"area_code":"哈尔滨市","code":"230129","name":"延寿县"},{"area_code":"哈尔滨市","code":"230129","name":"延寿县"},{"area_code":"哈尔滨市","code":"230112","name":"阿城区"},{"area_code":"哈尔滨市","code":"230112","name":"阿城区"},{"area_code":"哈尔滨市","code":"230112","name":"阿城区"},{"area_code":"哈尔滨市","code":"230112","name":"阿城区"},{"area_code":"哈尔滨市","code":"230112","name":"阿城区"},{"area_code":"哈尔滨市","code":"230112","name":"阿城区"},{"area_code":"哈尔滨市","code":"230112","name":"阿城区"},{"area_code":"哈尔滨市","code":"230112","name":"阿城区"},{"area_code":"哈尔滨市","code":"230182","name":"双城市"},{"area_code":"哈尔滨市","code":"230182","name":"双城市"},{"area_code":"哈尔滨市","code":"230182","name":"双城市"},{"area_code":"哈尔滨市","code":"230182","name":"双城市"},{"area_code":"哈尔滨市","code":"230182","name":"双城市"},{"area_code":"哈尔滨市","code":"230182","name":"双城市"},{"area_code":"哈尔滨市","code":"230182","name":"双城市"},{"area_code":"哈尔滨市","code":"230182","name":"双城市"},{"area_code":"哈尔滨市","code":"230182","name":"双城市"},{"area_code":"哈尔滨市","code":"230183","name":"尚志市"},{"area_code":"哈尔滨市","code":"230183","name":"尚志市"},{"area_code":"哈尔滨市","code":"230183","name":"尚志市"},{"area_code":"哈尔滨市","code":"230183","name":"尚志市"},{"area_code":"哈尔滨市","code":"230183","name":"尚志市"},{"area_code":"哈尔滨市","code":"230183","name":"尚志市"},{"area_code":"哈尔滨市","code":"230183","name":"尚志市"},{"area_code":"哈尔滨市","code":"230183","name":"尚志市"},{"area_code":"哈尔滨市","code":"230183","name":"尚志市"},{"area_code":"哈尔滨市","code":"230183","name":"尚志市"},{"area_code":"哈尔滨市","code":"230183","name":"尚志市"},{"area_code":"哈尔滨市","code":"230184","name":"五常市"},{"area_code":"哈尔滨市","code":"230184","name":"五常市"},{"area_code":"哈尔滨市","code":"230184","name":"五常市"},{"area_code":"哈尔滨市","code":"230184","name":"五常市"},{"area_code":"哈尔滨市","code":"230184","name":"五常市"},{"area_code":"哈尔滨市","code":"230184","name":"五常市"},{"area_code":"哈尔滨市","code":"230184","name":"五常市"},{"area_code":"哈尔滨市","code":"230184","name":"五常市"},{"area_code":"哈尔滨市","code":"230184","name":"五常市"},{"area_code":"大兴安岭地区","code":"232723","name":"漠河县"},{"area_code":"大兴安岭地区","code":"232722","name":"塔河县"},{"area_code":"大兴安岭地区","code":"232721","name":"呼玛县"},{"area_code":"大兴安岭地区","code":"232721","name":"呼中区"},{"area_code":"大兴安岭地区","code":"232721","name":"新林区"},{"area_code":"大兴安岭地区","code":"232721","name":"松岭区"},{"area_code":"大兴安岭地区","code":"232721","name":"加格达奇区"},{"area_code":"大兴安岭地区","code":"232721","name":"加格达奇区"},{"area_code":"大兴安岭地区","code":"232721","name":"加格达奇区"},{"area_code":"大兴安岭地区","code":"232721","name":"加格达奇区"},{"area_code":"绥化市","code":"231283","name":"海伦市"},{"area_code":"绥化市","code":"231283","name":"海伦市"},{"area_code":"绥化市","code":"231283","name":"海伦市"},{"area_code":"绥化市","code":"231283","name":"海伦市"},{"area_code":"绥化市","code":"231283","name":"海伦市"},{"area_code":"绥化市","code":"231283","name":"海伦市"},{"area_code":"绥化市","code":"231283","name":"海伦市"},{"area_code":"绥化市","code":"231282","name":"肇东市"},{"area_code":"绥化市","code":"231282","name":"肇东市"},{"area_code":"绥化市","code":"231282","name":"肇东市"},{"area_code":"绥化市","code":"231282","name":"肇东市"},{"area_code":"绥化市","code":"231281","name":"安达市"},{"area_code":"绥化市","code":"231281","name":"安达市"},{"area_code":"绥化市","code":"231281","name":"安达市"},{"area_code":"绥化市","code":"231226","name":"绥棱县"},{"area_code":"绥化市","code":"231226","name":"绥棱县"},{"area_code":"绥化市","code":"231225","name":"明水县"},{"area_code":"绥化市","code":"231224","name":"庆安县"},{"area_code":"绥化市","code":"231224","name":"庆安县"},{"area_code":"绥化市","code":"231223","name":"青冈县"},{"area_code":"绥化市","code":"231223","name":"青冈县"},{"area_code":"绥化市","code":"231222","name":"兰西县"},{"area_code":"绥化市","code":"231222","name":"兰西县"},{"area_code":"绥化市","code":"231221","name":"望奎县"},{"area_code":"绥化市","code":"231221","name":"望奎县"},{"area_code":"绥化市","code":"231202","name":"北林区"},{"area_code":"绥化市","code":"231202","name":"北林区"},{"area_code":"绥化市","code":"231201","name":"市辖区"},{"area_code":"绥化市","code":"231201","name":"市辖区"},{"area_code":"绥化市","code":"231201","name":"市辖区"},{"area_code":"绥化市","code":"231201","name":"市辖区"},{"area_code":"绥化市","code":"231201","name":"市辖区"},{"area_code":"黑河市","code":"231182","name":"五大连池市"},{"area_code":"黑河市","code":"231182","name":"五大连池市"},{"area_code":"黑河市","code":"231182","name":"五大连池市"},{"area_code":"黑河市","code":"231181","name":"北安市"},{"area_code":"黑河市","code":"231181","name":"北安市"},{"area_code":"黑河市","code":"231181","name":"北安市"},{"area_code":"黑河市","code":"231181","name":"北安市"},{"area_code":"黑河市","code":"231181","name":"北安市"},{"area_code":"黑河市","code":"231181","name":"北安市"},{"area_code":"黑河市","code":"231181","name":"北安市"},{"area_code":"黑河市","code":"231181","name":"北安市"},{"area_code":"黑河市","code":"231181","name":"北安市"},{"area_code":"黑河市","code":"231124","name":"孙吴县"},{"area_code":"黑河市","code":"231123","name":"逊克县"},{"area_code":"黑河市","code":"231121","name":"嫩江县"},{"area_code":"黑河市","code":"231121","name":"嫩江县"},{"area_code":"黑河市","code":"231121","name":"嫩江县"},{"area_code":"黑河市","code":"231121","name":"嫩江县"},{"area_code":"黑河市","code":"231121","name":"嫩江县"},{"area_code":"黑河市","code":"231102","name":"爱辉区"},{"area_code":"黑河市","code":"231102","name":"爱辉区"},{"area_code":"黑河市","code":"231101","name":"市辖区"},{"area_code":"黑河市","code":"231101","name":"市辖区"},{"area_code":"黑河市","code":"231101","name":"市辖区"},{"area_code":"牡丹江市","code":"231085","name":"穆棱市"},{"area_code":"牡丹江市","code":"231085","name":"穆棱市"},{"area_code":"牡丹江市","code":"231085","name":"穆棱市"},{"area_code":"牡丹江市","code":"231085","name":"穆棱市"},{"area_code":"牡丹江市","code":"231084","name":"宁安市"},{"area_code":"牡丹江市","code":"231084","name":"宁安市"},{"area_code":"牡丹江市","code":"231084","name":"宁安市"},{"area_code":"牡丹江市","code":"231084","name":"宁安市"},{"area_code":"牡丹江市","code":"231084","name":"宁安市"},{"area_code":"牡丹江市","code":"231084","name":"宁安市"},{"area_code":"牡丹江市","code":"231084","name":"宁安市"},{"area_code":"牡丹江市","code":"231083","name":"海林市"},{"area_code":"牡丹江市","code":"231083","name":"海林市"},{"area_code":"牡丹江市","code":"231083","name":"海林市"},{"area_code":"牡丹江市","code":"231083","name":"海林市"},{"area_code":"牡丹江市","code":"231083","name":"海林市"},{"area_code":"牡丹江市","code":"231083","name":"海林市"},{"area_code":"牡丹江市","code":"231083","name":"海林市"},{"area_code":"牡丹江市","code":"231081","name":"绥芬河市"},{"area_code":"牡丹江市","code":"231025","name":"林口县"},{"area_code":"牡丹江市","code":"231025","name":"林口县"},{"area_code":"牡丹江市","code":"231025","name":"林口县"},{"area_code":"牡丹江市","code":"231024","name":"东宁县"},{"area_code":"牡丹江市","code":"231024","name":"东宁县"},{"area_code":"牡丹江市","code":"231024","name":"东宁县"},{"area_code":"牡丹江市","code":"231024","name":"东宁县"},{"area_code":"牡丹江市","code":"231024","name":"东宁县"},{"area_code":"牡丹江市","code":"231001","name":"市辖区"},{"area_code":"牡丹江市","code":"231001","name":"市辖区"},{"area_code":"牡丹江市","code":"231001","name":"市辖区"},{"area_code":"牡丹江市","code":"231001","name":"市辖区"},{"area_code":"牡丹江市","code":"231001","name":"市辖区"},{"area_code":"牡丹江市","code":"231001","name":"市辖区"},{"area_code":"牡丹江市","code":"231001","name":"市辖区"},{"area_code":"牡丹江市","code":"231001","name":"市辖区"},{"area_code":"牡丹江市","code":"231001","name":"市辖区"},{"area_code":"牡丹江市","code":"231001","name":"市辖区"},{"area_code":"牡丹江市","code":"231001","name":"市辖区"},{"area_code":"牡丹江市","code":"231001","name":"市辖区"},{"area_code":"牡丹江市","code":"231001","name":"市辖区"},{"area_code":"牡丹江市","code":"231001","name":"市辖区"},{"area_code":"七台河市","code":"230921","name":"勃利县"},{"area_code":"七台河市","code":"230921","name":"勃利县"},{"area_code":"七台河市","code":"230921","name":"勃利县"},{"area_code":"七台河市","code":"230921","name":"勃利县"},{"area_code":"七台河市","code":"230904","name":"茄子河区"},{"area_code":"七台河市","code":"230903","name":"桃山区"},{"area_code":"七台河市","code":"230903","name":"桃山区"},{"area_code":"七台河市","code":"230903","name":"桃山区"},{"area_code":"七台河市","code":"230902","name":"新兴区"},{"area_code":"七台河市","code":"230902","name":"新兴区"},{"area_code":"七台河市","code":"230902","name":"新兴区"},{"area_code":"佳木斯市","code":"230882","name":"富锦市"},{"area_code":"佳木斯市","code":"230882","name":"富锦市"},{"area_code":"佳木斯市","code":"230881","name":"同江市"},{"area_code":"佳木斯市","code":"230833","name":"抚远县"},{"area_code":"佳木斯市","code":"230828","name":"汤原县"},{"area_code":"佳木斯市","code":"230828","name":"汤原县"},{"area_code":"佳木斯市","code":"230826","name":"桦川县"},{"area_code":"佳木斯市","code":"230822","name":"桦南县"},{"area_code":"佳木斯市","code":"230822","name":"桦南县"},{"area_code":"佳木斯市","code":"230822","name":"桦南县"},{"area_code":"佳木斯市","code":"230822","name":"桦南县"},{"area_code":"佳木斯市","code":"230822","name":"桦南县"},{"area_code":"佳木斯市","code":"230822","name":"桦南县"},{"area_code":"佳木斯市","code":"230822","name":"桦南县"},{"area_code":"佳木斯市","code":"230811","name":"郊区"},{"area_code":"佳木斯市","code":"230801","name":"市辖区"},{"area_code":"佳木斯市","code":"230801","name":"市辖区"},{"area_code":"佳木斯市","code":"230801","name":"市辖区"},{"area_code":"佳木斯市","code":"230801","name":"市辖区"},{"area_code":"佳木斯市","code":"230801","name":"市辖区"},{"area_code":"佳木斯市","code":"230801","name":"市辖区"},{"area_code":"佳木斯市","code":"230801","name":"市辖区"},{"area_code":"佳木斯市","code":"230801","name":"市辖区"},{"area_code":"伊春市","code":"230702","name":"伊春区"},{"area_code":"伊春市","code":"230702","name":"伊春区"},{"area_code":"伊春市","code":"230702","name":"伊春区"},{"area_code":"伊春市","code":"230703","name":"南岔区"},{"area_code":"伊春市","code":"230703","name":"南岔区"},{"area_code":"伊春市","code":"230703","name":"南岔区"},{"area_code":"伊春市","code":"230704","name":"友好区"},{"area_code":"伊春市","code":"230705","name":"西林区"},{"area_code":"伊春市","code":"230707","name":"新青区"},{"area_code":"伊春市","code":"230781","name":"铁力市"},{"area_code":"伊春市","code":"230781","name":"铁力市"},{"area_code":"伊春市","code":"230781","name":"铁力市"},{"area_code":"伊春市","code":"230712","name":"汤旺河区"},{"area_code":"伊春市","code":"230713","name":"带岭区"},{"area_code":"伊春市","code":"230722","name":"嘉荫县"},{"area_code":"大庆市","code":"230624","name":"杜尔伯特蒙古族自治县"},{"area_code":"大庆市","code":"230624","name":"杜尔伯特蒙古族自治县"},{"area_code":"大庆市","code":"230623","name":"林甸县"},{"area_code":"大庆市","code":"230623","name":"林甸县"},{"area_code":"大庆市","code":"230622","name":"肇源县"},{"area_code":"大庆市","code":"230622","name":"肇源县"},{"area_code":"大庆市","code":"230622","name":"肇源县"},{"area_code":"大庆市","code":"230621","name":"肇州县"},{"area_code":"大庆市","code":"230621","name":"肇州县"},{"area_code":"大庆市","code":"230621","name":"肇州县"},{"area_code":"大庆市","code":"230606","name":"大同区"},{"area_code":"大庆市","code":"230606","name":"大同区"},{"area_code":"大庆市","code":"230605","name":"红岗区"},{"area_code":"大庆市","code":"230605","name":"红岗区"},{"area_code":"大庆市","code":"230605","name":"红岗区"},{"area_code":"大庆市","code":"230605","name":"红岗区"},{"area_code":"大庆市","code":"230604","name":"让胡路区"},{"area_code":"大庆市","code":"230604","name":"让胡路区"},{"area_code":"大庆市","code":"230604","name":"让胡路区"},{"area_code":"大庆市","code":"230604","name":"让胡路区"},{"area_code":"大庆市","code":"230604","name":"让胡路区"},{"area_code":"大庆市","code":"230604","name":"让胡路区"},{"area_code":"大庆市","code":"230604","name":"让胡路区"},{"area_code":"大庆市","code":"230604","name":"让胡路区"},{"area_code":"大庆市","code":"230604","name":"让胡路区"},{"area_code":"大庆市","code":"230603","name":"龙凤区"},{"area_code":"大庆市","code":"230603","name":"龙凤区"},{"area_code":"大庆市","code":"230603","name":"龙凤区"},{"area_code":"大庆市","code":"230603","name":"龙凤区"},{"area_code":"大庆市","code":"230602","name":"萨尔图区"},{"area_code":"大庆市","code":"230602","name":"萨尔图区"},{"area_code":"大庆市","code":"230602","name":"萨尔图区"},{"area_code":"大庆市","code":"230602","name":"萨尔图区"},{"area_code":"大庆市","code":"230602","name":"萨尔图区"},{"area_code":"双鸭山市","code":"230524","name":"饶河县"},{"area_code":"双鸭山市","code":"230524","name":"饶河县"},{"area_code":"双鸭山市","code":"230523","name":"宝清县"},{"area_code":"双鸭山市","code":"230523","name":"宝清县"},{"area_code":"双鸭山市","code":"230523","name":"宝清县"},{"area_code":"双鸭山市","code":"230523","name":"宝清县"},{"area_code":"双鸭山市","code":"230523","name":"宝清县"},{"area_code":"双鸭山市","code":"230522","name":"友谊县"},{"area_code":"双鸭山市","code":"230522","name":"友谊县"},{"area_code":"双鸭山市","code":"230522","name":"友谊县"},{"area_code":"双鸭山市","code":"230521","name":"集贤县"},{"area_code":"双鸭山市","code":"230521","name":"集贤县"},{"area_code":"双鸭山市","code":"230521","name":"集贤县"},{"area_code":"双鸭山市","code":"230521","name":"集贤县"},{"area_code":"双鸭山市","code":"230506","name":"宝山区"},{"area_code":"双鸭山市","code":"230502","name":"尖山区"},{"area_code":"双鸭山市","code":"230502","name":"尖山区"},{"area_code":"双鸭山市","code":"230502","name":"尖山区"},{"area_code":"双鸭山市","code":"230502","name":"尖山区"},{"area_code":"双鸭山市","code":"230502","name":"尖山区"},{"area_code":"鹤岗市","code":"230422","name":"绥滨县"},{"area_code":"鹤岗市","code":"230422","name":"绥滨县"},{"area_code":"鹤岗市","code":"230421","name":"萝北县"},{"area_code":"鹤岗市","code":"230421","name":"萝北县"},{"area_code":"鹤岗市","code":"230421","name":"萝北县"},{"area_code":"鹤岗市","code":"230421","name":"萝北县"},{"area_code":"鹤岗市","code":"230421","name":"萝北县"},{"area_code":"鹤岗市","code":"230421","name":"萝北县"},{"area_code":"鹤岗市","code":"230403","name":"工农区"},{"area_code":"鹤岗市","code":"230403","name":"工农区"},{"area_code":"鹤岗市","code":"230403","name":"工农区"},{"area_code":"鹤岗市","code":"230403","name":"工农区"},{"area_code":"鹤岗市","code":"230403","name":"工农区"},{"area_code":"鹤岗市","code":"230402","name":"向阳区"},{"area_code":"鹤岗市","code":"230402","name":"向阳区"},{"area_code":"鸡西市","code":"230382","name":"密山市"},{"area_code":"鸡西市","code":"230382","name":"密山市"},{"area_code":"鸡西市","code":"230382","name":"密山市"},{"area_code":"鸡西市","code":"230381","name":"虎林市"},{"area_code":"鸡西市","code":"230381","name":"虎林市"},{"area_code":"鸡西市","code":"230381","name":"虎林市"},{"area_code":"鸡西市","code":"230381","name":"虎林市"},{"area_code":"鸡西市","code":"230321","name":"鸡东县"},{"area_code":"鸡西市","code":"230321","name":"鸡东县"},{"area_code":"鸡西市","code":"230321","name":"鸡东县"},{"area_code":"鸡西市","code":"230321","name":"鸡东县"},{"area_code":"鸡西市","code":"230306","name":"城子河区"},{"area_code":"鸡西市","code":"230306","name":"城子河区"},{"area_code":"鸡西市","code":"230306","name":"梨树区"},{"area_code":"鸡西市","code":"230304","name":"滴道区"},{"area_code":"鸡西市","code":"230303","name":"恒山区"},{"area_code":"鸡西市","code":"230302","name":"鸡冠区"},{"area_code":"鸡西市","code":"230302","name":"鸡冠区"},{"area_code":"鸡西市","code":"230302","name":"鸡冠区"},{"area_code":"鸡西市","code":"230302","name":"鸡冠区"},{"area_code":"鸡西市","code":"230302","name":"鸡冠区"},{"area_code":"鸡西市","code":"230302","name":"鸡冠区"},{"area_code":"鸡西市","code":"230302","name":"鸡冠区"},{"area_code":"鸡西市","code":"230302","name":"鸡冠区"},{"area_code":"齐齐哈尔市","code":"230223","name":"依安县"},{"area_code":"齐齐哈尔市","code":"230223","name":"依安县"},{"area_code":"齐齐哈尔市","code":"230202","name":"龙沙区"},{"area_code":"齐齐哈尔市","code":"230202","name":"龙沙区"},{"area_code":"齐齐哈尔市","code":"230202","name":"龙沙区"},{"area_code":"齐齐哈尔市","code":"230202","name":"龙沙区"},{"area_code":"齐齐哈尔市","code":"230203","name":"建华区"},{"area_code":"齐齐哈尔市","code":"230203","name":"建华区"},{"area_code":"齐齐哈尔市","code":"230203","name":"建华区"},{"area_code":"齐齐哈尔市","code":"230203","name":"建华区"},{"area_code":"齐齐哈尔市","code":"230203","name":"建华区"},{"area_code":"齐齐哈尔市","code":"230203","name":"建华区"},{"area_code":"齐齐哈尔市","code":"230204","name":"铁锋区"},{"area_code":"齐齐哈尔市","code":"230204","name":"铁锋区"},{"area_code":"齐齐哈尔市","code":"230204","name":"铁锋区"},{"area_code":"齐齐哈尔市","code":"230204","name":"铁锋区"},{"area_code":"齐齐哈尔市","code":"230204","name":"铁锋区"},{"area_code":"齐齐哈尔市","code":"230205","name":"昂昂溪区"},{"area_code":"齐齐哈尔市","code":"230206","name":"富拉尔基区"},{"area_code":"齐齐哈尔市","code":"230206","name":"富拉尔基区"},{"area_code":"齐齐哈尔市","code":"230206","name":"富拉尔基区"},{"area_code":"齐齐哈尔市","code":"230206","name":"富拉尔基区"},{"area_code":"齐齐哈尔市","code":"230207","name":"碾子山区"},{"area_code":"齐齐哈尔市","code":"230221","name":"龙江县"},{"area_code":"齐齐哈尔市","code":"230221","name":"龙江县"},{"area_code":"齐齐哈尔市","code":"230221","name":"龙江县"},{"area_code":"齐齐哈尔市","code":"230281","name":"讷河市"},{"area_code":"齐齐哈尔市","code":"230281","name":"讷河市"},{"area_code":"齐齐哈尔市","code":"230281","name":"讷河市"},{"area_code":"齐齐哈尔市","code":"230281","name":"讷河市"},{"area_code":"齐齐哈尔市","code":"230281","name":"讷河市"},{"area_code":"齐齐哈尔市","code":"230224","name":"泰来县"},{"area_code":"齐齐哈尔市","code":"230224","name":"泰来县"},{"area_code":"齐齐哈尔市","code":"230225","name":"甘南县"},{"area_code":"齐齐哈尔市","code":"230225","name":"甘南县"},{"area_code":"齐齐哈尔市","code":"230225","name":"甘南县"},{"area_code":"齐齐哈尔市","code":"230225","name":"甘南县"},{"area_code":"齐齐哈尔市","code":"230227","name":"富裕县"},{"area_code":"齐齐哈尔市","code":"230227","name":"富裕县"},{"area_code":"齐齐哈尔市","code":"230229","name":"克山县"},{"area_code":"齐齐哈尔市","code":"230229","name":"克山县"},{"area_code":"齐齐哈尔市","code":"230229","name":"克山县"},{"area_code":"齐齐哈尔市","code":"230229","name":"克山县"},{"area_code":"齐齐哈尔市","code":"230229","name":"克山县"},{"area_code":"齐齐哈尔市","code":"230230","name":"克东县"},{"area_code":"齐齐哈尔市","code":"230231","name":"拜泉县"},{"area_code":"齐齐哈尔市","code":"230231","name":"拜泉县"},{"area_code":"齐齐哈尔市","code":"230208","name":"梅里斯达斡尔族区"},{"area_code":"保定市","code":"130634","name":"曲阳县"},{"area_code":"保定市","code":"130634","name":"曲阳县"},{"area_code":"保定市","code":"130634","name":"曲阳县"},{"area_code":"保定市","code":"130635","name":"蠡县"},{"area_code":"保定市","code":"130635","name":"蠡县"},{"area_code":"保定市","code":"130635","name":"蠡县"},{"area_code":"保定市","code":"130635","name":"蠡县"},{"area_code":"保定市","code":"130635","name":"蠡县"},{"area_code":"保定市","code":"130636","name":"顺平县"},{"area_code":"保定市","code":"130636","name":"顺平县"},{"area_code":"保定市","code":"130636","name":"顺平县"},{"area_code":"保定市","code":"130637","name":"博野县"},{"area_code":"保定市","code":"130638","name":"雄县"},{"area_code":"保定市","code":"130681","name":"涿州市"},{"area_code":"保定市","code":"130681","name":"涿州市"},{"area_code":"保定市","code":"130681","name":"涿州市"},{"area_code":"保定市","code":"130681","name":"涿州市"},{"area_code":"保定市","code":"130681","name":"涿州市"},{"area_code":"保定市","code":"130681","name":"涿州市"},{"area_code":"保定市","code":"130681","name":"涿州市"},{"area_code":"保定市","code":"130682","name":"定州市"},{"area_code":"保定市","code":"130682","name":"定州市"},{"area_code":"保定市","code":"130682","name":"定州市"},{"area_code":"保定市","code":"130682","name":"定州市"},{"area_code":"保定市","code":"130682","name":"定州市"},{"area_code":"保定市","code":"130682","name":"定州市"},{"area_code":"保定市","code":"130682","name":"定州市"},{"area_code":"保定市","code":"130682","name":"定州市"},{"area_code":"保定市","code":"130682","name":"定州市"},{"area_code":"保定市","code":"130682","name":"定州市"},{"area_code":"保定市","code":"130682","name":"定州市"},{"area_code":"保定市","code":"130683","name":"安国市"},{"area_code":"保定市","code":"130683","name":"安国市"},{"area_code":"保定市","code":"130684","name":"高碑店市"},{"area_code":"保定市","code":"130684","name":"高碑店市"},{"area_code":"保定市","code":"130684","name":"高碑店市"},{"area_code":"保定市","code":"130684","name":"高碑店市"},{"area_code":"张家口市","code":"130701","name":"市辖区"},{"area_code":"张家口市","code":"130701","name":"市辖区"},{"area_code":"张家口市","code":"130701","name":"市辖区"},{"area_code":"张家口市","code":"130701","name":"市辖区"},{"area_code":"张家口市","code":"130701","name":"市辖区"},{"area_code":"张家口市","code":"130701","name":"市辖区"},{"area_code":"张家口市","code":"130701","name":"市辖区"},{"area_code":"张家口市","code":"130701","name":"市辖区"},{"area_code":"张家口市","code":"130701","name":"市辖区"},{"area_code":"张家口市","code":"130701","name":"市辖区"},{"area_code":"张家口市","code":"130701","name":"市辖区"},{"area_code":"张家口市","code":"130701","name":"市辖区"},{"area_code":"张家口市","code":"130701","name":"市辖区"},{"area_code":"张家口市","code":"130701","name":"市辖区"},{"area_code":"张家口市","code":"130701","name":"市辖区"},{"area_code":"张家口市","code":"130701","name":"市辖区"},{"area_code":"张家口市","code":"130701","name":"市辖区"},{"area_code":"张家口市","code":"130701","name":"市辖区"},{"area_code":"张家口市","code":"130722","name":"张北县"},{"area_code":"张家口市","code":"130722","name":"张北县"},{"area_code":"张家口市","code":"130723","name":"康保县"},{"area_code":"张家口市","code":"130723","name":"康保县"},{"area_code":"张家口市","code":"130724","name":"沽源县"},{"area_code":"张家口市","code":"130725","name":"尚义县"},{"area_code":"张家口市","code":"130726","name":"蔚县"},{"area_code":"张家口市","code":"130726","name":"蔚县"},{"area_code":"张家口市","code":"130727","name":"阳原县"},{"area_code":"张家口市","code":"130728","name":"怀安县"},{"area_code":"张家口市","code":"130729","name":"万全县"},{"area_code":"张家口市","code":"130730","name":"怀来县"},{"area_code":"张家口市","code":"130730","name":"怀来县"},{"area_code":"张家口市","code":"130730","name":"怀来县"},{"area_code":"张家口市","code":"130730","name":"怀来县"},{"area_code":"张家口市","code":"130731","name":"涿鹿县"},{"area_code":"张家口市","code":"130731","name":"涿鹿县"},{"area_code":"张家口市","code":"130732","name":"赤城县"},{"area_code":"张家口市","code":"130732","name":"赤城县"},{"area_code":"张家口市","code":"130733","name":"崇礼县"},{"area_code":"承德市","code":"130802","name":"双桥区"},{"area_code":"承德市","code":"130803","name":"双滦区"},{"area_code":"承德市","code":"130804","name":"鹰手营区"},{"area_code":"承德市","code":"130804","name":"鹰手营区"},{"area_code":"承德市","code":"130804","name":"鹰手营区"},{"area_code":"承德市","code":"130821","name":"承德县"},{"area_code":"承德市","code":"130821","name":"承德县"},{"area_code":"承德市","code":"130821","name":"承德县"},{"area_code":"承德市","code":"130821","name":"承德县"},{"area_code":"承德市","code":"130822","name":"兴隆县"},{"area_code":"承德市","code":"130822","name":"兴隆县"},{"area_code":"承德市","code":"130823","name":"平泉县"},{"area_code":"承德市","code":"130823","name":"平泉县"},{"area_code":"承德市","code":"130823","name":"平泉县"},{"area_code":"承德市","code":"130823","name":"平泉县"},{"area_code":"承德市","code":"130824","name":"滦平县"},{"area_code":"承德市","code":"130824","name":"滦平县"},{"area_code":"承德市","code":"130825","name":"隆化县"},{"area_code":"承德市","code":"130825","name":"隆化县"},{"area_code":"承德市","code":"130825","name":"隆化县"},{"area_code":"承德市","code":"130825","name":"隆化县"},{"area_code":"承德市","code":"130826","name":"丰宁县"},{"area_code":"承德市","code":"130826","name":"丰宁县"},{"area_code":"承德市","code":"130827","name":"宽城县"},{"area_code":"承德市","code":"130827","name":"宽城县"},{"area_code":"承德市","code":"130827","name":"宽城县"},{"area_code":"承德市","code":"130828","name":"围场县"},{"area_code":"承德市","code":"130828","name":"围场县"},{"area_code":"承德市","code":"130828","name":"围场县"},{"area_code":"承德市","code":"130828","name":"围场县"},{"area_code":"沧州市","code":"130901","name":"市辖区"},{"area_code":"沧州市","code":"130901","name":"市辖区"},{"area_code":"沧州市","code":"130901","name":"市辖区"},{"area_code":"沧州市","code":"130901","name":"市辖区"},{"area_code":"沧州市","code":"130901","name":"市辖区"},{"area_code":"沧州市","code":"130901","name":"市辖区"},{"area_code":"沧州市","code":"130901","name":"市辖区"},{"area_code":"沧州市","code":"130901","name":"市辖区"},{"area_code":"沧州市","code":"130902","name":"新华区"},{"area_code":"沧州市","code":"130902","name":"新华区"},{"area_code":"沧州市","code":"130902","name":"新华区"},{"area_code":"沧州市","code":"130902","name":"新华区"},{"area_code":"沧州市","code":"130902","name":"新华区"},{"area_code":"沧州市","code":"130903","name":"运河区"},{"area_code":"沧州市","code":"130903","name":"运河区"},{"area_code":"沧州市","code":"130921","name":"沧县"},{"area_code":"沧州市","code":"130921","name":"沧县"},{"area_code":"沧州市","code":"130921","name":"沧县"},{"area_code":"沧州市","code":"130921","name":"沧县"},{"area_code":"沧州市","code":"130921","name":"沧县"},{"area_code":"沧州市","code":"130922","name":"青县"},{"area_code":"沧州市","code":"130922","name":"青县"},{"area_code":"沧州市","code":"130922","name":"青县"},{"area_code":"沧州市","code":"130922","name":"青县"},{"area_code":"沧州市","code":"130922","name":"青县"},{"area_code":"沧州市","code":"130922","name":"青县"},{"area_code":"沧州市","code":"130923","name":"东光县"},{"area_code":"沧州市","code":"130923","name":"东光县"},{"area_code":"沧州市","code":"130924","name":"海兴县"},{"area_code":"沧州市","code":"130925","name":"盐山县"},{"area_code":"沧州市","code":"130925","name":"盐山县"},{"area_code":"沧州市","code":"130926","name":"肃宁县"},{"area_code":"沧州市","code":"130926","name":"肃宁县"},{"area_code":"沧州市","code":"130927","name":"南皮县"},{"area_code":"沧州市","code":"130927","name":"南皮县"},{"area_code":"沧州市","code":"130927","name":"南皮县"},{"area_code":"沧州市","code":"130927","name":"南皮县"},{"area_code":"沧州市","code":"130928","name":"吴桥县"},{"area_code":"沧州市","code":"130928","name":"吴桥县"},{"area_code":"沧州市","code":"130929","name":"献县"},{"area_code":"沧州市","code":"130929","name":"献县"},{"area_code":"沧州市","code":"130929","name":"献县"},{"area_code":"沧州市","code":"130929","name":"献县"},{"area_code":"沧州市","code":"130929","name":"献县"},{"area_code":"沧州市","code":"130930","name":"孟村县"},{"area_code":"沧州市","code":"130981","name":"泊头市"},{"area_code":"沧州市","code":"130981","name":"泊头市"},{"area_code":"沧州市","code":"130981","name":"泊头市"},{"area_code":"沧州市","code":"130981","name":"泊头市"},{"area_code":"沧州市","code":"130981","name":"泊头市"},{"area_code":"沧州市","code":"130981","name":"泊头市"},{"area_code":"沧州市","code":"130982","name":"任丘市"},{"area_code":"沧州市","code":"130982","name":"任丘市"},{"area_code":"沧州市","code":"130982","name":"任丘市"},{"area_code":"沧州市","code":"130982","name":"任丘市"},{"area_code":"沧州市","code":"130982","name":"任丘市"},{"area_code":"沧州市","code":"130982","name":"任丘市"},{"area_code":"沧州市","code":"130982","name":"任丘市"},{"area_code":"沧州市","code":"130982","name":"任丘市"},{"area_code":"沧州市","code":"130983","name":"黄骅市"},{"area_code":"沧州市","code":"130983","name":"黄骅市"},{"area_code":"沧州市","code":"130983","name":"黄骅市"},{"area_code":"沧州市","code":"130983","name":"黄骅市"},{"area_code":"沧州市","code":"130983","name":"黄骅市"},{"area_code":"沧州市","code":"130984","name":"河间市"},{"area_code":"沧州市","code":"130984","name":"河间市"},{"area_code":"沧州市","code":"130984","name":"河间市"},{"area_code":"沧州市","code":"130984","name":"河间市"},{"area_code":"沧州市","code":"130984","name":"河间市"},{"area_code":"沧州市","code":"130984","name":"河间市"},{"area_code":"廊坊市","code":"131001","name":"市辖区"},{"area_code":"廊坊市","code":"131001","name":"市辖区"},{"area_code":"廊坊市","code":"131001","name":"市辖区"},{"area_code":"廊坊市","code":"131001","name":"市辖区"},{"area_code":"廊坊市","code":"131001","name":"市辖区"},{"area_code":"廊坊市","code":"131001","name":"市辖区"},{"area_code":"廊坊市","code":"131001","name":"市辖区"},{"area_code":"廊坊市","code":"131002","name":"安次区"},{"area_code":"廊坊市","code":"131003","name":"广阳区"},{"area_code":"廊坊市","code":"131003","name":"广阳区"},{"area_code":"廊坊市","code":"131022","name":"固安县"},{"area_code":"廊坊市","code":"131022","name":"固安县"},{"area_code":"廊坊市","code":"131022","name":"固安县"},{"area_code":"廊坊市","code":"131022","name":"固安县"},{"area_code":"廊坊市","code":"131023","name":"永清县"},{"area_code":"廊坊市","code":"131024","name":"香河县"},{"area_code":"廊坊市","code":"131024","name":"香河县"},{"area_code":"廊坊市","code":"131024","name":"香河县"},{"area_code":"廊坊市","code":"131025","name":"大城县"},{"area_code":"廊坊市","code":"131025","name":"大城县"},{"area_code":"廊坊市","code":"131026","name":"文安县"},{"area_code":"廊坊市","code":"131026","name":"文安县"},{"area_code":"廊坊市","code":"131028","name":"大厂县"},{"area_code":"廊坊市","code":"131028","name":"大厂县"},{"area_code":"廊坊市","code":"131081","name":"霸州市"},{"area_code":"廊坊市","code":"131081","name":"霸州市"},{"area_code":"廊坊市","code":"131081","name":"霸州市"},{"area_code":"廊坊市","code":"131081","name":"霸州市"},{"area_code":"廊坊市","code":"131081","name":"霸州市"},{"area_code":"廊坊市","code":"131082","name":"三河市"},{"area_code":"廊坊市","code":"131082","name":"三河市"},{"area_code":"廊坊市","code":"131082","name":"三河市"},{"area_code":"衡水市","code":"131102","name":"桃城区"},{"area_code":"衡水市","code":"131102","name":"桃城区"},{"area_code":"衡水市","code":"131102","name":"桃城区"},{"area_code":"衡水市","code":"131102","name":"桃城区"},{"area_code":"衡水市","code":"131102","name":"桃城区"},{"area_code":"衡水市","code":"131102","name":"桃城区"},{"area_code":"衡水市","code":"131121","name":"枣强县"},{"area_code":"衡水市","code":"131121","name":"枣强县"},{"area_code":"衡水市","code":"131121","name":"枣强县"},{"area_code":"衡水市","code":"131122","name":"武邑县"},{"area_code":"衡水市","code":"131122","name":"武邑县"},{"area_code":"衡水市","code":"131122","name":"武邑县"},{"area_code":"衡水市","code":"131122","name":"武邑县"},{"area_code":"衡水市","code":"131123","name":"武强县"},{"area_code":"衡水市","code":"131124","name":"饶阳县"},{"area_code":"衡水市","code":"131125","name":"安平县"},{"area_code":"衡水市","code":"131125","name":"安平县"},{"area_code":"衡水市","code":"131125","name":"安平县"},{"area_code":"衡水市","code":"131126","name":"故城县"},{"area_code":"衡水市","code":"131126","name":"故城县"},{"area_code":"衡水市","code":"131127","name":"景县"},{"area_code":"衡水市","code":"131127","name":"景县"},{"area_code":"衡水市","code":"131127","name":"景县"},{"area_code":"衡水市","code":"131128","name":"阜城县"},{"area_code":"衡水市","code":"131128","name":"阜城县"},{"area_code":"衡水市","code":"131181","name":"冀州市"},{"area_code":"衡水市","code":"131181","name":"冀州市"},{"area_code":"衡水市","code":"131181","name":"冀州市"},{"area_code":"衡水市","code":"131182","name":"深州市"},{"area_code":"衡水市","code":"131182","name":"深州市"},{"area_code":"衡水市","code":"131182","name":"深州市"}]