[{"area_code":"香港","code":"810000","name":"中西区"},{"area_code":"香港","code":"810000","name":"中西区"},{"area_code":"香港","code":"810000","name":"中西区"},{"area_code":"香港","code":"810000","name":"中西区"},{"area_code":"香港","code":"810000","name":"中西区"},{"area_code":"香港","code":"810000","name":"中西区"},{"area_code":"香港","code":"810000","name":"中西区"},{"area_code":"香港","code":"810000","name":"中西区"},{"area_code":"香港","code":"810000","name":"中西区"},{"area_code":"香港","code":"810000","name":"中西区"},{"area_code":"香港","code":"810000","name":"中西区"},{"area_code":"香港","code":"810000","name":"中西区"},{"area_code":"香港","code":"810000","name":"中西区"},{"area_code":"香港","code":"810000","name":"中西区"},{"area_code":"香港","code":"810000","name":"中西区"},{"area_code":"香港","code":"810000","name":"中西区"},{"area_code":"香港","code":"810000","name":"中西区"},{"area_code":"香港","code":"810000","name":"湾仔区"},{"area_code":"香港","code":"810000","name":"湾仔区"},{"area_code":"香港","code":"810000","name":"湾仔区"},{"area_code":"香港","code":"810000","name":"湾仔区"},{"area_code":"香港","code":"810000","name":"湾仔区"},{"area_code":"香港","code":"810000","name":"湾仔区"},{"area_code":"香港","code":"810000","name":"湾仔区"},{"area_code":"香港","code":"810000","name":"湾仔区"},{"area_code":"香港","code":"810000","name":"湾仔区"},{"area_code":"香港","code":"810000","name":"湾仔区"},{"area_code":"香港","code":"810000","name":"湾仔区"},{"area_code":"香港","code":"810000","name":"湾仔区"},{"area_code":"香港","code":"810000","name":"湾仔区"},{"area_code":"香港","code":"810000","name":"湾仔区"},{"area_code":"香港","code":"810000","name":"湾仔区"},{"area_code":"香港","code":"810000","name":"湾仔区"},{"area_code":"香港","code":"810000","name":"湾仔区"},{"area_code":"香港","code":"810000","name":"湾仔区"},{"area_code":"香港","code":"810000","name":"湾仔区"},{"area_code":"香港","code":"810000","name":"湾仔区"},{"area_code":"香港","code":"810000","name":"湾仔区"},{"area_code":"香港","code":"810000","name":"东区"},{"area_code":"香港","code":"810000","name":"东区"},{"area_code":"香港","code":"810000","name":"东区"},{"area_code":"香港","code":"810000","name":"东区"},{"area_code":"香港","code":"810000","name":"东区"},{"area_code":"香港","code":"810000","name":"东区"},{"area_code":"香港","code":"810000","name":"东区"},{"area_code":"香港","code":"810000","name":"东区"},{"area_code":"香港","code":"810000","name":"东区"},{"area_code":"香港","code":"810000","name":"东区"},{"area_code":"香港","code":"810000","name":"东区"},{"area_code":"香港","code":"810000","name":"东区"},{"area_code":"香港","code":"810000","name":"东区"},{"area_code":"香港","code":"810000","name":"东区"},{"area_code":"香港","code":"810000","name":"东区"},{"area_code":"香港","code":"810000","name":"东区"},{"area_code":"香港","code":"810000","name":"东区"},{"area_code":"香港","code":"810000","name":"东区"},{"area_code":"香港","code":"810000","name":"东区"},{"area_code":"香港","code":"810000","name":"东区"},{"area_code":"香港","code":"810000","name":"东区"},{"area_code":"香港","code":"810000","name":"东区"},{"area_code":"香港","code":"810000","name":"东区"},{"area_code":"香港","code":"810000","name":"东区"},{"area_code":"香港","code":"810000","name":"东区"},{"area_code":"香港","code":"810000","name":"东区"},{"area_code":"香港","code":"810000","name":"东区"},{"area_code":"香港","code":"810000","name":"东区"},{"area_code":"香港","code":"810000","name":"东区"},{"area_code":"香港","code":"810000","name":"东区"},{"area_code":"香港","code":"810000","name":"东区"},{"area_code":"香港","code":"810000","name":"东区"},{"area_code":"香港","code":"810000","name":"东区"},{"area_code":"香港","code":"810000","name":"东区"},{"area_code":"香港","code":"810000","name":"东区"},{"area_code":"香港","code":"810000","name":"东区"},{"area_code":"香港","code":"810000","name":"东区"},{"area_code":"香港","code":"810000","name":"东区"},{"area_code":"香港","code":"810000","name":"东区"},{"area_code":"香港","code":"810000","name":"东区"},{"area_code":"香港","code":"810000","name":"东区"},{"area_code":"香港","code":"810000","name":"东区"},{"area_code":"香港","code":"810000","name":"南区"},{"area_code":"香港","code":"810000","name":"南区"},{"area_code":"香港","code":"810000","name":"南区"},{"area_code":"香港","code":"810000","name":"南区"},{"area_code":"香港","code":"810000","name":"南区"},{"area_code":"香港","code":"810000","name":"南区"},{"area_code":"香港","code":"810000","name":"南区"},{"area_code":"香港","code":"810000","name":"南区"},{"area_code":"香港","code":"810000","name":"南区"},{"area_code":"香港","code":"810000","name":"南区"},{"area_code":"香港","code":"810000","name":"南区"},{"area_code":"香港","code":"810000","name":"南区"},{"area_code":"香港","code":"810000","name":"南区"},{"area_code":"香港","code":"810000","name":"南区"},{"area_code":"香港","code":"810000","name":"南区"},{"area_code":"香港","code":"810000","name":"南区"},{"area_code":"香港","code":"810000","name":"南区"},{"area_code":"香港","code":"810000","name":"南区"},{"area_code":"香港","code":"810000","name":"南区"},{"area_code":"香港","code":"810001","name":"南区"},{"area_code":"香港","code":"810001","name":"南区"},{"area_code":"香港","code":"810001","name":"南区"},{"area_code":"香港","code":"810001","name":"南区"},{"area_code":"香港","code":"810001","name":"南区"},{"area_code":"香港","code":"810001","name":"南区"},{"area_code":"香港","code":"810001","name":"南区"},{"area_code":"香港","code":"810001","name":"南区"},{"area_code":"香港","code":"810001","name":"南区"},{"area_code":"香港","code":"810001","name":"南区"},{"area_code":"香港","code":"810001","name":"南区"},{"area_code":"九龙","code":"810001","name":"油尖旺区"},{"area_code":"九龙","code":"810001","name":"油尖旺区"},{"area_code":"九龙","code":"810001","name":"油尖旺区"},{"area_code":"九龙","code":"810001","name":"油尖旺区"},{"area_code":"九龙","code":"810001","name":"油尖旺区"},{"area_code":"九龙","code":"810001","name":"油尖旺区"},{"area_code":"九龙","code":"810001","name":"油尖旺区"},{"area_code":"九龙","code":"810001","name":"油尖旺区"},{"area_code":"九龙","code":"810001","name":"油尖旺区"},{"area_code":"九龙","code":"810001","name":"油尖旺区"},{"area_code":"九龙","code":"810001","name":"油尖旺区"},{"area_code":"九龙","code":"810001","name":"油尖旺区"},{"area_code":"九龙","code":"810001","name":"油尖旺区"},{"area_code":"九龙","code":"810001","name":"油尖旺区"},{"area_code":"九龙","code":"810001","name":"油尖旺区"},{"area_code":"九龙","code":"810001","name":"油尖旺区"},{"area_code":"九龙","code":"810001","name":"油尖旺区"},{"area_code":"九龙","code":"810001","name":"油尖旺区"},{"area_code":"九龙","code":"810001","name":"油尖旺区"},{"area_code":"九龙","code":"810001","name":"油尖旺区"},{"area_code":"九龙","code":"810001","name":"油尖旺区"},{"area_code":"九龙","code":"810001","name":"油尖旺区"},{"area_code":"九龙","code":"810001","name":"油尖旺区"},{"area_code":"九龙","code":"810001","name":"油尖旺区"},{"area_code":"九龙","code":"810001","name":"深水埗区"},{"area_code":"九龙","code":"810001","name":"深水埗区"},{"area_code":"九龙","code":"810001","name":"深水埗区"},{"area_code":"九龙","code":"810001","name":"深水埗区"},{"area_code":"九龙","code":"810001","name":"深水埗区"},{"area_code":"九龙","code":"810001","name":"深水埗区"},{"area_code":"九龙","code":"810001","name":"深水埗区"},{"area_code":"九龙","code":"810001","name":"深水埗区"},{"area_code":"九龙","code":"810001","name":"深水埗区"},{"area_code":"九龙","code":"810001","name":"深水埗区"},{"area_code":"九龙","code":"810001","name":"深水埗区"},{"area_code":"九龙","code":"810001","name":"深水埗区"},{"area_code":"九龙","code":"810001","name":"深水埗区"},{"area_code":"九龙","code":"810001","name":"深水埗区"},{"area_code":"九龙","code":"810001","name":"深水埗区"},{"area_code":"九龙","code":"810001","name":"深水埗区"},{"area_code":"九龙","code":"810001","name":"深水埗区"},{"area_code":"九龙","code":"810001","name":"深水埗区"},{"area_code":"九龙","code":"810001","name":"深水埗区"},{"area_code":"九龙","code":"810001","name":"深水埗区"},{"area_code":"九龙","code":"810001","name":"深水埗区"},{"area_code":"九龙","code":"810001","name":"深水埗区"},{"area_code":"九龙","code":"810001","name":"深水埗区"},{"area_code":"九龙","code":"810001","name":"深水埗区"},{"area_code":"九龙","code":"810001","name":"深水埗区"},{"area_code":"九龙","code":"810001","name":"深水埗区"},{"area_code":"九龙","code":"810001","name":"深水埗区"},{"area_code":"九龙","code":"810001","name":"深水埗区"},{"area_code":"九龙","code":"810001","name":"深水埗区"},{"area_code":"九龙","code":"810001","name":"深水埗区"},{"area_code":"九龙","code":"810001","name":"深水埗区"},{"area_code":"九龙","code":"810001","name":"深水埗区"},{"area_code":"九龙","code":"810001","name":"深水埗区"},{"area_code":"九龙","code":"810001","name":"深水埗区"},{"area_code":"九龙","code":"810001","name":"深水埗区"},{"area_code":"九龙","code":"810001","name":"深水埗区"},{"area_code":"九龙","code":"810001","name":"深水埗区"},{"area_code":"九龙","code":"810001","name":"深水埗区"},{"area_code":"九龙","code":"810001","name":"深水埗区"},{"area_code":"九龙","code":"810001","name":"深水埗区"},{"area_code":"九龙","code":"810001","name":"深水埗区"},{"area_code":"九龙","code":"810001","name":"深水埗区"},{"area_code":"九龙","code":"810001","name":"九龙城区"},{"area_code":"九龙","code":"810001","name":"九龙城区"},{"area_code":"九龙","code":"810001","name":"九龙城区"},{"area_code":"九龙","code":"810001","name":"九龙城区"},{"area_code":"九龙","code":"810001","name":"九龙城区"},{"area_code":"九龙","code":"810001","name":"九龙城区"},{"area_code":"九龙","code":"810001","name":"九龙城区"},{"area_code":"九龙","code":"810001","name":"九龙城区"},{"area_code":"九龙","code":"810001","name":"九龙城区"},{"area_code":"九龙","code":"810001","name":"九龙城区"},{"area_code":"九龙","code":"810001","name":"九龙城区"},{"area_code":"九龙","code":"810001","name":"九龙城区"},{"area_code":"九龙","code":"810001","name":"九龙城区"},{"area_code":"九龙","code":"810001","name":"九龙城区"},{"area_code":"九龙","code":"810001","name":"九龙城区"},{"area_code":"九龙","code":"810001","name":"九龙城区"},{"area_code":"九龙","code":"810001","name":"九龙城区"},{"area_code":"九龙","code":"810001","name":"九龙城区"},{"area_code":"九龙","code":"810001","name":"九龙城区"},{"area_code":"九龙","code":"810001","name":"九龙城区"},{"area_code":"九龙","code":"810001","name":"九龙城区"},{"area_code":"九龙","code":"810001","name":"九龙城区"},{"area_code":"九龙","code":"810001","name":"九龙城区"},{"area_code":"九龙","code":"810002","name":"九龙城区"},{"area_code":"九龙","code":"810002","name":"九龙城区"},{"area_code":"九龙","code":"810002","name":"九龙城区"},{"area_code":"九龙","code":"810002","name":"九龙城区"},{"area_code":"九龙","code":"810002","name":"九龙城区"},{"area_code":"九龙","code":"810002","name":"九龙城区"},{"area_code":"九龙","code":"810002","name":"九龙城区"},{"area_code":"九龙","code":"810002","name":"九龙城区"},{"area_code":"九龙","code":"810002","name":"九龙城区"},{"area_code":"九龙","code":"810002","name":"九龙城区"},{"area_code":"九龙","code":"810002","name":"九龙城区"},{"area_code":"九龙","code":"810002","name":"九龙城区"},{"area_code":"九龙","code":"810002","name":"九龙城区"},{"area_code":"九龙","code":"810002","name":"九龙城区"},{"area_code":"九龙","code":"810002","name":"九龙城区"},{"area_code":"九龙","code":"810002","name":"九龙城区"},{"area_code":"九龙","code":"810002","name":"九龙城区"},{"area_code":"九龙","code":"810002","name":"九龙城区"},{"area_code":"九龙","code":"810002","name":"九龙城区"},{"area_code":"九龙","code":"810002","name":"九龙城区"},{"area_code":"九龙","code":"810002","name":"九龙城区"},{"area_code":"九龙","code":"810002","name":"黄大仙区"},{"area_code":"九龙","code":"810002","name":"黄大仙区"},{"area_code":"九龙","code":"810002","name":"黄大仙区"},{"area_code":"九龙","code":"810002","name":"黄大仙区"},{"area_code":"九龙","code":"810002","name":"黄大仙区"},{"area_code":"九龙","code":"810002","name":"黄大仙区"},{"area_code":"九龙","code":"810002","name":"黄大仙区"},{"area_code":"九龙","code":"810002","name":"黄大仙区"},{"area_code":"九龙","code":"810002","name":"黄大仙区"},{"area_code":"九龙","code":"810002","name":"黄大仙区"},{"area_code":"九龙","code":"810002","name":"黄大仙区"},{"area_code":"九龙","code":"810002","name":"黄大仙区"},{"area_code":"九龙","code":"810002","name":"黄大仙区"},{"area_code":"九龙","code":"810002","name":"黄大仙区"},{"area_code":"九龙","code":"810002","name":"黄大仙区"},{"area_code":"九龙","code":"810002","name":"黄大仙区"},{"area_code":"九龙","code":"810002","name":"黄大仙区"},{"area_code":"九龙","code":"810002","name":"黄大仙区"},{"area_code":"九龙","code":"810002","name":"黄大仙区"},{"area_code":"九龙","code":"810002","name":"黄大仙区"},{"area_code":"九龙","code":"810002","name":"黄大仙区"},{"area_code":"九龙","code":"810002","name":"黄大仙区"},{"area_code":"九龙","code":"810002","name":"黄大仙区"},{"area_code":"九龙","code":"810002","name":"黄大仙区"},{"area_code":"九龙","code":"810002","name":"黄大仙区"},{"area_code":"九龙","code":"810002","name":"黄大仙区"},{"area_code":"九龙","code":"810002","name":"黄大仙区"},{"area_code":"九龙","code":"810002","name":"黄大仙区"},{"area_code":"九龙","code":"810002","name":"黄大仙区"},{"area_code":"九龙","code":"810002","name":"黄大仙区"},{"area_code":"九龙","code":"810002","name":"黄大仙区"},{"area_code":"九龙","code":"810002","name":"黄大仙区"},{"area_code":"九龙","code":"810002","name":"黄大仙区"},{"area_code":"九龙","code":"810002","name":"观塘区"},{"area_code":"九龙","code":"810002","name":"观塘区"},{"area_code":"九龙","code":"810002","name":"观塘区"},{"area_code":"九龙","code":"810002","name":"观塘区"},{"area_code":"九龙","code":"810002","name":"观塘区"},{"area_code":"九龙","code":"810002","name":"观塘区"},{"area_code":"九龙","code":"810002","name":"观塘区"},{"area_code":"九龙","code":"810002","name":"观塘区"},{"area_code":"九龙","code":"810002","name":"观塘区"},{"area_code":"九龙","code":"810002","name":"观塘区"},{"area_code":"九龙","code":"810002","name":"观塘区"},{"area_code":"九龙","code":"810002","name":"观塘区"},{"area_code":"九龙","code":"810002","name":"观塘区"},{"area_code":"九龙","code":"810002","name":"观塘区"},{"area_code":"九龙","code":"810002","name":"观塘区"},{"area_code":"九龙","code":"810002","name":"观塘区"},{"area_code":"九龙","code":"810002","name":"观塘区"},{"area_code":"九龙","code":"810002","name":"观塘区"},{"area_code":"九龙","code":"810002","name":"观塘区"},{"area_code":"九龙","code":"810002","name":"观塘区"},{"area_code":"九龙","code":"810002","name":"观塘区"},{"area_code":"九龙","code":"810002","name":"观塘区"},{"area_code":"九龙","code":"810002","name":"观塘区"},{"area_code":"九龙","code":"810002","name":"观塘区"},{"area_code":"九龙","code":"810002","name":"观塘区"},{"area_code":"九龙","code":"810002","name":"观塘区"},{"area_code":"九龙","code":"810002","name":"观塘区"},{"area_code":"九龙","code":"810002","name":"观塘区"},{"area_code":"九龙","code":"810002","name":"观塘区"},{"area_code":"九龙","code":"810002","name":"观塘区"},{"area_code":"九龙","code":"810002","name":"观塘区"},{"area_code":"九龙","code":"810002","name":"观塘区"},{"area_code":"九龙","code":"810002","name":"观塘区"},{"area_code":"九龙","code":"810002","name":"观塘区"},{"area_code":"九龙","code":"810002","name":"观塘区"},{"area_code":"九龙","code":"810002","name":"观塘区"},{"area_code":"九龙","code":"810002","name":"观塘区"},{"area_code":"九龙","code":"810002","name":"观塘区"},{"area_code":"九龙","code":"810002","name":"观塘区"},{"area_code":"九龙","code":"810002","name":"观塘区"},{"area_code":"九龙","code":"810002","name":"观塘区"},{"area_code":"九龙","code":"810002","name":"观塘区"},{"area_code":"新界","code":"810002","name":"荃湾区"},{"area_code":"新界","code":"810002","name":"荃湾区"},{"area_code":"新界","code":"810002","name":"荃湾区"},{"area_code":"新界","code":"810002","name":"荃湾区"},{"area_code":"新界","code":"810003","name":"荃湾区"},{"area_code":"新界","code":"810003","name":"荃湾区"},{"area_code":"新界","code":"810003","name":"荃湾区"},{"area_code":"新界","code":"810003","name":"荃湾区"},{"area_code":"新界","code":"810003","name":"荃湾区"},{"area_code":"新界","code":"810003","name":"荃湾区"},{"area_code":"新界","code":"810003","name":"荃湾区"},{"area_code":"新界","code":"810003","name":"荃湾区"},{"area_code":"新界","code":"810003","name":"荃湾区"},{"area_code":"新界","code":"810003","name":"荃湾区"},{"area_code":"新界","code":"810003","name":"荃湾区"},{"area_code":"新界","code":"810003","name":"荃湾区"},{"area_code":"新界","code":"810003","name":"屯门区"},{"area_code":"新界","code":"810003","name":"屯门区"},{"area_code":"新界","code":"810003","name":"屯门区"},{"area_code":"新界","code":"810003","name":"屯门区"},{"area_code":"新界","code":"810003","name":"屯门区"},{"area_code":"新界","code":"810003","name":"屯门区"},{"area_code":"新界","code":"810003","name":"屯门区"},{"area_code":"新界","code":"810003","name":"屯门区"},{"area_code":"新界","code":"810003","name":"屯门区"},{"area_code":"新界","code":"810003","name":"屯门区"},{"area_code":"新界","code":"810003","name":"屯门区"},{"area_code":"新界","code":"810003","name":"屯门区"},{"area_code":"新界","code":"810003","name":"屯门区"},{"area_code":"新界","code":"810003","name":"屯门区"},{"area_code":"新界","code":"810003","name":"屯门区"},{"area_code":"新界","code":"810003","name":"屯门区"},{"area_code":"新界","code":"810003","name":"屯门区"},{"area_code":"新界","code":"810003","name":"屯门区"},{"area_code":"新界","code":"810003","name":"屯门区"},{"area_code":"新界","code":"810003","name":"屯门区"},{"area_code":"新界","code":"810003","name":"屯门区"},{"area_code":"新界","code":"810003","name":"屯门区"},{"area_code":"新界","code":"810003","name":"屯门区"},{"area_code":"新界","code":"810003","name":"屯门区"},{"area_code":"新界","code":"810003","name":"屯门区"},{"area_code":"新界","code":"810003","name":"屯门区"},{"area_code":"新界","code":"810003","name":"屯门区"},{"area_code":"新界","code":"810003","name":"屯门区"},{"area_code":"新界","code":"810003","name":"屯门区"},{"area_code":"新界","code":"810003","name":"屯门区"},{"area_code":"新界","code":"810003","name":"屯门区"},{"area_code":"新界","code":"810003","name":"屯门区"},{"area_code":"新界","code":"810003","name":"屯门区"},{"area_code":"新界","code":"810003","name":"屯门区"},{"area_code":"新界","code":"810003","name":"屯门区"},{"area_code":"新界","code":"810003","name":"屯门区"},{"area_code":"新界","code":"810003","name":"屯门区"},{"area_code":"新界","code":"810003","name":"屯门区"},{"area_code":"新界","code":"810003","name":"屯门区"},{"area_code":"新界","code":"810003","name":"屯门区"},{"area_code":"新界","code":"810003","name":"屯门区"},{"area_code":"新界","code":"810003","name":"屯门区"},{"area_code":"新界","code":"810003","name":"屯门区"},{"area_code":"新界","code":"810003","name":"屯门区"},{"area_code":"新界","code":"810003","name":"屯门区"},{"area_code":"新界","code":"810003","name":"元朗区"},{"area_code":"新界","code":"810003","name":"元朗区"},{"area_code":"新界","code":"810003","name":"元朗区"},{"area_code":"新界","code":"810003","name":"元朗区"},{"area_code":"新界","code":"810003","name":"元朗区"},{"area_code":"新界","code":"810003","name":"元朗区"},{"area_code":"新界","code":"810003","name":"元朗区"},{"area_code":"新界","code":"810003","name":"元朗区"},{"area_code":"新界","code":"810003","name":"元朗区"},{"area_code":"新界","code":"810003","name":"元朗区"},{"area_code":"新界","code":"810003","name":"元朗区"},{"area_code":"新界","code":"810003","name":"元朗区"},{"area_code":"新界","code":"810003","name":"元朗区"},{"area_code":"新界","code":"810003","name":"元朗区"},{"area_code":"新界","code":"810003","name":"元朗区"},{"area_code":"新界","code":"810003","name":"元朗区"},{"area_code":"新界","code":"810003","name":"元朗区"},{"area_code":"新界","code":"810003","name":"元朗区"},{"area_code":"新界","code":"810003","name":"元朗区"},{"area_code":"新界","code":"810003","name":"元朗区"},{"area_code":"新界","code":"810003","name":"元朗区"},{"area_code":"新界","code":"810003","name":"元朗区"},{"area_code":"新界","code":"810003","name":"元朗区"},{"area_code":"新界","code":"810003","name":"元朗区"},{"area_code":"新界","code":"810003","name":"元朗区"},{"area_code":"新界","code":"810003","name":"元朗区"},{"area_code":"新界","code":"810003","name":"元朗区"},{"area_code":"新界","code":"810003","name":"元朗区"},{"area_code":"新界","code":"810003","name":"元朗区"},{"area_code":"新界","code":"810003","name":"元朗区"},{"area_code":"新界","code":"810003","name":"元朗区"},{"area_code":"新界","code":"810003","name":"元朗区"},{"area_code":"新界","code":"810003","name":"元朗区"},{"area_code":"新界","code":"810003","name":"元朗区"},{"area_code":"新界","code":"810003","name":"元朗区"},{"area_code":"新界","code":"810003","name":"元朗区"},{"area_code":"新界","code":"810003","name":"元朗区"},{"area_code":"新界","code":"810003","name":"元朗区"},{"area_code":"新界","code":"810003","name":"元朗区"},{"area_code":"新界","code":"810003","name":"元朗区"},{"area_code":"新界","code":"810003","name":"元朗区"},{"area_code":"新界","code":"810003","name":"元朗区"},{"area_code":"新界","code":"810003","name":"元朗区"},{"area_code":"新界","code":"810004","name":"元朗区"},{"area_code":"新界","code":"810004","name":"元朗区"},{"area_code":"新界","code":"810004","name":"元朗区"},{"area_code":"新界","code":"810004","name":"元朗区"},{"area_code":"新界","code":"810004","name":"元朗区"},{"area_code":"新界","code":"810004","name":"元朗区"},{"area_code":"新界","code":"810004","name":"元朗区"},{"area_code":"新界","code":"810004","name":"元朗区"},{"area_code":"新界","code":"810004","name":"北区"},{"area_code":"新界","code":"810004","name":"北区"},{"area_code":"新界","code":"810004","name":"北区"},{"area_code":"新界","code":"810004","name":"北区"},{"area_code":"新界","code":"810004","name":"北区"},{"area_code":"新界","code":"810004","name":"北区"},{"area_code":"新界","code":"810004","name":"北区"},{"area_code":"新界","code":"810004","name":"北区"},{"area_code":"新界","code":"810004","name":"北区"},{"area_code":"新界","code":"810004","name":"北区"},{"area_code":"新界","code":"810004","name":"北区"},{"area_code":"新界","code":"810004","name":"北区"},{"area_code":"新界","code":"810004","name":"北区"},{"area_code":"新界","code":"810004","name":"北区"},{"area_code":"新界","code":"810004","name":"北区"},{"area_code":"新界","code":"810004","name":"北区"},{"area_code":"新界","code":"810004","name":"北区"},{"area_code":"新界","code":"810004","name":"北区"},{"area_code":"新界","code":"810004","name":"北区"},{"area_code":"新界","code":"810004","name":"北区"},{"area_code":"新界","code":"810004","name":"北区"},{"area_code":"新界","code":"810004","name":"北区"},{"area_code":"新界","code":"810004","name":"北区"},{"area_code":"新界","code":"810004","name":"北区"},{"area_code":"新界","code":"810004","name":"北区"},{"area_code":"新界","code":"810004","name":"北区"},{"area_code":"新界","code":"810004","name":"大埔区"},{"area_code":"新界","code":"810004","name":"大埔区"},{"area_code":"新界","code":"810004","name":"大埔区"},{"area_code":"新界","code":"810004","name":"大埔区"},{"area_code":"新界","code":"810004","name":"大埔区"},{"area_code":"新界","code":"810004","name":"大埔区"},{"area_code":"新界","code":"810004","name":"大埔区"},{"area_code":"新界","code":"810004","name":"大埔区"},{"area_code":"新界","code":"810004","name":"大埔区"},{"area_code":"新界","code":"810004","name":"大埔区"},{"area_code":"新界","code":"810004","name":"大埔区"},{"area_code":"新界","code":"810004","name":"大埔区"},{"area_code":"新界","code":"810004","name":"大埔区"},{"area_code":"新界","code":"810004","name":"大埔区"},{"area_code":"新界","code":"810004","name":"大埔区"},{"area_code":"新界","code":"810004","name":"大埔区"},{"area_code":"新界","code":"810004","name":"大埔区"},{"area_code":"新界","code":"810004","name":"大埔区"},{"area_code":"新界","code":"810004","name":"大埔区"},{"area_code":"新界","code":"810004","name":"大埔区"},{"area_code":"新界","code":"810004","name":"大埔区"},{"area_code":"新界","code":"810004","name":"大埔区"},{"area_code":"新界","code":"810004","name":"大埔区"},{"area_code":"新界","code":"810004","name":"大埔区"},{"area_code":"新界","code":"810004","name":"大埔区"},{"area_code":"新界","code":"810004","name":"大埔区"},{"area_code":"新界","code":"810004","name":"大埔区"},{"area_code":"新界","code":"810004","name":"大埔区"},{"area_code":"新界","code":"810004","name":"西贡区"},{"area_code":"新界","code":"810004","name":"西贡区"},{"area_code":"新界","code":"810004","name":"西贡区"},{"area_code":"新界","code":"810004","name":"西贡区"},{"area_code":"新界","code":"810004","name":"西贡区"},{"area_code":"新界","code":"810004","name":"西贡区"},{"area_code":"新界","code":"810004","name":"西贡区"},{"area_code":"新界","code":"810004","name":"西贡区"},{"area_code":"新界","code":"810004","name":"西贡区"},{"area_code":"新界","code":"810004","name":"西贡区"},{"area_code":"新界","code":"810004","name":"西贡区"},{"area_code":"新界","code":"810004","name":"西贡区"},{"area_code":"新界","code":"810004","name":"西贡区"},{"area_code":"新界","code":"810004","name":"西贡区"},{"area_code":"新界","code":"810004","name":"西贡区"},{"area_code":"新界","code":"810004","name":"西贡区"},{"area_code":"新界","code":"810004","name":"西贡区"},{"area_code":"新界","code":"810004","name":"西贡区"},{"area_code":"新界","code":"810004","name":"西贡区"},{"area_code":"新界","code":"810004","name":"西贡区"},{"area_code":"新界","code":"810004","name":"西贡区"},{"area_code":"新界","code":"810004","name":"西贡区"},{"area_code":"新界","code":"810004","name":"西贡区"},{"area_code":"新界","code":"810004","name":"西贡区"},{"area_code":"新界","code":"810004","name":"西贡区"},{"area_code":"新界","code":"810004","name":"西贡区"},{"area_code":"新界","code":"810004","name":"西贡区"},{"area_code":"新界","code":"810004","name":"西贡区"},{"area_code":"新界","code":"810004","name":"西贡区"},{"area_code":"新界","code":"810004","name":"西贡区"},{"area_code":"新界","code":"810004","name":"西贡区"},{"area_code":"新界","code":"810004","name":"西贡区"},{"area_code":"新界","code":"810004","name":"西贡区"},{"area_code":"新界","code":"810004","name":"沙田区"},{"area_code":"新界","code":"810004","name":"沙田区"},{"area_code":"新界","code":"810004","name":"沙田区"},{"area_code":"新界","code":"810004","name":"沙田区"},{"area_code":"新界","code":"810004","name":"沙田区"},{"area_code":"新界","code":"810005","name":"沙田区"},{"area_code":"新界","code":"810005","name":"沙田区"},{"area_code":"新界","code":"810005","name":"沙田区"},{"area_code":"新界","code":"810005","name":"沙田区"},{"area_code":"新界","code":"810005","name":"沙田区"},{"area_code":"新界","code":"810005","name":"沙田区"},{"area_code":"新界","code":"810005","name":"沙田区"},{"area_code":"新界","code":"810005","name":"沙田区"},{"area_code":"新界","code":"810005","name":"沙田区"},{"area_code":"新界","code":"810005","name":"沙田区"},{"area_code":"新界","code":"810005","name":"沙田区"},{"area_code":"新界","code":"810005","name":"沙田区"},{"area_code":"新界","code":"810005","name":"沙田区"},{"area_code":"新界","code":"810005","name":"沙田区"},{"area_code":"新界","code":"810005","name":"沙田区"},{"area_code":"新界","code":"810005","name":"沙田区"},{"area_code":"新界","code":"810005","name":"沙田区"},{"area_code":"新界","code":"810005","name":"沙田区"},{"area_code":"新界","code":"810005","name":"沙田区"},{"area_code":"新界","code":"810005","name":"沙田区"},{"area_code":"新界","code":"810005","name":"沙田区"},{"area_code":"新界","code":"810005","name":"沙田区"},{"area_code":"新界","code":"810005","name":"沙田区"},{"area_code":"新界","code":"810005","name":"沙田区"},{"area_code":"新界","code":"810005","name":"沙田区"},{"area_code":"新界","code":"810005","name":"沙田区"},{"area_code":"新界","code":"810005","name":"沙田区"},{"area_code":"新界","code":"810005","name":"沙田区"},{"area_code":"新界","code":"810005","name":"沙田区"},{"area_code":"新界","code":"810005","name":"沙田区"},{"area_code":"新界","code":"810005","name":"沙田区"},{"area_code":"新界","code":"810005","name":"沙田区"},{"area_code":"新界","code":"810005","name":"沙田区"},{"area_code":"新界","code":"810005","name":"沙田区"},{"area_code":"新界","code":"810005","name":"沙田区"},{"area_code":"新界","code":"810005","name":"沙田区"},{"area_code":"新界","code":"810005","name":"沙田区"},{"area_code":"新界","code":"810005","name":"沙田区"},{"area_code":"新界","code":"810005","name":"沙田区"},{"area_code":"新界","code":"810005","name":"沙田区"},{"area_code":"新界","code":"810005","name":"沙田区"},{"area_code":"新界","code":"810005","name":"沙田区"},{"area_code":"新界","code":"810005","name":"沙田区"},{"area_code":"新界","code":"810005","name":"沙田区"},{"area_code":"新界","code":"810005","name":"沙田区"},{"area_code":"新界","code":"810005","name":"沙田区"},{"area_code":"新界","code":"810005","name":"沙田区"},{"area_code":"新界","code":"810005","name":"沙田区"},{"area_code":"新界","code":"810005","name":"沙田区"},{"area_code":"新界","code":"810005","name":"沙田区"},{"area_code":"新界","code":"810005","name":"沙田区"},{"area_code":"新界","code":"810005","name":"沙田区"},{"area_code":"新界","code":"810005","name":"葵青区"},{"area_code":"新界","code":"810005","name":"葵青区"},{"area_code":"新界","code":"810005","name":"葵青区"},{"area_code":"新界","code":"810005","name":"葵青区"},{"area_code":"新界","code":"810005","name":"葵青区"},{"area_code":"新界","code":"810005","name":"葵青区"},{"area_code":"新界","code":"810005","name":"葵青区"},{"area_code":"新界","code":"810005","name":"葵青区"},{"area_code":"新界","code":"810005","name":"葵青区"},{"area_code":"新界","code":"810005","name":"葵青区"},{"area_code":"新界","code":"810005","name":"葵青区"},{"area_code":"新界","code":"810005","name":"葵青区"},{"area_code":"新界","code":"810005","name":"葵青区"},{"area_code":"新界","code":"810005","name":"葵青区"},{"area_code":"新界","code":"810005","name":"葵青区"},{"area_code":"新界","code":"810005","name":"葵青区"},{"area_code":"新界","code":"810005","name":"葵青区"},{"area_code":"新界","code":"810005","name":"葵青区"},{"area_code":"新界","code":"810005","name":"葵青区"},{"area_code":"新界","code":"810005","name":"葵青区"},{"area_code":"新界","code":"810005","name":"葵青区"},{"area_code":"新界","code":"810005","name":"葵青区"},{"area_code":"新界","code":"810005","name":"葵青区"},{"area_code":"新界","code":"810005","name":"葵青区"},{"area_code":"新界","code":"810005","name":"葵青区"},{"area_code":"新界","code":"810005","name":"葵青区"},{"area_code":"新界","code":"810005","name":"葵青区"},{"area_code":"新界","code":"810005","name":"葵青区"},{"area_code":"新界","code":"810005","name":"葵青区"},{"area_code":"新界","code":"810005","name":"葵青区"},{"area_code":"新界","code":"810005","name":"葵青区"},{"area_code":"新界","code":"810005","name":"葵青区"},{"area_code":"新界","code":"810005","name":"葵青区"},{"area_code":"新界","code":"810005","name":"葵青区"},{"area_code":"新界","code":"810005","name":"葵青区"},{"area_code":"新界","code":"810005","name":"葵青区"},{"area_code":"新界","code":"810005","name":"葵青区"},{"area_code":"新界","code":"810005","name":"离岛区"},{"area_code":"新界","code":"810005","name":"离岛区"},{"area_code":"新界","code":"810005","name":"离岛区"},{"area_code":"新界","code":"810005","name":"离岛区"},{"area_code":"新界","code":"810005","name":"离岛区"},{"area_code":"新界","code":"810005","name":"离岛区"},{"area_code":"新界","code":"810005","name":"离岛区"},{"area_code":"新界","code":"810005","name":"离岛区"},{"area_code":"新界","code":"810005","name":"离岛区"},{"area_code":"新界","code":"810005","name":"离岛区"},{"area_code":"新界","code":"810005","name":"离岛区"},{"area_code":"新界","code":"810006","name":"离岛区"},{"area_code":"新界","code":"810006","name":"离岛区"},{"area_code":"郑州市","code":"410102","name":"中原区"},{"area_code":"郑州市","code":"410102","name":"中原区"},{"area_code":"郑州市","code":"410102","name":"中原区"},{"area_code":"周口市","code":"411602","name":"川汇区"},{"area_code":"周口市","code":"411602","name":"川汇区"},{"area_code":"周口市","code":"411602","name":"川汇区"},{"area_code":"周口市","code":"411602","name":"川汇区"},{"area_code":"周口市","code":"411602","name":"川汇区"},{"area_code":"周口市","code":"411602","name":"川汇区"},{"area_code":"周口市","code":"411602","name":"川汇区"},{"area_code":"周口市","code":"411602","name":"川汇区"},{"area_code":"周口市","code":"411625","name":"郸城县"},{"area_code":"周口市","code":"411625","name":"郸城县"},{"area_code":"周口市","code":"411625","name":"郸城县"},{"area_code":"周口市","code":"411625","name":"郸城县"},{"area_code":"周口市","code":"411625","name":"郸城县"},{"area_code":"周口市","code":"411625","name":"郸城县"},{"area_code":"周口市","code":"411621","name":"扶沟县"},{"area_code":"周口市","code":"411621","name":"扶沟县"},{"area_code":"周口市","code":"411621","name":"扶沟县"},{"area_code":"周口市","code":"411621","name":"扶沟县"},{"area_code":"周口市","code":"411621","name":"扶沟县"},{"area_code":"周口市","code":"411621","name":"扶沟县"},{"area_code":"周口市","code":"411626","name":"淮阳县"},{"area_code":"周口市","code":"411626","name":"淮阳县"},{"area_code":"周口市","code":"411626","name":"淮阳县"},{"area_code":"周口市","code":"411626","name":"淮阳县"},{"area_code":"周口市","code":"411626","name":"淮阳县"},{"area_code":"周口市","code":"411626","name":"淮阳县"},{"area_code":"周口市","code":"411626","name":"淮阳县"},{"area_code":"周口市","code":"411628","name":"鹿邑县"},{"area_code":"周口市","code":"411628","name":"鹿邑县"},{"area_code":"周口市","code":"411628","name":"鹿邑县"},{"area_code":"周口市","code":"411628","name":"鹿邑县"},{"area_code":"周口市","code":"411628","name":"鹿邑县"},{"area_code":"周口市","code":"411623","name":"商水县"},{"area_code":"周口市","code":"411623","name":"商水县"},{"area_code":"周口市","code":"411623","name":"商水县"},{"area_code":"周口市","code":"411623","name":"商水县"},{"area_code":"周口市","code":"411624","name":"沈丘县"},{"area_code":"周口市","code":"411624","name":"沈丘县"},{"area_code":"周口市","code":"411624","name":"沈丘县"},{"area_code":"周口市","code":"411624","name":"沈丘县"},{"area_code":"周口市","code":"411624","name":"沈丘县"},{"area_code":"周口市","code":"411624","name":"沈丘县"},{"area_code":"周口市","code":"411624","name":"沈丘县"},{"area_code":"周口市","code":"411624","name":"沈丘县"},{"area_code":"周口市","code":"411624","name":"沈丘县"},{"area_code":"周口市","code":"411627","name":"太康县"},{"area_code":"周口市","code":"411627","name":"太康县"},{"area_code":"周口市","code":"411627","name":"太康县"},{"area_code":"周口市","code":"411627","name":"太康县"},{"area_code":"周口市","code":"411622","name":"西华县"},{"area_code":"周口市","code":"411622","name":"西华县"},{"area_code":"周口市","code":"411622","name":"西华县"},{"area_code":"周口市","code":"411622","name":"西华县"},{"area_code":"周口市","code":"411622","name":"西华县"},{"area_code":"周口市","code":"411681","name":"项城市"},{"area_code":"周口市","code":"411681","name":"项城市"},{"area_code":"周口市","code":"411681","name":"项城市"},{"area_code":"周口市","code":"411681","name":"项城市"},{"area_code":"周口市","code":"411681","name":"项城市"},{"area_code":"周口市","code":"411681","name":"项城市"},{"area_code":"驻马店市","code":"411726","name":"泌阳县"},{"area_code":"驻马店市","code":"411726","name":"泌阳县"},{"area_code":"驻马店市","code":"411726","name":"泌阳县"},{"area_code":"驻马店市","code":"411723","name":"平舆县"},{"area_code":"驻马店市","code":"411723","name":"平舆县"},{"area_code":"驻马店市","code":"411723","name":"平舆县"},{"area_code":"驻马店市","code":"411723","name":"平舆县"},{"area_code":"驻马店市","code":"411725","name":"确山县"},{"area_code":"驻马店市","code":"411725","name":"确山县"},{"area_code":"驻马店市","code":"411727","name":"汝南县"},{"area_code":"驻马店市","code":"411727","name":"汝南县"},{"area_code":"驻马店市","code":"411727","name":"汝南县"},{"area_code":"驻马店市","code":"411722","name":"上蔡县"},{"area_code":"驻马店市","code":"411722","name":"上蔡县"},{"area_code":"驻马店市","code":"411722","name":"上蔡县"},{"area_code":"驻马店市","code":"411728","name":"遂平县"},{"area_code":"驻马店市","code":"411728","name":"遂平县"},{"area_code":"驻马店市","code":"411721","name":"西平县"},{"area_code":"驻马店市","code":"411721","name":"西平县"},{"area_code":"驻马店市","code":"411721","name":"西平县"},{"area_code":"驻马店市","code":"411729","name":"新蔡县"},{"area_code":"驻马店市","code":"411729","name":"新蔡县"},{"area_code":"驻马店市","code":"411729","name":"新蔡县"},{"area_code":"驻马店市","code":"411702","name":"驿城区"},{"area_code":"驻马店市","code":"411702","name":"驿城区"},{"area_code":"驻马店市","code":"411702","name":"驿城区"},{"area_code":"驻马店市","code":"411702","name":"驿城区"},{"area_code":"驻马店市","code":"411702","name":"驿城区"},{"area_code":"驻马店市","code":"411702","name":"驿城区"},{"area_code":"驻马店市","code":"411702","name":"驿城区"},{"area_code":"驻马店市","code":"411702","name":"驿城区"},{"area_code":"驻马店市","code":"411724","name":"正阳县"},{"area_code":"驻马店市","code":"411724","name":"正阳县"},{"area_code":"驻马店市","code":"411724","name":"正阳县"},{"area_code":"驻马店市","code":"411724","name":"正阳县"}]