[{"area_code":"武汉市","code":"420117","name":"新洲区"},{"area_code":"武汉市","code":"420117","name":"新洲区"},{"area_code":"武汉市","code":"420117","name":"新洲区"},{"area_code":"武汉市","code":"420117","name":"新洲区"},{"area_code":"武汉市","code":"420117","name":"新洲区"},{"area_code":"武汉市","code":"420117","name":"新洲区"},{"area_code":"武汉市","code":"420117","name":"新洲区"},{"area_code":"武汉市","code":"420117","name":"新洲区"},{"area_code":"武汉市","code":"420116","name":"黄陂区"},{"area_code":"武汉市","code":"420116","name":"黄陂区"},{"area_code":"武汉市","code":"420116","name":"黄陂区"},{"area_code":"武汉市","code":"420116","name":"黄陂区"},{"area_code":"武汉市","code":"420116","name":"黄陂区"},{"area_code":"武汉市","code":"420116","name":"黄陂区"},{"area_code":"武汉市","code":"420116","name":"黄陂区"},{"area_code":"武汉市","code":"420115","name":"江夏区"},{"area_code":"武汉市","code":"420115","name":"江夏区"},{"area_code":"武汉市","code":"420115","name":"江夏区"},{"area_code":"武汉市","code":"420115","name":"江夏区"},{"area_code":"武汉市","code":"420114","name":"蔡甸区"},{"area_code":"武汉市","code":"420114","name":"蔡甸区"},{"area_code":"武汉市","code":"420114","name":"蔡甸区"},{"area_code":"武汉市","code":"420114","name":"蔡甸区"},{"area_code":"武汉市","code":"420113","name":"汉南区"},{"area_code":"武汉市","code":"420113","name":"汉南区"},{"area_code":"武汉市","code":"420112","name":"东西湖区"},{"area_code":"武汉市","code":"420112","name":"东西湖区"},{"area_code":"武汉市","code":"420112","name":"东西湖区"},{"area_code":"武汉市","code":"420112","name":"东西湖区"},{"area_code":"武汉市","code":"420111","name":"洪山区"},{"area_code":"武汉市","code":"420111","name":"洪山区"},{"area_code":"武汉市","code":"420111","name":"洪山区"},{"area_code":"武汉市","code":"420111","name":"洪山区"},{"area_code":"武汉市","code":"420111","name":"洪山区"},{"area_code":"武汉市","code":"420111","name":"洪山区"},{"area_code":"武汉市","code":"420111","name":"洪山区"},{"area_code":"武汉市","code":"420111","name":"洪山区"},{"area_code":"武汉市","code":"420111","name":"洪山区"},{"area_code":"武汉市","code":"420107","name":"青山区"},{"area_code":"武汉市","code":"420107","name":"青山区"},{"area_code":"武汉市","code":"420107","name":"青山区"},{"area_code":"武汉市","code":"420107","name":"青山区"},{"area_code":"武汉市","code":"420107","name":"青山区"},{"area_code":"武汉市","code":"420107","name":"青山区"},{"area_code":"武汉市","code":"420107","name":"青山区"},{"area_code":"武汉市","code":"420107","name":"青山区"},{"area_code":"武汉市","code":"420107","name":"青山区"},{"area_code":"武汉市","code":"420107","name":"青山区"},{"area_code":"武汉市","code":"420106","name":"武昌区"},{"area_code":"武汉市","code":"420106","name":"武昌区"},{"area_code":"武汉市","code":"420106","name":"武昌区"},{"area_code":"武汉市","code":"420106","name":"武昌区"},{"area_code":"武汉市","code":"420106","name":"武昌区"},{"area_code":"武汉市","code":"420106","name":"武昌区"},{"area_code":"武汉市","code":"420106","name":"武昌区"},{"area_code":"武汉市","code":"420106","name":"武昌区"},{"area_code":"武汉市","code":"420106","name":"武昌区"},{"area_code":"武汉市","code":"420106","name":"武昌区"},{"area_code":"武汉市","code":"420106","name":"武昌区"},{"area_code":"武汉市","code":"420106","name":"武昌区"},{"area_code":"武汉市","code":"420106","name":"武昌区"},{"area_code":"武汉市","code":"420106","name":"武昌区"},{"area_code":"武汉市","code":"420106","name":"武昌区"},{"area_code":"武汉市","code":"420105","name":"汉阳区"},{"area_code":"武汉市","code":"420105","name":"汉阳区"},{"area_code":"武汉市","code":"420105","name":"汉阳区"},{"area_code":"武汉市","code":"420105","name":"汉阳区"},{"area_code":"武汉市","code":"420105","name":"汉阳区"},{"area_code":"武汉市","code":"420105","name":"汉阳区"},{"area_code":"武汉市","code":"420105","name":"汉阳区"},{"area_code":"武汉市","code":"420104","name":"硚口区"},{"area_code":"武汉市","code":"420104","name":"硚口区"},{"area_code":"武汉市","code":"420104","name":"硚口区"},{"area_code":"武汉市","code":"420104","name":"硚口区"},{"area_code":"武汉市","code":"420104","name":"硚口区"},{"area_code":"武汉市","code":"420104","name":"硚口区"},{"area_code":"武汉市","code":"420104","name":"硚口区"},{"area_code":"武汉市","code":"420104","name":"硚口区"},{"area_code":"武汉市","code":"420104","name":"硚口区"},{"area_code":"武汉市","code":"420103","name":"江汉区"},{"area_code":"武汉市","code":"420103","name":"江汉区"},{"area_code":"武汉市","code":"420103","name":"江汉区"},{"area_code":"武汉市","code":"420103","name":"江汉区"},{"area_code":"武汉市","code":"420103","name":"江汉区"},{"area_code":"武汉市","code":"420103","name":"江汉区"},{"area_code":"武汉市","code":"420103","name":"江汉区"},{"area_code":"武汉市","code":"420103","name":"江汉区"},{"area_code":"武汉市","code":"420103","name":"江汉区"},{"area_code":"武汉市","code":"420103","name":"江汉区"},{"area_code":"武汉市","code":"420102","name":"江岸区"},{"area_code":"武汉市","code":"420102","name":"江岸区"},{"area_code":"武汉市","code":"420102","name":"江岸区"},{"area_code":"武汉市","code":"420102","name":"江岸区"},{"area_code":"武汉市","code":"420102","name":"江岸区"},{"area_code":"武汉市","code":"420102","name":"江岸区"},{"area_code":"武汉市","code":"420102","name":"江岸区"},{"area_code":"武汉市","code":"420102","name":"江岸区"},{"area_code":"武汉市","code":"420102","name":"江岸区"},{"area_code":"武汉市","code":"420102","name":"江岸区"},{"area_code":"武汉市","code":"420102","name":"江岸区"},{"area_code":"黄石市","code":"420281","name":"大冶市"},{"area_code":"黄石市","code":"420281","name":"大冶市"},{"area_code":"黄石市","code":"420281","name":"大冶市"},{"area_code":"黄石市","code":"420281","name":"大冶市"},{"area_code":"黄石市","code":"420281","name":"大冶市"},{"area_code":"黄石市","code":"420281","name":"大冶市"},{"area_code":"黄石市","code":"420281","name":"大冶市"},{"area_code":"黄石市","code":"420281","name":"大冶市"},{"area_code":"黄石市","code":"420281","name":"大冶市"},{"area_code":"黄石市","code":"420222","name":"阳新县"},{"area_code":"黄石市","code":"420222","name":"阳新县"},{"area_code":"黄石市","code":"420222","name":"阳新县"},{"area_code":"黄石市","code":"420222","name":"阳新县"},{"area_code":"黄石市","code":"420222","name":"阳新县"},{"area_code":"黄石市","code":"420222","name":"阳新县"},{"area_code":"黄石市","code":"420222","name":"阳新县"},{"area_code":"黄石市","code":"420205","name":"铁山区"},{"area_code":"黄石市","code":"420203","name":"西塞山区"},{"area_code":"黄石市","code":"420203","name":"西塞山区"},{"area_code":"黄石市","code":"420203","name":"西塞山区"},{"area_code":"黄石市","code":"420203","name":"西塞山区"},{"area_code":"黄石市","code":"420203","name":"西塞山区"},{"area_code":"黄石市","code":"420203","name":"西塞山区"},{"area_code":"黄石市","code":"420203","name":"西塞山区"},{"area_code":"黄石市","code":"420201","name":"市辖区"},{"area_code":"黄石市","code":"420201","name":"市辖区"},{"area_code":"十堰市","code":"420381","name":"丹江口市"},{"area_code":"十堰市","code":"420381","name":"丹江口市"},{"area_code":"十堰市","code":"420381","name":"丹江口市"},{"area_code":"十堰市","code":"420325","name":"房县"},{"area_code":"十堰市","code":"420325","name":"房县"},{"area_code":"十堰市","code":"420325","name":"房县"},{"area_code":"十堰市","code":"420324","name":"竹溪县"},{"area_code":"十堰市","code":"420324","name":"竹溪县"},{"area_code":"十堰市","code":"420323","name":"竹山县"},{"area_code":"十堰市","code":"420323","name":"竹山县"},{"area_code":"十堰市","code":"420323","name":"竹山县"},{"area_code":"十堰市","code":"420322","name":"郧西县"},{"area_code":"十堰市","code":"420322","name":"郧西县"},{"area_code":"十堰市","code":"420322","name":"郧西县"},{"area_code":"十堰市","code":"420322","name":"郧西县"},{"area_code":"十堰市","code":"420321","name":"郧县"},{"area_code":"十堰市","code":"420321","name":"郧县"},{"area_code":"十堰市","code":"420301","name":"市辖区"},{"area_code":"十堰市","code":"420301","name":"市辖区"},{"area_code":"十堰市","code":"420301","name":"市辖区"},{"area_code":"十堰市","code":"420301","name":"市辖区"},{"area_code":"十堰市","code":"420301","name":"市辖区"},{"area_code":"十堰市","code":"420301","name":"市辖区"},{"area_code":"十堰市","code":"420301","name":"市辖区"},{"area_code":"十堰市","code":"420301","name":"市辖区"},{"area_code":"十堰市","code":"420301","name":"市辖区"},{"area_code":"十堰市","code":"420301","name":"市辖区"},{"area_code":"十堰市","code":"420301","name":"市辖区"},{"area_code":"宜昌市","code":"420583","name":"枝江市"},{"area_code":"宜昌市","code":"420583","name":"枝江市"},{"area_code":"宜昌市","code":"420583","name":"枝江市"},{"area_code":"宜昌市","code":"420583","name":"枝江市"},{"area_code":"宜昌市","code":"420583","name":"枝江市"},{"area_code":"宜昌市","code":"420582","name":"当阳市"},{"area_code":"宜昌市","code":"420582","name":"当阳市"},{"area_code":"宜昌市","code":"420582","name":"当阳市"},{"area_code":"宜昌市","code":"420582","name":"当阳市"},{"area_code":"宜昌市","code":"420581","name":"宜都市"},{"area_code":"宜昌市","code":"420581","name":"宜都市"},{"area_code":"宜昌市","code":"420581","name":"宜都市"},{"area_code":"宜昌市","code":"420529","name":"五峰土家族自治县"},{"area_code":"宜昌市","code":"420529","name":"五峰土家族自治县"},{"area_code":"宜昌市","code":"420528","name":"长阳土家族自治县"},{"area_code":"宜昌市","code":"420528","name":"长阳土家族自治县"},{"area_code":"宜昌市","code":"420528","name":"长阳土家族自治县"},{"area_code":"宜昌市","code":"420527","name":"秭归县"},{"area_code":"宜昌市","code":"420527","name":"秭归县"},{"area_code":"宜昌市","code":"420526","name":"兴山县"},{"area_code":"宜昌市","code":"420525","name":"远安县"},{"area_code":"宜昌市","code":"420506","name":"夷陵区"},{"area_code":"宜昌市","code":"420506","name":"夷陵区"},{"area_code":"宜昌市","code":"420506","name":"夷陵区"},{"area_code":"宜昌市","code":"420505","name":"猇亭区"},{"area_code":"宜昌市","code":"420504","name":"点军区"},{"area_code":"宜昌市","code":"420503","name":"伍家岗区"},{"area_code":"宜昌市","code":"420503","name":"伍家岗区"},{"area_code":"宜昌市","code":"420503","name":"伍家岗区"},{"area_code":"宜昌市","code":"420502","name":"西陵区"},{"area_code":"宜昌市","code":"420502","name":"西陵区"},{"area_code":"宜昌市","code":"420502","name":"西陵区"},{"area_code":"宜昌市","code":"420502","name":"西陵区"},{"area_code":"宜昌市","code":"420502","name":"西陵区"},{"area_code":"宜昌市","code":"420502","name":"西陵区"},{"area_code":"宜昌市","code":"420502","name":"西陵区"},{"area_code":"宜昌市","code":"420502","name":"西陵区"},{"area_code":"宜昌市","code":"420502","name":"西陵区"},{"area_code":"宜昌市","code":"420502","name":"西陵区"},{"area_code":"宜昌市","code":"420502","name":"西陵区"},{"area_code":"宜昌市","code":"420502","name":"西陵区"},{"area_code":"襄樊市","code":"420684","name":"宜城市"},{"area_code":"襄樊市","code":"420684","name":"宜城市"},{"area_code":"襄樊市","code":"420683","name":"枣阳市"},{"area_code":"襄樊市","code":"420683","name":"枣阳市"},{"area_code":"襄樊市","code":"420683","name":"枣阳市"},{"area_code":"襄樊市","code":"420683","name":"枣阳市"},{"area_code":"襄樊市","code":"420683","name":"枣阳市"},{"area_code":"襄樊市","code":"420683","name":"枣阳市"},{"area_code":"襄樊市","code":"420682","name":"老河口市"},{"area_code":"襄樊市","code":"420682","name":"老河口市"},{"area_code":"襄樊市","code":"420682","name":"老河口市"},{"area_code":"襄樊市","code":"420626","name":"保康县"},{"area_code":"襄樊市","code":"420625","name":"谷城县"},{"area_code":"襄樊市","code":"420625","name":"谷城县"},{"area_code":"襄樊市","code":"420625","name":"谷城县"},{"area_code":"襄樊市","code":"420624","name":"南漳县"},{"area_code":"襄樊市","code":"420624","name":"南漳县"},{"area_code":"襄樊市","code":"420624","name":"南漳县"},{"area_code":"襄樊市","code":"420601","name":"襄阳区"},{"area_code":"襄樊市","code":"420601","name":"襄阳区"},{"area_code":"襄樊市","code":"420606","name":"樊城区"},{"area_code":"襄樊市","code":"420606","name":"樊城区"},{"area_code":"襄樊市","code":"420606","name":"樊城区"},{"area_code":"襄樊市","code":"420606","name":"樊城区"},{"area_code":"襄樊市","code":"420606","name":"樊城区"},{"area_code":"襄樊市","code":"420606","name":"樊城区"},{"area_code":"襄樊市","code":"420606","name":"樊城区"},{"area_code":"襄樊市","code":"420606","name":"樊城区"},{"area_code":"襄樊市","code":"420602","name":"襄城区"},{"area_code":"襄樊市","code":"420602","name":"襄城区"},{"area_code":"襄樊市","code":"420602","name":"襄城区"},{"area_code":"襄樊市","code":"420602","name":"襄城区"},{"area_code":"襄樊市","code":"420601","name":"市辖区"},{"area_code":"襄樊市","code":"420601","name":"市辖区"},{"area_code":"襄樊市","code":"420601","name":"市辖区"},{"area_code":"襄樊市","code":"420601","name":"市辖区"},{"area_code":"襄樊市","code":"420601","name":"市辖区"},{"area_code":"襄樊市","code":"420601","name":"市辖区"},{"area_code":"襄樊市","code":"420601","name":"市辖区"},{"area_code":"襄樊市","code":"420601","name":"市辖区"},{"area_code":"襄樊市","code":"420601","name":"市辖区"},{"area_code":"鄂州市","code":"420704","name":"鄂城区"},{"area_code":"鄂州市","code":"420704","name":"鄂城区"},{"area_code":"鄂州市","code":"420703","name":"华容区"},{"area_code":"鄂州市","code":"420703","name":"华容区"},{"area_code":"鄂州市","code":"420702","name":"梁子湖区"},{"area_code":"鄂州市","code":"420702","name":"梁子湖区"},{"area_code":"鄂州市","code":"420702","name":"梁子湖区"},{"area_code":"鄂州市","code":"420702","name":"梁子湖区"},{"area_code":"鄂州市","code":"420702","name":"梁子湖区"},{"area_code":"鄂州市","code":"420702","name":"梁子湖区"},{"area_code":"荆门市","code":"420881","name":"钟祥市"},{"area_code":"荆门市","code":"420881","name":"钟祥市"},{"area_code":"荆门市","code":"420881","name":"钟祥市"},{"area_code":"荆门市","code":"420881","name":"钟祥市"},{"area_code":"荆门市","code":"420881","name":"钟祥市"},{"area_code":"荆门市","code":"420881","name":"钟祥市"},{"area_code":"荆门市","code":"420822","name":"沙洋县"},{"area_code":"荆门市","code":"420822","name":"沙洋县"},{"area_code":"荆门市","code":"420822","name":"沙洋县"},{"area_code":"荆门市","code":"420822","name":"沙洋县"},{"area_code":"荆门市","code":"420821","name":"京山县"},{"area_code":"荆门市","code":"420821","name":"京山县"},{"area_code":"荆门市","code":"420821","name":"京山县"},{"area_code":"荆门市","code":"420821","name":"京山县"},{"area_code":"荆门市","code":"420821","name":"京山县"},{"area_code":"荆门市","code":"420821","name":"京山县"},{"area_code":"荆门市","code":"420821","name":"京山县"},{"area_code":"荆门市","code":"420821","name":"京山县"},{"area_code":"荆门市","code":"420804","name":"掇刀区"},{"area_code":"荆门市","code":"420804","name":"掇刀区"},{"area_code":"荆门市","code":"420802","name":"东宝区"},{"area_code":"荆门市","code":"420802","name":"东宝区"},{"area_code":"荆门市","code":"420802","name":"东宝区"},{"area_code":"荆门市","code":"420802","name":"东宝区"},{"area_code":"荆门市","code":"420802","name":"东宝区"},{"area_code":"荆门市","code":"420802","name":"东宝区"},{"area_code":"荆门市","code":"420802","name":"东宝区"},{"area_code":"荆门市","code":"420802","name":"东宝区"},{"area_code":"荆门市","code":"420802","name":"东宝区"},{"area_code":"孝感市","code":"420984","name":"汉川市"},{"area_code":"孝感市","code":"420984","name":"汉川市"},{"area_code":"孝感市","code":"420984","name":"汉川市"},{"area_code":"孝感市","code":"420984","name":"汉川市"},{"area_code":"孝感市","code":"420984","name":"汉川市"},{"area_code":"孝感市","code":"420984","name":"汉川市"},{"area_code":"孝感市","code":"420984","name":"汉川市"},{"area_code":"孝感市","code":"420982","name":"安陆市"},{"area_code":"孝感市","code":"420982","name":"安陆市"},{"area_code":"孝感市","code":"420982","name":"安陆市"},{"area_code":"孝感市","code":"420981","name":"应城市"},{"area_code":"孝感市","code":"420981","name":"应城市"},{"area_code":"孝感市","code":"420981","name":"应城市"},{"area_code":"孝感市","code":"420981","name":"应城市"},{"area_code":"孝感市","code":"420923","name":"云梦县"},{"area_code":"孝感市","code":"420923","name":"云梦县"},{"area_code":"孝感市","code":"420923","name":"云梦县"},{"area_code":"孝感市","code":"420923","name":"云梦县"},{"area_code":"孝感市","code":"420922","name":"大悟县"},{"area_code":"孝感市","code":"420922","name":"大悟县"},{"area_code":"孝感市","code":"420922","name":"大悟县"},{"area_code":"孝感市","code":"420922","name":"大悟县"},{"area_code":"孝感市","code":"420922","name":"大悟县"},{"area_code":"孝感市","code":"420921","name":"孝昌县"},{"area_code":"孝感市","code":"420921","name":"孝昌县"},{"area_code":"孝感市","code":"420902","name":"孝南区"},{"area_code":"孝感市","code":"420902","name":"孝南区"},{"area_code":"孝感市","code":"420902","name":"孝南区"},{"area_code":"孝感市","code":"420902","name":"孝南区"},{"area_code":"孝感市","code":"420902","name":"孝南区"},{"area_code":"孝感市","code":"420902","name":"孝南区"},{"area_code":"荆州市","code":"421087","name":"松滋市"},{"area_code":"荆州市","code":"421087","name":"松滋市"},{"area_code":"荆州市","code":"421087","name":"松滋市"},{"area_code":"荆州市","code":"421087","name":"松滋市"},{"area_code":"荆州市","code":"421087","name":"松滋市"},{"area_code":"荆州市","code":"421087","name":"松滋市"},{"area_code":"荆州市","code":"421083","name":"洪湖市"},{"area_code":"荆州市","code":"421083","name":"洪湖市"},{"area_code":"荆州市","code":"421083","name":"洪湖市"},{"area_code":"荆州市","code":"421083","name":"洪湖市"},{"area_code":"荆州市","code":"421083","name":"洪湖市"},{"area_code":"荆州市","code":"421083","name":"洪湖市"},{"area_code":"荆州市","code":"421081","name":"石首市"},{"area_code":"荆州市","code":"421081","name":"石首市"},{"area_code":"荆州市","code":"421081","name":"石首市"},{"area_code":"荆州市","code":"421081","name":"石首市"},{"area_code":"荆州市","code":"421081","name":"石首市"},{"area_code":"荆州市","code":"421024","name":"江陵县"},{"area_code":"荆州市","code":"421024","name":"江陵县"},{"area_code":"荆州市","code":"421024","name":"江陵县"},{"area_code":"荆州市","code":"421023","name":"监利县"},{"area_code":"荆州市","code":"421023","name":"监利县"},{"area_code":"荆州市","code":"421023","name":"监利县"},{"area_code":"荆州市","code":"421023","name":"监利县"},{"area_code":"荆州市","code":"421023","name":"监利县"},{"area_code":"荆州市","code":"421023","name":"监利县"},{"area_code":"荆州市","code":"421023","name":"监利县"},{"area_code":"荆州市","code":"421023","name":"监利县"},{"area_code":"荆州市","code":"421023","name":"监利县"},{"area_code":"荆州市","code":"421023","name":"监利县"},{"area_code":"荆州市","code":"421022","name":"公安县"},{"area_code":"荆州市","code":"421022","name":"公安县"},{"area_code":"荆州市","code":"421022","name":"公安县"},{"area_code":"荆州市","code":"421022","name":"公安县"},{"area_code":"荆州市","code":"421022","name":"公安县"},{"area_code":"荆州市","code":"421022","name":"公安县"},{"area_code":"荆州市","code":"421022","name":"公安县"},{"area_code":"荆州市","code":"421003","name":"荆州区"},{"area_code":"荆州市","code":"421003","name":"荆州区"},{"area_code":"荆州市","code":"421003","name":"荆州区"},{"area_code":"荆州市","code":"421003","name":"荆州区"},{"area_code":"荆州市","code":"421003","name":"荆州区"},{"area_code":"荆州市","code":"421003","name":"荆州区"},{"area_code":"荆州市","code":"421003","name":"荆州区"},{"area_code":"荆州市","code":"421003","name":"荆州区"},{"area_code":"荆州市","code":"421003","name":"荆州区"},{"area_code":"荆州市","code":"421003","name":"荆州区"},{"area_code":"荆州市","code":"421003","name":"荆州区"},{"area_code":"荆州市","code":"421003","name":"荆州区"},{"area_code":"荆州市","code":"421002","name":"沙市区"},{"area_code":"荆州市","code":"421002","name":"沙市区"},{"area_code":"荆州市","code":"421002","name":"沙市区"},{"area_code":"荆州市","code":"421002","name":"沙市区"},{"area_code":"荆州市","code":"421002","name":"沙市区"},{"area_code":"荆州市","code":"421002","name":"沙市区"},{"area_code":"荆州市","code":"421002","name":"沙市区"},{"area_code":"黄冈市","code":"421182","name":"武穴市"},{"area_code":"黄冈市","code":"421182","name":"武穴市"},{"area_code":"黄冈市","code":"421182","name":"武穴市"},{"area_code":"黄冈市","code":"421182","name":"武穴市"},{"area_code":"黄冈市","code":"421182","name":"武穴市"},{"area_code":"黄冈市","code":"421181","name":"麻城市"},{"area_code":"黄冈市","code":"421181","name":"麻城市"},{"area_code":"黄冈市","code":"421181","name":"麻城市"},{"area_code":"黄冈市","code":"421181","name":"麻城市"},{"area_code":"黄冈市","code":"421181","name":"麻城市"},{"area_code":"黄冈市","code":"421181","name":"麻城市"},{"area_code":"黄冈市","code":"421181","name":"麻城市"},{"area_code":"黄冈市","code":"421181","name":"麻城市"},{"area_code":"黄冈市","code":"421181","name":"麻城市"},{"area_code":"黄冈市","code":"421181","name":"麻城市"},{"area_code":"黄冈市","code":"421127","name":"黄梅县"},{"area_code":"黄冈市","code":"421127","name":"黄梅县"},{"area_code":"黄冈市","code":"421127","name":"黄梅县"},{"area_code":"黄冈市","code":"421127","name":"黄梅县"},{"area_code":"黄冈市","code":"421127","name":"黄梅县"},{"area_code":"黄冈市","code":"421127","name":"黄梅县"},{"area_code":"黄冈市","code":"421127","name":"黄梅县"},{"area_code":"黄冈市","code":"421126","name":"蕲春县"},{"area_code":"黄冈市","code":"421126","name":"蕲春县"},{"area_code":"黄冈市","code":"421126","name":"蕲春县"},{"area_code":"黄冈市","code":"421126","name":"蕲春县"},{"area_code":"黄冈市","code":"421126","name":"蕲春县"},{"area_code":"黄冈市","code":"421126","name":"蕲春县"},{"area_code":"黄冈市","code":"421125","name":"浠水县"},{"area_code":"黄冈市","code":"421125","name":"浠水县"},{"area_code":"黄冈市","code":"421125","name":"浠水县"},{"area_code":"黄冈市","code":"421125","name":"浠水县"},{"area_code":"黄冈市","code":"421125","name":"浠水县"},{"area_code":"黄冈市","code":"421125","name":"浠水县"},{"area_code":"黄冈市","code":"421125","name":"浠水县"},{"area_code":"黄冈市","code":"421124","name":"英山县"},{"area_code":"黄冈市","code":"421124","name":"英山县"},{"area_code":"黄冈市","code":"421124","name":"英山县"},{"area_code":"黄冈市","code":"421124","name":"英山县"},{"area_code":"黄冈市","code":"421124","name":"英山县"},{"area_code":"黄冈市","code":"421123","name":"罗田县"},{"area_code":"黄冈市","code":"421123","name":"罗田县"},{"area_code":"黄冈市","code":"421123","name":"罗田县"},{"area_code":"黄冈市","code":"421122","name":"红安县"},{"area_code":"黄冈市","code":"421122","name":"红安县"},{"area_code":"黄冈市","code":"421122","name":"红安县"},{"area_code":"黄冈市","code":"421122","name":"红安县"},{"area_code":"黄冈市","code":"421122","name":"红安县"},{"area_code":"黄冈市","code":"421122","name":"红安县"},{"area_code":"黄冈市","code":"421122","name":"红安县"},{"area_code":"黄冈市","code":"421121","name":"团风县"},{"area_code":"黄冈市","code":"421121","name":"团风县"},{"area_code":"黄冈市","code":"421121","name":"团风县"},{"area_code":"黄冈市","code":"421102","name":"黄州区"},{"area_code":"黄冈市","code":"421102","name":"黄州区"},{"area_code":"黄冈市","code":"421102","name":"黄州区"},{"area_code":"黄冈市","code":"421102","name":"黄州区"},{"area_code":"黄冈市","code":"421102","name":"黄州区"},{"area_code":"黄冈市","code":"421102","name":"黄州区"},{"area_code":"黄冈市","code":"421102","name":"黄州区"},{"area_code":"黄冈市","code":"421102","name":"黄州区"},{"area_code":"黄冈市","code":"421102","name":"黄州区"},{"area_code":"黄冈市","code":"421102","name":"黄州区"},{"area_code":"咸宁市","code":"421281","name":"赤壁市"},{"area_code":"咸宁市","code":"421281","name":"赤壁市"},{"area_code":"咸宁市","code":"421281","name":"赤壁市"},{"area_code":"咸宁市","code":"421281","name":"赤壁市"},{"area_code":"咸宁市","code":"421281","name":"赤壁市"},{"area_code":"咸宁市","code":"421281","name":"赤壁市"},{"area_code":"咸宁市","code":"421224","name":"通山县"},{"area_code":"咸宁市","code":"421224","name":"通山县"},{"area_code":"咸宁市","code":"421224","name":"通山县"},{"area_code":"咸宁市","code":"421224","name":"通山县"},{"area_code":"咸宁市","code":"421223","name":"崇阳县"},{"area_code":"咸宁市","code":"421223","name":"崇阳县"},{"area_code":"咸宁市","code":"421223","name":"崇阳县"},{"area_code":"咸宁市","code":"421223","name":"崇阳县"},{"area_code":"咸宁市","code":"421222","name":"通城县"},{"area_code":"咸宁市","code":"421222","name":"通城县"},{"area_code":"咸宁市","code":"421222","name":"通城县"},{"area_code":"咸宁市","code":"421222","name":"通城县"},{"area_code":"咸宁市","code":"421221","name":"嘉鱼县"},{"area_code":"咸宁市","code":"421221","name":"嘉鱼县"},{"area_code":"咸宁市","code":"421221","name":"嘉鱼县"},{"area_code":"咸宁市","code":"421221","name":"嘉鱼县"},{"area_code":"咸宁市","code":"421221","name":"嘉鱼县"},{"area_code":"咸宁市","code":"421221","name":"嘉鱼县"},{"area_code":"咸宁市","code":"421202","name":"咸安区"},{"area_code":"咸宁市","code":"421202","name":"咸安区"},{"area_code":"咸宁市","code":"421202","name":"咸安区"},{"area_code":"咸宁市","code":"421201","name":"市辖区"},{"area_code":"咸宁市","code":"421201","name":"市辖区"},{"area_code":"咸宁市","code":"421201","name":"市辖区"},{"area_code":"随州市","code":"421381","name":"广水市"},{"area_code":"随州市","code":"421381","name":"广水市"},{"area_code":"随州市","code":"421381","name":"广水市"},{"area_code":"随州市","code":"421381","name":"广水市"},{"area_code":"随州市","code":"421381","name":"广水市"},{"area_code":"随州市","code":"421381","name":"广水市"},{"area_code":"随州市","code":"421381","name":"广水市"},{"area_code":"随州市","code":"421381","name":"广水市"},{"area_code":"随州市","code":"421303","name":"曾都区"},{"area_code":"随州市","code":"421303","name":"曾都区"},{"area_code":"随州市","code":"421303","name":"曾都区"},{"area_code":"随州市","code":"421303","name":"曾都区"},{"area_code":"随州市","code":"421301","name":"市辖区"},{"area_code":"随州市","code":"421301","name":"市辖区"},{"area_code":"随州市","code":"421301","name":"市辖区"},{"area_code":"随州市","code":"421301","name":"市辖区"},{"area_code":"随州市","code":"421301","name":"市辖区"},{"area_code":"随州市","code":"421301","name":"市辖区"},{"area_code":"恩施土家族苗族自治州","code":"422828","name":"鹤峰县"},{"area_code":"恩施土家族苗族自治州","code":"422828","name":"鹤峰县"},{"area_code":"恩施土家族苗族自治州","code":"422800","name":"来凤县"},{"area_code":"恩施土家族苗族自治州","code":"422826","name":"咸丰县"},{"area_code":"恩施土家族苗族自治州","code":"422825","name":"宣恩县"},{"area_code":"恩施土家族苗族自治州","code":"422825","name":"宣恩县"},{"area_code":"恩施土家族苗族自治州","code":"422825","name":"宣恩县"},{"area_code":"恩施土家族苗族自治州","code":"422823","name":"巴东县"},{"area_code":"恩施土家族苗族自治州","code":"422823","name":"巴东县"},{"area_code":"恩施土家族苗族自治州","code":"422823","name":"巴东县"},{"area_code":"恩施土家族苗族自治州","code":"422822","name":"建始县"},{"area_code":"恩施土家族苗族自治州","code":"422822","name":"建始县"},{"area_code":"恩施土家族苗族自治州","code":"422822","name":"建始县"},{"area_code":"恩施土家族苗族自治州","code":"422802","name":"利川市"},{"area_code":"恩施土家族苗族自治州","code":"422802","name":"利川市"},{"area_code":"恩施土家族苗族自治州","code":"422802","name":"利川市"},{"area_code":"恩施土家族苗族自治州","code":"422802","name":"利川市"},{"area_code":"恩施土家族苗族自治州","code":"422802","name":"利川市"},{"area_code":"恩施土家族苗族自治州","code":"422801","name":"恩施市"},{"area_code":"恩施土家族苗族自治州","code":"422801","name":"恩施市"},{"area_code":"恩施土家族苗族自治州","code":"422801","name":"恩施市"},{"area_code":"恩施土家族苗族自治州","code":"422801","name":"恩施市"},{"area_code":"恩施土家族苗族自治州","code":"422801","name":"恩施市"},{"area_code":"省直辖行政单位","code":"429004","name":"仙桃市"},{"area_code":"省直辖行政单位","code":"429004","name":"仙桃市"},{"area_code":"省直辖行政单位","code":"429004","name":"仙桃市"},{"area_code":"省直辖行政单位","code":"429004","name":"仙桃市"},{"area_code":"省直辖行政单位","code":"429004","name":"仙桃市"},{"area_code":"省直辖行政单位","code":"429004","name":"仙桃市"},{"area_code":"省直辖行政单位","code":"429004","name":"仙桃市"},{"area_code":"省直辖行政单位","code":"429004","name":"仙桃市"},{"area_code":"省直辖行政单位","code":"429004","name":"仙桃市"},{"area_code":"省直辖行政单位","code":"429004","name":"仙桃市"},{"area_code":"省直辖行政单位","code":"429004","name":"仙桃市"},{"area_code":"省直辖行政单位","code":"429004","name":"仙桃市"},{"area_code":"省直辖行政单位","code":"429004","name":"仙桃市"},{"area_code":"省直辖行政单位","code":"429005","name":"潜江市"},{"area_code":"省直辖行政单位","code":"429005","name":"潜江市"},{"area_code":"省直辖行政单位","code":"429005","name":"潜江市"},{"area_code":"省直辖行政单位","code":"429005","name":"潜江市"},{"area_code":"省直辖行政单位","code":"429005","name":"潜江市"},{"area_code":"省直辖行政单位","code":"429005","name":"潜江市"},{"area_code":"省直辖行政单位","code":"429005","name":"潜江市"},{"area_code":"省直辖行政单位","code":"429005","name":"潜江市"},{"area_code":"省直辖行政单位","code":"429005","name":"潜江市"},{"area_code":"省直辖行政单位","code":"429006","name":"天门市"},{"area_code":"省直辖行政单位","code":"429006","name":"天门市"},{"area_code":"省直辖行政单位","code":"429006","name":"天门市"},{"area_code":"省直辖行政单位","code":"429006","name":"天门市"},{"area_code":"省直辖行政单位","code":"429006","name":"天门市"},{"area_code":"省直辖行政单位","code":"429006","name":"天门市"},{"area_code":"省直辖行政单位","code":"429006","name":"天门市"},{"area_code":"省直辖行政单位","code":"429006","name":"天门市"},{"area_code":"省直辖行政单位","code":"429006","name":"天门市"},{"area_code":"省直辖行政单位","code":"429006","name":"天门市"},{"area_code":"省直辖行政单位","code":"429006","name":"天门市"},{"area_code":"省直辖行政单位","code":"429006","name":"天门市"},{"area_code":"省直辖行政单位","code":"429006","name":"天门市"},{"area_code":"省直辖行政单位","code":"429021","name":"神农架林区"},{"area_code":"郑州市","code":"410103","name":"二七区"},{"area_code":"郑州市","code":"410103","name":"二七区"},{"area_code":"郑州市","code":"410181","name":"巩义市"},{"area_code":"郑州市","code":"410181","name":"巩义市"},{"area_code":"郑州市","code":"410181","name":"巩义市"},{"area_code":"郑州市","code":"410181","name":"巩义市"},{"area_code":"郑州市","code":"410181","name":"巩义市"},{"area_code":"郑州市","code":"410181","name":"巩义市"},{"area_code":"郑州市","code":"410181","name":"巩义市"},{"area_code":"郑州市","code":"410181","name":"巩义市"},{"area_code":"郑州市","code":"410181","name":"巩义市"},{"area_code":"郑州市","code":"410181","name":"巩义市"},{"area_code":"郑州市","code":"410104","name":"管城回族区"},{"area_code":"郑州市","code":"410104","name":"管城回族区"},{"area_code":"郑州市","code":"410104","name":"管城回族区"},{"area_code":"郑州市","code":"410104","name":"管城回族区"},{"area_code":"郑州市","code":"410108","name":"惠济区"},{"area_code":"郑州市","code":"410108","name":"惠济区"},{"area_code":"郑州市","code":"410105","name":"金水区"},{"area_code":"郑州市","code":"410105","name":"金水区"},{"area_code":"郑州市","code":"410105","name":"金水区"},{"area_code":"郑州市","code":"410105","name":"金水区"},{"area_code":"郑州市","code":"410105","name":"金水区"},{"area_code":"郑州市","code":"410105","name":"金水区"},{"area_code":"郑州市","code":"410105","name":"金水区"},{"area_code":"郑州市","code":"410105","name":"金水区"},{"area_code":"郑州市","code":"410105","name":"金水区"},{"area_code":"郑州市","code":"410105","name":"金水区"},{"area_code":"郑州市","code":"410105","name":"金水区"},{"area_code":"郑州市","code":"410105","name":"金水区"},{"area_code":"郑州市","code":"410105","name":"金水区"},{"area_code":"郑州市","code":"410105","name":"金水区"},{"area_code":"郑州市","code":"410105","name":"金水区"},{"area_code":"郑州市","code":"410105","name":"金水区"},{"area_code":"郑州市","code":"410105","name":"金水区"},{"area_code":"郑州市","code":"410105","name":"金水区"},{"area_code":"郑州市","code":"410105","name":"金水区"},{"area_code":"郑州市","code":"410105","name":"金水区"},{"area_code":"郑州市","code":"410106","name":"上街区"},{"area_code":"郑州市","code":"410106","name":"上街区"},{"area_code":"郑州市","code":"410101","name":"市辖区"},{"area_code":"郑州市","code":"410101","name":"市辖区"},{"area_code":"郑州市","code":"410183","name":"新密市"},{"area_code":"郑州市","code":"410183","name":"新密市"},{"area_code":"郑州市","code":"410183","name":"新密市"},{"area_code":"郑州市","code":"410183","name":"新密市"},{"area_code":"郑州市","code":"410184","name":"新郑市"},{"area_code":"郑州市","code":"410184","name":"新郑市"},{"area_code":"郑州市","code":"410184","name":"新郑市"},{"area_code":"郑州市","code":"410184","name":"新郑市"},{"area_code":"郑州市","code":"410184","name":"新郑市"},{"area_code":"郑州市","code":"410184","name":"新郑市"},{"area_code":"郑州市","code":"410184","name":"新郑市"},{"area_code":"郑州市","code":"410182","name":"荥阳市"},{"area_code":"郑州市","code":"410182","name":"荥阳市"},{"area_code":"郑州市","code":"410182","name":"荥阳市"},{"area_code":"郑州市","code":"410182","name":"荥阳市"},{"area_code":"郑州市","code":"410122","name":"中牟县"},{"area_code":"郑州市","code":"410122","name":"中牟县"},{"area_code":"郑州市","code":"410122","name":"中牟县"},{"area_code":"郑州市","code":"410102","name":"中原区"},{"area_code":"郑州市","code":"410102","name":"中原区"},{"area_code":"郑州市","code":"410102","name":"中原区"},{"area_code":"郑州市","code":"410102","name":"中原区"},{"area_code":"郑州市","code":"410102","name":"中原区"},{"area_code":"郑州市","code":"410102","name":"中原区"},{"area_code":"郑州市","code":"410102","name":"中原区"},{"area_code":"郑州市","code":"410102","name":"中原区"},{"area_code":"郑州市","code":"410102","name":"中原区"},{"area_code":"郑州市","code":"410102","name":"中原区"},{"area_code":"郑州市","code":"410102","name":"中原区"},{"area_code":"郑州市","code":"410102","name":"中原区"},{"area_code":"周口市","code":"411602","name":"川汇区"},{"area_code":"周口市","code":"411602","name":"川汇区"},{"area_code":"周口市","code":"411602","name":"川汇区"},{"area_code":"周口市","code":"411602","name":"川汇区"},{"area_code":"周口市","code":"411602","name":"川汇区"},{"area_code":"周口市","code":"411602","name":"川汇区"},{"area_code":"周口市","code":"411602","name":"川汇区"},{"area_code":"周口市","code":"411602","name":"川汇区"},{"area_code":"周口市","code":"411625","name":"郸城县"},{"area_code":"周口市","code":"411625","name":"郸城县"},{"area_code":"周口市","code":"411625","name":"郸城县"},{"area_code":"周口市","code":"411625","name":"郸城县"},{"area_code":"周口市","code":"411625","name":"郸城县"},{"area_code":"周口市","code":"411625","name":"郸城县"},{"area_code":"周口市","code":"411621","name":"扶沟县"},{"area_code":"周口市","code":"411621","name":"扶沟县"},{"area_code":"周口市","code":"411621","name":"扶沟县"},{"area_code":"周口市","code":"411621","name":"扶沟县"},{"area_code":"周口市","code":"411621","name":"扶沟县"},{"area_code":"周口市","code":"411621","name":"扶沟县"},{"area_code":"周口市","code":"411626","name":"淮阳县"},{"area_code":"周口市","code":"411626","name":"淮阳县"},{"area_code":"周口市","code":"411626","name":"淮阳县"},{"area_code":"周口市","code":"411626","name":"淮阳县"},{"area_code":"周口市","code":"411626","name":"淮阳县"},{"area_code":"周口市","code":"411626","name":"淮阳县"},{"area_code":"周口市","code":"411626","name":"淮阳县"},{"area_code":"周口市","code":"411628","name":"鹿邑县"},{"area_code":"周口市","code":"411628","name":"鹿邑县"},{"area_code":"周口市","code":"411628","name":"鹿邑县"},{"area_code":"周口市","code":"411628","name":"鹿邑县"},{"area_code":"周口市","code":"411628","name":"鹿邑县"},{"area_code":"周口市","code":"411623","name":"商水县"},{"area_code":"周口市","code":"411623","name":"商水县"},{"area_code":"周口市","code":"411623","name":"商水县"},{"area_code":"周口市","code":"411623","name":"商水县"},{"area_code":"周口市","code":"411624","name":"沈丘县"},{"area_code":"周口市","code":"411624","name":"沈丘县"},{"area_code":"周口市","code":"411624","name":"沈丘县"},{"area_code":"周口市","code":"411624","name":"沈丘县"},{"area_code":"周口市","code":"411624","name":"沈丘县"},{"area_code":"周口市","code":"411624","name":"沈丘县"},{"area_code":"周口市","code":"411624","name":"沈丘县"},{"area_code":"周口市","code":"411624","name":"沈丘县"},{"area_code":"周口市","code":"411624","name":"沈丘县"},{"area_code":"周口市","code":"411627","name":"太康县"},{"area_code":"周口市","code":"411627","name":"太康县"},{"area_code":"周口市","code":"411627","name":"太康县"},{"area_code":"周口市","code":"411627","name":"太康县"},{"area_code":"周口市","code":"411622","name":"西华县"},{"area_code":"周口市","code":"411622","name":"西华县"},{"area_code":"周口市","code":"411622","name":"西华县"},{"area_code":"周口市","code":"411622","name":"西华县"},{"area_code":"周口市","code":"411622","name":"西华县"},{"area_code":"周口市","code":"411681","name":"项城市"},{"area_code":"周口市","code":"411681","name":"项城市"},{"area_code":"周口市","code":"411681","name":"项城市"},{"area_code":"周口市","code":"411681","name":"项城市"},{"area_code":"周口市","code":"411681","name":"项城市"},{"area_code":"周口市","code":"411681","name":"项城市"},{"area_code":"驻马店市","code":"411726","name":"泌阳县"},{"area_code":"驻马店市","code":"411726","name":"泌阳县"},{"area_code":"驻马店市","code":"411726","name":"泌阳县"},{"area_code":"驻马店市","code":"411723","name":"平舆县"},{"area_code":"驻马店市","code":"411723","name":"平舆县"},{"area_code":"驻马店市","code":"411723","name":"平舆县"},{"area_code":"驻马店市","code":"411723","name":"平舆县"},{"area_code":"驻马店市","code":"411725","name":"确山县"},{"area_code":"驻马店市","code":"411725","name":"确山县"},{"area_code":"驻马店市","code":"411727","name":"汝南县"},{"area_code":"驻马店市","code":"411727","name":"汝南县"},{"area_code":"驻马店市","code":"411727","name":"汝南县"},{"area_code":"驻马店市","code":"411722","name":"上蔡县"},{"area_code":"驻马店市","code":"411722","name":"上蔡县"},{"area_code":"驻马店市","code":"411722","name":"上蔡县"},{"area_code":"驻马店市","code":"411728","name":"遂平县"},{"area_code":"驻马店市","code":"411728","name":"遂平县"},{"area_code":"驻马店市","code":"411721","name":"西平县"},{"area_code":"驻马店市","code":"411721","name":"西平县"},{"area_code":"驻马店市","code":"411721","name":"西平县"},{"area_code":"驻马店市","code":"411729","name":"新蔡县"},{"area_code":"驻马店市","code":"411729","name":"新蔡县"},{"area_code":"驻马店市","code":"411729","name":"新蔡县"},{"area_code":"驻马店市","code":"411702","name":"驿城区"},{"area_code":"驻马店市","code":"411702","name":"驿城区"},{"area_code":"驻马店市","code":"411702","name":"驿城区"},{"area_code":"驻马店市","code":"411702","name":"驿城区"},{"area_code":"驻马店市","code":"411702","name":"驿城区"},{"area_code":"驻马店市","code":"411702","name":"驿城区"},{"area_code":"驻马店市","code":"411702","name":"驿城区"},{"area_code":"驻马店市","code":"411702","name":"驿城区"},{"area_code":"驻马店市","code":"411724","name":"正阳县"},{"area_code":"驻马店市","code":"411724","name":"正阳县"},{"area_code":"驻马店市","code":"411724","name":"正阳县"},{"area_code":"驻马店市","code":"411724","name":"正阳县"}]