[{"area_code":"长春市","code":"220101","name":"市辖区"},{"area_code":"长春市","code":"220101","name":"市辖区"},{"area_code":"长春市","code":"220101","name":"市辖区"},{"area_code":"长春市","code":"220101","name":"市辖区"},{"area_code":"长春市","code":"220101","name":"市辖区"},{"area_code":"长春市","code":"220101","name":"市辖区"},{"area_code":"长春市","code":"220101","name":"市辖区"},{"area_code":"长春市","code":"220101","name":"市辖区"},{"area_code":"长春市","code":"220101","name":"市辖区"},{"area_code":"长春市","code":"220101","name":"市辖区"},{"area_code":"长春市","code":"220101","name":"市辖区"},{"area_code":"长春市","code":"220101","name":"市辖区"},{"area_code":"长春市","code":"220101","name":"市辖区"},{"area_code":"长春市","code":"220101","name":"市辖区"},{"area_code":"长春市","code":"220101","name":"市辖区"},{"area_code":"长春市","code":"220101","name":"市辖区"},{"area_code":"长春市","code":"220101","name":"市辖区"},{"area_code":"长春市","code":"220101","name":"市辖区"},{"area_code":"长春市","code":"220101","name":"市辖区"},{"area_code":"长春市","code":"220101","name":"市辖区"},{"area_code":"长春市","code":"220101","name":"市辖区"},{"area_code":"长春市","code":"220101","name":"市辖区"},{"area_code":"长春市","code":"220101","name":"市辖区"},{"area_code":"长春市","code":"220101","name":"市辖区"},{"area_code":"长春市","code":"220101","name":"市辖区"},{"area_code":"长春市","code":"220101","name":"市辖区"},{"area_code":"长春市","code":"220101","name":"市辖区"},{"area_code":"长春市","code":"220101","name":"市辖区"},{"area_code":"长春市","code":"220101","name":"市辖区"},{"area_code":"长春市","code":"220101","name":"市辖区"},{"area_code":"长春市","code":"220101","name":"市辖区"},{"area_code":"长春市","code":"220101","name":"市辖区"},{"area_code":"长春市","code":"220101","name":"市辖区"},{"area_code":"长春市","code":"220101","name":"市辖区"},{"area_code":"长春市","code":"220101","name":"市辖区"},{"area_code":"长春市","code":"220101","name":"市辖区"},{"area_code":"长春市","code":"220101","name":"市辖区"},{"area_code":"长春市","code":"220101","name":"市辖区"},{"area_code":"长春市","code":"220101","name":"市辖区"},{"area_code":"长春市","code":"220101","name":"市辖区"},{"area_code":"长春市","code":"220101","name":"市辖区"},{"area_code":"长春市","code":"220122","name":"农安县"},{"area_code":"长春市","code":"220122","name":"农安县"},{"area_code":"长春市","code":"220122","name":"农安县"},{"area_code":"长春市","code":"220122","name":"农安县"},{"area_code":"长春市","code":"220122","name":"农安县"},{"area_code":"长春市","code":"220122","name":"农安县"},{"area_code":"长春市","code":"220122","name":"农安县"},{"area_code":"长春市","code":"220122","name":"农安县"},{"area_code":"长春市","code":"220122","name":"农安县"},{"area_code":"长春市","code":"220122","name":"农安县"},{"area_code":"长春市","code":"220181","name":"九台市"},{"area_code":"长春市","code":"220181","name":"九台市"},{"area_code":"长春市","code":"220181","name":"九台市"},{"area_code":"长春市","code":"220181","name":"九台市"},{"area_code":"长春市","code":"220181","name":"九台市"},{"area_code":"长春市","code":"220182","name":"榆树市"},{"area_code":"长春市","code":"220182","name":"榆树市"},{"area_code":"长春市","code":"220182","name":"榆树市"},{"area_code":"长春市","code":"220182","name":"榆树市"},{"area_code":"长春市","code":"220182","name":"榆树市"},{"area_code":"长春市","code":"220182","name":"榆树市"},{"area_code":"长春市","code":"220183","name":"德惠市"},{"area_code":"长春市","code":"220183","name":"德惠市"},{"area_code":"长春市","code":"220183","name":"德惠市"},{"area_code":"长春市","code":"220183","name":"德惠市"},{"area_code":"长春市","code":"220183","name":"德惠市"},{"area_code":"长春市","code":"220183","name":"德惠市"},{"area_code":"长春市","code":"220183","name":"德惠市"},{"area_code":"吉林市","code":"220201","name":"市辖区"},{"area_code":"吉林市","code":"220201","name":"市辖区"},{"area_code":"吉林市","code":"220201","name":"市辖区"},{"area_code":"吉林市","code":"220201","name":"市辖区"},{"area_code":"吉林市","code":"220201","name":"市辖区"},{"area_code":"吉林市","code":"220201","name":"市辖区"},{"area_code":"吉林市","code":"220201","name":"市辖区"},{"area_code":"吉林市","code":"220201","name":"市辖区"},{"area_code":"吉林市","code":"220201","name":"市辖区"},{"area_code":"吉林市","code":"220201","name":"市辖区"},{"area_code":"吉林市","code":"220201","name":"市辖区"},{"area_code":"吉林市","code":"220201","name":"市辖区"},{"area_code":"吉林市","code":"220201","name":"市辖区"},{"area_code":"吉林市","code":"220201","name":"市辖区"},{"area_code":"吉林市","code":"220201","name":"市辖区"},{"area_code":"吉林市","code":"220201","name":"市辖区"},{"area_code":"吉林市","code":"220201","name":"市辖区"},{"area_code":"吉林市","code":"220201","name":"市辖区"},{"area_code":"吉林市","code":"220201","name":"市辖区"},{"area_code":"吉林市","code":"220201","name":"市辖区"},{"area_code":"吉林市","code":"220201","name":"市辖区"},{"area_code":"吉林市","code":"220201","name":"市辖区"},{"area_code":"吉林市","code":"220221","name":"永吉县"},{"area_code":"吉林市","code":"220221","name":"永吉县"},{"area_code":"吉林市","code":"220221","name":"永吉县"},{"area_code":"吉林市","code":"220281","name":"蛟河市"},{"area_code":"吉林市","code":"220281","name":"蛟河市"},{"area_code":"吉林市","code":"220281","name":"蛟河市"},{"area_code":"吉林市","code":"220281","name":"蛟河市"},{"area_code":"吉林市","code":"220282","name":"桦甸市"},{"area_code":"吉林市","code":"220282","name":"桦甸市"},{"area_code":"吉林市","code":"220282","name":"桦甸市"},{"area_code":"吉林市","code":"220282","name":"桦甸市"},{"area_code":"吉林市","code":"220282","name":"桦甸市"},{"area_code":"吉林市","code":"220282","name":"桦甸市"},{"area_code":"吉林市","code":"220283","name":"舒兰市"},{"area_code":"吉林市","code":"220283","name":"舒兰市"},{"area_code":"吉林市","code":"220283","name":"舒兰市"},{"area_code":"吉林市","code":"220283","name":"舒兰市"},{"area_code":"吉林市","code":"220283","name":"舒兰市"},{"area_code":"吉林市","code":"220284","name":"磐石市"},{"area_code":"吉林市","code":"220284","name":"磐石市"},{"area_code":"吉林市","code":"220284","name":"磐石市"},{"area_code":"吉林市","code":"220284","name":"磐石市"},{"area_code":"吉林市","code":"220284","name":"磐石市"},{"area_code":"四平市","code":"220301","name":"市辖区"},{"area_code":"四平市","code":"220301","name":"市辖区"},{"area_code":"四平市","code":"220301","name":"市辖区"},{"area_code":"四平市","code":"220301","name":"市辖区"},{"area_code":"四平市","code":"220301","name":"市辖区"},{"area_code":"四平市","code":"220301","name":"市辖区"},{"area_code":"四平市","code":"220301","name":"市辖区"},{"area_code":"四平市","code":"220301","name":"市辖区"},{"area_code":"四平市","code":"220301","name":"市辖区"},{"area_code":"四平市","code":"220301","name":"市辖区"},{"area_code":"四平市","code":"220322","name":"梨树县"},{"area_code":"四平市","code":"220322","name":"梨树县"},{"area_code":"四平市","code":"220322","name":"梨树县"},{"area_code":"四平市","code":"220322","name":"梨树县"},{"area_code":"四平市","code":"220322","name":"梨树县"},{"area_code":"四平市","code":"220322","name":"梨树县"},{"area_code":"四平市","code":"220322","name":"梨树县"},{"area_code":"四平市","code":"220323","name":"伊通满族自治县"},{"area_code":"四平市","code":"220323","name":"伊通满族自治县"},{"area_code":"四平市","code":"220323","name":"伊通满族自治县"},{"area_code":"四平市","code":"220323","name":"伊通满族自治县"},{"area_code":"四平市","code":"220381","name":"公主岭市"},{"area_code":"四平市","code":"220381","name":"公主岭市"},{"area_code":"四平市","code":"220381","name":"公主岭市"},{"area_code":"四平市","code":"220381","name":"公主岭市"},{"area_code":"四平市","code":"220381","name":"公主岭市"},{"area_code":"四平市","code":"220381","name":"公主岭市"},{"area_code":"四平市","code":"220381","name":"公主岭市"},{"area_code":"四平市","code":"220381","name":"公主岭市"},{"area_code":"四平市","code":"220382","name":"双辽市"},{"area_code":"四平市","code":"220382","name":"双辽市"},{"area_code":"四平市","code":"220382","name":"双辽市"},{"area_code":"四平市","code":"220382","name":"双辽市"},{"area_code":"辽源市","code":"220401","name":"市辖区"},{"area_code":"辽源市","code":"220401","name":"市辖区"},{"area_code":"辽源市","code":"220401","name":"市辖区"},{"area_code":"辽源市","code":"220401","name":"市辖区"},{"area_code":"辽源市","code":"220421","name":"东丰县"},{"area_code":"辽源市","code":"220421","name":"东丰县"},{"area_code":"辽源市","code":"220422","name":"东辽县"},{"area_code":"辽源市","code":"220422","name":"东辽县"},{"area_code":"通化市","code":"220501","name":"市辖区"},{"area_code":"通化市","code":"220501","name":"市辖区"},{"area_code":"通化市","code":"220501","name":"市辖区"},{"area_code":"通化市","code":"220501","name":"市辖区"},{"area_code":"通化市","code":"220501","name":"市辖区"},{"area_code":"通化市","code":"220501","name":"市辖区"},{"area_code":"通化市","code":"220501","name":"市辖区"},{"area_code":"通化市","code":"220521","name":"通化县"},{"area_code":"通化市","code":"220521","name":"通化县"},{"area_code":"通化市","code":"220524","name":"柳河县"},{"area_code":"通化市","code":"220524","name":"柳河县"},{"area_code":"通化市","code":"220523","name":"辉南县"},{"area_code":"通化市","code":"220523","name":"辉南县"},{"area_code":"通化市","code":"220581","name":"梅河口市"},{"area_code":"通化市","code":"220581","name":"梅河口市"},{"area_code":"通化市","code":"220581","name":"梅河口市"},{"area_code":"通化市","code":"220581","name":"梅河口市"},{"area_code":"通化市","code":"220581","name":"梅河口市"},{"area_code":"通化市","code":"220582","name":"集安市"},{"area_code":"通化市","code":"220582","name":"集安市"},{"area_code":"白山市","code":"220601","name":"市辖区"},{"area_code":"白山市","code":"220601","name":"市辖区"},{"area_code":"白山市","code":"220601","name":"市辖区"},{"area_code":"白山市","code":"220601","name":"市辖区"},{"area_code":"白山市","code":"220601","name":"市辖区"},{"area_code":"白山市","code":"220601","name":"市辖区"},{"area_code":"白山市","code":"220601","name":"市辖区"},{"area_code":"白山市","code":"220622","name":"靖宇县"},{"area_code":"白山市","code":"220621","name":"抚松县"},{"area_code":"白山市","code":"220621","name":"抚松县"},{"area_code":"白山市","code":"220621","name":"抚松县"},{"area_code":"白山市","code":"220621","name":"抚松县"},{"area_code":"白山市","code":"220621","name":"抚松县"},{"area_code":"白山市","code":"220623","name":"长白县"},{"area_code":"白山市","code":"220623","name":"长白县"},{"area_code":"白山市","code":"220681","name":"临江市"},{"area_code":"白山市","code":"220681","name":"临江市"},{"area_code":"松原市","code":"220701","name":"市辖区"},{"area_code":"松原市","code":"220701","name":"市辖区"},{"area_code":"松原市","code":"220701","name":"市辖区"},{"area_code":"松原市","code":"220701","name":"市辖区"},{"area_code":"松原市","code":"220701","name":"市辖区"},{"area_code":"松原市","code":"220701","name":"市辖区"},{"area_code":"松原市","code":"220701","name":"市辖区"},{"area_code":"松原市","code":"220701","name":"市辖区"},{"area_code":"松原市","code":"220721","name":"前郭县"},{"area_code":"松原市","code":"220721","name":"前郭县"},{"area_code":"松原市","code":"220721","name":"前郭县"},{"area_code":"松原市","code":"220721","name":"前郭县"},{"area_code":"松原市","code":"220722","name":"长岭县"},{"area_code":"松原市","code":"220722","name":"长岭县"},{"area_code":"松原市","code":"220722","name":"长岭县"},{"area_code":"松原市","code":"220723","name":"乾安县"},{"area_code":"松原市","code":"220723","name":"乾安县"},{"area_code":"松原市","code":"220724","name":"扶余县"},{"area_code":"松原市","code":"220724","name":"扶余县"},{"area_code":"白城市","code":"220801","name":"市辖区"},{"area_code":"白城市","code":"220801","name":"市辖区"},{"area_code":"白城市","code":"220801","name":"市辖区"},{"area_code":"白城市","code":"220801","name":"市辖区"},{"area_code":"白城市","code":"220801","name":"市辖区"},{"area_code":"白城市","code":"220801","name":"市辖区"},{"area_code":"白城市","code":"220821","name":"镇赉县"},{"area_code":"白城市","code":"220821","name":"镇赉县"},{"area_code":"白城市","code":"220821","name":"镇赉县"},{"area_code":"白城市","code":"220822","name":"通榆县"},{"area_code":"白城市","code":"220822","name":"通榆县"},{"area_code":"白城市","code":"220822","name":"通榆县"},{"area_code":"白城市","code":"220881","name":"洮南市"},{"area_code":"白城市","code":"220881","name":"洮南市"},{"area_code":"白城市","code":"220881","name":"洮南市"},{"area_code":"白城市","code":"220881","name":"洮南市"},{"area_code":"白城市","code":"220882","name":"大安市"},{"area_code":"白城市","code":"220882","name":"大安市"},{"area_code":"白城市","code":"220882","name":"大安市"},{"area_code":"延边朝鲜族自治州","code":"222401","name":"延吉市"},{"area_code":"延边朝鲜族自治州","code":"222401","name":"延吉市"},{"area_code":"延边朝鲜族自治州","code":"222401","name":"延吉市"},{"area_code":"延边朝鲜族自治州","code":"222401","name":"延吉市"},{"area_code":"延边朝鲜族自治州","code":"222401","name":"延吉市"},{"area_code":"延边朝鲜族自治州","code":"222401","name":"延吉市"},{"area_code":"延边朝鲜族自治州","code":"222402","name":"图们市"},{"area_code":"延边朝鲜族自治州","code":"222402","name":"图们市"},{"area_code":"延边朝鲜族自治州","code":"222403","name":"敦化市"},{"area_code":"延边朝鲜族自治州","code":"222403","name":"敦化市"},{"area_code":"延边朝鲜族自治州","code":"222403","name":"敦化市"},{"area_code":"延边朝鲜族自治州","code":"222403","name":"敦化市"},{"area_code":"延边朝鲜族自治州","code":"222403","name":"敦化市"},{"area_code":"延边朝鲜族自治州","code":"222403","name":"敦化市"},{"area_code":"延边朝鲜族自治州","code":"222403","name":"敦化市"},{"area_code":"延边朝鲜族自治州","code":"222404","name":"珲春市"},{"area_code":"延边朝鲜族自治州","code":"222404","name":"珲春市"},{"area_code":"延边朝鲜族自治州","code":"222405","name":"龙井市"},{"area_code":"延边朝鲜族自治州","code":"222405","name":"龙井市"},{"area_code":"延边朝鲜族自治州","code":"222406","name":"和龙市"},{"area_code":"延边朝鲜族自治州","code":"222406","name":"和龙市"},{"area_code":"延边朝鲜族自治州","code":"222406","name":"和龙市"},{"area_code":"延边朝鲜族自治州","code":"222424","name":"汪清县"},{"area_code":"延边朝鲜族自治州","code":"222424","name":"汪清县"},{"area_code":"延边朝鲜族自治州","code":"222424","name":"汪清县"},{"area_code":"延边朝鲜族自治州","code":"222426","name":"安图县"},{"area_code":"延边朝鲜族自治州","code":"222426","name":"安图县"},{"area_code":"延边朝鲜族自治州","code":"222426","name":"安图县"},{"area_code":"丹东市","code":"210681","name":"东港市"},{"area_code":"丹东市","code":"210682","name":"凤城市"},{"area_code":"丹东市","code":"210682","name":"凤城市"},{"area_code":"丹东市","code":"210682","name":"凤城市"},{"area_code":"丹东市","code":"210682","name":"凤城市"},{"area_code":"锦州市","code":"210701","name":"市辖区"},{"area_code":"锦州市","code":"210701","name":"市辖区"},{"area_code":"锦州市","code":"210701","name":"市辖区"},{"area_code":"锦州市","code":"210701","name":"市辖区"},{"area_code":"锦州市","code":"210701","name":"市辖区"},{"area_code":"锦州市","code":"210701","name":"市辖区"},{"area_code":"锦州市","code":"210701","name":"市辖区"},{"area_code":"锦州市","code":"210701","name":"市辖区"},{"area_code":"锦州市","code":"210701","name":"市辖区"},{"area_code":"锦州市","code":"210701","name":"市辖区"},{"area_code":"锦州市","code":"210701","name":"市辖区"},{"area_code":"锦州市","code":"210701","name":"市辖区"},{"area_code":"锦州市","code":"210701","name":"市辖区"},{"area_code":"锦州市","code":"210701","name":"市辖区"},{"area_code":"锦州市","code":"210701","name":"市辖区"},{"area_code":"锦州市","code":"210701","name":"市辖区"},{"area_code":"锦州市","code":"210701","name":"市辖区"},{"area_code":"锦州市","code":"210726","name":"黑山县"},{"area_code":"锦州市","code":"210726","name":"黑山县"},{"area_code":"锦州市","code":"210726","name":"黑山县"},{"area_code":"锦州市","code":"210726","name":"黑山县"},{"area_code":"锦州市","code":"210726","name":"黑山县"},{"area_code":"锦州市","code":"210727","name":"义县"},{"area_code":"锦州市","code":"210727","name":"义县"},{"area_code":"锦州市","code":"210727","name":"义县"},{"area_code":"锦州市","code":"210781","name":"凌海市"},{"area_code":"锦州市","code":"210781","name":"凌海市"},{"area_code":"锦州市","code":"210781","name":"凌海市"},{"area_code":"锦州市","code":"210782","name":"北镇市"},{"area_code":"锦州市","code":"210782","name":"北镇市"},{"area_code":"锦州市","code":"210782","name":"北镇市"},{"area_code":"锦州市","code":"210782","name":"北镇市"},{"area_code":"营口市","code":"210801","name":"市辖区"},{"area_code":"营口市","code":"210801","name":"市辖区"},{"area_code":"营口市","code":"210801","name":"市辖区"},{"area_code":"营口市","code":"210801","name":"市辖区"},{"area_code":"营口市","code":"210801","name":"市辖区"},{"area_code":"营口市","code":"210801","name":"市辖区"},{"area_code":"营口市","code":"210801","name":"市辖区"},{"area_code":"营口市","code":"210801","name":"市辖区"},{"area_code":"营口市","code":"210801","name":"市辖区"},{"area_code":"营口市","code":"210801","name":"市辖区"},{"area_code":"营口市","code":"210801","name":"市辖区"},{"area_code":"营口市","code":"210881","name":"盖州市"},{"area_code":"营口市","code":"210881","name":"盖州市"},{"area_code":"营口市","code":"210882","name":"大石桥市"},{"area_code":"营口市","code":"210882","name":"大石桥市"},{"area_code":"营口市","code":"210882","name":"大石桥市"},{"area_code":"阜新市","code":"210901","name":"市辖区"},{"area_code":"阜新市","code":"210901","name":"市辖区"},{"area_code":"阜新市","code":"210901","name":"市辖区"},{"area_code":"阜新市","code":"210901","name":"市辖区"},{"area_code":"阜新市","code":"210901","name":"市辖区"},{"area_code":"阜新市","code":"210901","name":"市辖区"},{"area_code":"阜新市","code":"210901","name":"市辖区"},{"area_code":"阜新市","code":"210901","name":"市辖区"},{"area_code":"阜新市","code":"210901","name":"市辖区"},{"area_code":"阜新市","code":"210901","name":"市辖区"},{"area_code":"阜新市","code":"210921","name":"阜新县"},{"area_code":"阜新市","code":"210921","name":"阜新县"},{"area_code":"阜新市","code":"210921","name":"阜新县"},{"area_code":"阜新市","code":"210921","name":"阜新县"},{"area_code":"阜新市","code":"210921","name":"阜新县"},{"area_code":"阜新市","code":"210922","name":"彰武县"},{"area_code":"阜新市","code":"210922","name":"彰武县"},{"area_code":"阜新市","code":"210922","name":"彰武县"},{"area_code":"辽阳市","code":"211001","name":"市辖区"},{"area_code":"辽阳市","code":"211001","name":"市辖区"},{"area_code":"辽阳市","code":"211001","name":"市辖区"},{"area_code":"辽阳市","code":"211001","name":"市辖区"},{"area_code":"辽阳市","code":"211001","name":"市辖区"},{"area_code":"辽阳市","code":"211001","name":"市辖区"},{"area_code":"辽阳市","code":"211021","name":"辽阳县"},{"area_code":"辽阳市","code":"211021","name":"辽阳县"},{"area_code":"辽阳市","code":"211021","name":"辽阳县"},{"area_code":"辽阳市","code":"211081","name":"灯塔市"},{"area_code":"辽阳市","code":"211081","name":"灯塔市"},{"area_code":"盘锦市","code":"211101","name":"市辖区"},{"area_code":"盘锦市","code":"211101","name":"市辖区"},{"area_code":"盘锦市","code":"211101","name":"市辖区"},{"area_code":"盘锦市","code":"211101","name":"市辖区"},{"area_code":"盘锦市","code":"211101","name":"市辖区"},{"area_code":"盘锦市","code":"211121","name":"大洼县"},{"area_code":"盘锦市","code":"211121","name":"大洼县"},{"area_code":"盘锦市","code":"211121","name":"大洼县"},{"area_code":"盘锦市","code":"211122","name":"盘山县"},{"area_code":"盘锦市","code":"211122","name":"盘山县"},{"area_code":"铁岭市","code":"211201","name":"市辖区"},{"area_code":"铁岭市","code":"211201","name":"市辖区"},{"area_code":"铁岭市","code":"211201","name":"市辖区"},{"area_code":"铁岭市","code":"211201","name":"市辖区"},{"area_code":"铁岭市","code":"211201","name":"市辖区"},{"area_code":"铁岭市","code":"211201","name":"市辖区"},{"area_code":"铁岭市","code":"211201","name":"市辖区"},{"area_code":"铁岭市","code":"211221","name":"铁岭县"},{"area_code":"铁岭市","code":"211221","name":"铁岭县"},{"area_code":"铁岭市","code":"211223","name":"西丰县"},{"area_code":"铁岭市","code":"211223","name":"西丰县"},{"area_code":"铁岭市","code":"211224","name":"昌图县"},{"area_code":"铁岭市","code":"211224","name":"昌图县"},{"area_code":"铁岭市","code":"211224","name":"昌图县"},{"area_code":"铁岭市","code":"211224","name":"昌图县"},{"area_code":"铁岭市","code":"211281","name":"调兵山市"},{"area_code":"铁岭市","code":"211281","name":"调兵山市"},{"area_code":"铁岭市","code":"211282","name":"开原市"},{"area_code":"铁岭市","code":"211282","name":"开原市"},{"area_code":"铁岭市","code":"211282","name":"开原市"},{"area_code":"朝阳市","code":"211301","name":"市辖区"},{"area_code":"朝阳市","code":"211301","name":"市辖区"},{"area_code":"朝阳市","code":"211301","name":"市辖区"},{"area_code":"朝阳市","code":"211301","name":"市辖区"},{"area_code":"朝阳市","code":"211301","name":"市辖区"},{"area_code":"朝阳市","code":"211321","name":"朝阳县"},{"area_code":"朝阳市","code":"211321","name":"朝阳县"},{"area_code":"朝阳市","code":"211321","name":"朝阳县"},{"area_code":"朝阳市","code":"211321","name":"朝阳县"},{"area_code":"朝阳市","code":"211322","name":"建平县"},{"area_code":"朝阳市","code":"211322","name":"建平县"},{"area_code":"朝阳市","code":"211322","name":"建平县"},{"area_code":"朝阳市","code":"211381","name":"北票市"},{"area_code":"朝阳市","code":"211381","name":"北票市"},{"area_code":"朝阳市","code":"211381","name":"北票市"},{"area_code":"朝阳市","code":"211381","name":"北票市"},{"area_code":"朝阳市","code":"211324","name":"喀左县"},{"area_code":"朝阳市","code":"211324","name":"喀左县"},{"area_code":"朝阳市","code":"211324","name":"喀左县"},{"area_code":"朝阳市","code":"211324","name":"喀左县"},{"area_code":"朝阳市","code":"211382","name":"凌源市"},{"area_code":"朝阳市","code":"211382","name":"凌源市"},{"area_code":"朝阳市","code":"211382","name":"凌源市"},{"area_code":"朝阳市","code":"211382","name":"凌源市"},{"area_code":"葫芦岛市","code":"211401","name":"市辖区"},{"area_code":"葫芦岛市","code":"211401","name":"市辖区"},{"area_code":"葫芦岛市","code":"211401","name":"市辖区"},{"area_code":"葫芦岛市","code":"211401","name":"市辖区"},{"area_code":"葫芦岛市","code":"211401","name":"市辖区"},{"area_code":"葫芦岛市","code":"211401","name":"市辖区"},{"area_code":"葫芦岛市","code":"211401","name":"市辖区"},{"area_code":"葫芦岛市","code":"211401","name":"市辖区"},{"area_code":"葫芦岛市","code":"211401","name":"市辖区"},{"area_code":"葫芦岛市","code":"211401","name":"市辖区"},{"area_code":"葫芦岛市","code":"211401","name":"市辖区"},{"area_code":"葫芦岛市","code":"211401","name":"市辖区"},{"area_code":"葫芦岛市","code":"211421","name":"绥中县"},{"area_code":"葫芦岛市","code":"211421","name":"绥中县"},{"area_code":"葫芦岛市","code":"211421","name":"绥中县"},{"area_code":"葫芦岛市","code":"211422","name":"建昌县"},{"area_code":"葫芦岛市","code":"211422","name":"建昌县"},{"area_code":"葫芦岛市","code":"211422","name":"建昌县"},{"area_code":"葫芦岛市","code":"211481","name":"兴城市"},{"area_code":"葫芦岛市","code":"211481","name":"兴城市"},{"area_code":"葫芦岛市","code":"211481","name":"兴城市"},{"area_code":"葫芦岛市","code":"211481","name":"兴城市"},{"area_code":"保定市","code":"130630","name":"涞源县"},{"area_code":"保定市","code":"130630","name":"涞源县"},{"area_code":"保定市","code":"130631","name":"望都县"},{"area_code":"保定市","code":"130631","name":"望都县"},{"area_code":"保定市","code":"130631","name":"望都县"},{"area_code":"保定市","code":"130632","name":"安新县"},{"area_code":"保定市","code":"130633","name":"易县"},{"area_code":"保定市","code":"130633","name":"易县"},{"area_code":"保定市","code":"130634","name":"曲阳县"},{"area_code":"保定市","code":"130634","name":"曲阳县"},{"area_code":"保定市","code":"130634","name":"曲阳县"},{"area_code":"保定市","code":"130634","name":"曲阳县"},{"area_code":"保定市","code":"130634","name":"曲阳县"},{"area_code":"保定市","code":"130635","name":"蠡县"},{"area_code":"保定市","code":"130635","name":"蠡县"},{"area_code":"保定市","code":"130635","name":"蠡县"},{"area_code":"保定市","code":"130635","name":"蠡县"},{"area_code":"保定市","code":"130635","name":"蠡县"},{"area_code":"保定市","code":"130636","name":"顺平县"},{"area_code":"保定市","code":"130636","name":"顺平县"},{"area_code":"保定市","code":"130636","name":"顺平县"},{"area_code":"保定市","code":"130637","name":"博野县"},{"area_code":"保定市","code":"130638","name":"雄县"},{"area_code":"保定市","code":"130681","name":"涿州市"},{"area_code":"保定市","code":"130681","name":"涿州市"},{"area_code":"保定市","code":"130681","name":"涿州市"},{"area_code":"保定市","code":"130681","name":"涿州市"},{"area_code":"保定市","code":"130681","name":"涿州市"},{"area_code":"保定市","code":"130681","name":"涿州市"},{"area_code":"保定市","code":"130681","name":"涿州市"},{"area_code":"保定市","code":"130682","name":"定州市"},{"area_code":"保定市","code":"130682","name":"定州市"},{"area_code":"保定市","code":"130682","name":"定州市"},{"area_code":"保定市","code":"130682","name":"定州市"},{"area_code":"保定市","code":"130682","name":"定州市"},{"area_code":"保定市","code":"130682","name":"定州市"},{"area_code":"保定市","code":"130682","name":"定州市"},{"area_code":"保定市","code":"130682","name":"定州市"},{"area_code":"保定市","code":"130682","name":"定州市"},{"area_code":"保定市","code":"130682","name":"定州市"},{"area_code":"保定市","code":"130682","name":"定州市"},{"area_code":"保定市","code":"130683","name":"安国市"},{"area_code":"保定市","code":"130683","name":"安国市"},{"area_code":"保定市","code":"130684","name":"高碑店市"},{"area_code":"保定市","code":"130684","name":"高碑店市"},{"area_code":"保定市","code":"130684","name":"高碑店市"},{"area_code":"保定市","code":"130684","name":"高碑店市"},{"area_code":"张家口市","code":"130701","name":"市辖区"},{"area_code":"张家口市","code":"130701","name":"市辖区"},{"area_code":"张家口市","code":"130701","name":"市辖区"},{"area_code":"张家口市","code":"130701","name":"市辖区"},{"area_code":"张家口市","code":"130701","name":"市辖区"},{"area_code":"张家口市","code":"130701","name":"市辖区"},{"area_code":"张家口市","code":"130701","name":"市辖区"},{"area_code":"张家口市","code":"130701","name":"市辖区"},{"area_code":"张家口市","code":"130701","name":"市辖区"},{"area_code":"张家口市","code":"130701","name":"市辖区"},{"area_code":"张家口市","code":"130701","name":"市辖区"},{"area_code":"张家口市","code":"130701","name":"市辖区"},{"area_code":"张家口市","code":"130701","name":"市辖区"},{"area_code":"张家口市","code":"130701","name":"市辖区"},{"area_code":"张家口市","code":"130701","name":"市辖区"},{"area_code":"张家口市","code":"130701","name":"市辖区"},{"area_code":"张家口市","code":"130701","name":"市辖区"},{"area_code":"张家口市","code":"130701","name":"市辖区"},{"area_code":"张家口市","code":"130722","name":"张北县"},{"area_code":"张家口市","code":"130722","name":"张北县"},{"area_code":"张家口市","code":"130723","name":"康保县"},{"area_code":"张家口市","code":"130723","name":"康保县"},{"area_code":"张家口市","code":"130724","name":"沽源县"},{"area_code":"张家口市","code":"130725","name":"尚义县"},{"area_code":"张家口市","code":"130726","name":"蔚县"},{"area_code":"张家口市","code":"130726","name":"蔚县"},{"area_code":"张家口市","code":"130727","name":"阳原县"},{"area_code":"张家口市","code":"130728","name":"怀安县"},{"area_code":"张家口市","code":"130729","name":"万全县"},{"area_code":"张家口市","code":"130730","name":"怀来县"},{"area_code":"张家口市","code":"130730","name":"怀来县"},{"area_code":"张家口市","code":"130730","name":"怀来县"},{"area_code":"张家口市","code":"130730","name":"怀来县"},{"area_code":"张家口市","code":"130731","name":"涿鹿县"},{"area_code":"张家口市","code":"130731","name":"涿鹿县"},{"area_code":"张家口市","code":"130732","name":"赤城县"},{"area_code":"张家口市","code":"130732","name":"赤城县"},{"area_code":"张家口市","code":"130733","name":"崇礼县"},{"area_code":"承德市","code":"130802","name":"双桥区"},{"area_code":"承德市","code":"130803","name":"双滦区"},{"area_code":"承德市","code":"130804","name":"鹰手营区"},{"area_code":"承德市","code":"130804","name":"鹰手营区"},{"area_code":"承德市","code":"130804","name":"鹰手营区"},{"area_code":"承德市","code":"130821","name":"承德县"},{"area_code":"承德市","code":"130821","name":"承德县"},{"area_code":"承德市","code":"130821","name":"承德县"},{"area_code":"承德市","code":"130821","name":"承德县"},{"area_code":"承德市","code":"130822","name":"兴隆县"},{"area_code":"承德市","code":"130822","name":"兴隆县"},{"area_code":"承德市","code":"130823","name":"平泉县"},{"area_code":"承德市","code":"130823","name":"平泉县"},{"area_code":"承德市","code":"130823","name":"平泉县"},{"area_code":"承德市","code":"130823","name":"平泉县"},{"area_code":"承德市","code":"130824","name":"滦平县"},{"area_code":"承德市","code":"130824","name":"滦平县"},{"area_code":"承德市","code":"130825","name":"隆化县"},{"area_code":"承德市","code":"130825","name":"隆化县"},{"area_code":"承德市","code":"130825","name":"隆化县"},{"area_code":"承德市","code":"130825","name":"隆化县"},{"area_code":"承德市","code":"130826","name":"丰宁县"},{"area_code":"承德市","code":"130826","name":"丰宁县"},{"area_code":"承德市","code":"130827","name":"宽城县"},{"area_code":"承德市","code":"130827","name":"宽城县"},{"area_code":"承德市","code":"130827","name":"宽城县"},{"area_code":"承德市","code":"130828","name":"围场县"},{"area_code":"承德市","code":"130828","name":"围场县"},{"area_code":"承德市","code":"130828","name":"围场县"},{"area_code":"承德市","code":"130828","name":"围场县"},{"area_code":"沧州市","code":"130901","name":"市辖区"},{"area_code":"沧州市","code":"130901","name":"市辖区"},{"area_code":"沧州市","code":"130901","name":"市辖区"},{"area_code":"沧州市","code":"130901","name":"市辖区"},{"area_code":"沧州市","code":"130901","name":"市辖区"},{"area_code":"沧州市","code":"130901","name":"市辖区"},{"area_code":"沧州市","code":"130901","name":"市辖区"},{"area_code":"沧州市","code":"130901","name":"市辖区"},{"area_code":"沧州市","code":"130902","name":"新华区"},{"area_code":"沧州市","code":"130902","name":"新华区"},{"area_code":"沧州市","code":"130902","name":"新华区"},{"area_code":"沧州市","code":"130902","name":"新华区"},{"area_code":"沧州市","code":"130902","name":"新华区"},{"area_code":"沧州市","code":"130903","name":"运河区"},{"area_code":"沧州市","code":"130903","name":"运河区"},{"area_code":"沧州市","code":"130921","name":"沧县"},{"area_code":"沧州市","code":"130921","name":"沧县"},{"area_code":"沧州市","code":"130921","name":"沧县"},{"area_code":"沧州市","code":"130921","name":"沧县"},{"area_code":"沧州市","code":"130921","name":"沧县"},{"area_code":"沧州市","code":"130922","name":"青县"},{"area_code":"沧州市","code":"130922","name":"青县"},{"area_code":"沧州市","code":"130922","name":"青县"},{"area_code":"沧州市","code":"130922","name":"青县"},{"area_code":"沧州市","code":"130922","name":"青县"},{"area_code":"沧州市","code":"130922","name":"青县"},{"area_code":"沧州市","code":"130923","name":"东光县"},{"area_code":"沧州市","code":"130923","name":"东光县"},{"area_code":"沧州市","code":"130924","name":"海兴县"},{"area_code":"沧州市","code":"130925","name":"盐山县"},{"area_code":"沧州市","code":"130925","name":"盐山县"},{"area_code":"沧州市","code":"130926","name":"肃宁县"},{"area_code":"沧州市","code":"130926","name":"肃宁县"},{"area_code":"沧州市","code":"130927","name":"南皮县"},{"area_code":"沧州市","code":"130927","name":"南皮县"},{"area_code":"沧州市","code":"130927","name":"南皮县"},{"area_code":"沧州市","code":"130927","name":"南皮县"},{"area_code":"沧州市","code":"130928","name":"吴桥县"},{"area_code":"沧州市","code":"130928","name":"吴桥县"},{"area_code":"沧州市","code":"130929","name":"献县"},{"area_code":"沧州市","code":"130929","name":"献县"},{"area_code":"沧州市","code":"130929","name":"献县"},{"area_code":"沧州市","code":"130929","name":"献县"},{"area_code":"沧州市","code":"130929","name":"献县"},{"area_code":"沧州市","code":"130930","name":"孟村县"},{"area_code":"沧州市","code":"130981","name":"泊头市"},{"area_code":"沧州市","code":"130981","name":"泊头市"},{"area_code":"沧州市","code":"130981","name":"泊头市"},{"area_code":"沧州市","code":"130981","name":"泊头市"},{"area_code":"沧州市","code":"130981","name":"泊头市"},{"area_code":"沧州市","code":"130981","name":"泊头市"},{"area_code":"沧州市","code":"130982","name":"任丘市"},{"area_code":"沧州市","code":"130982","name":"任丘市"},{"area_code":"沧州市","code":"130982","name":"任丘市"},{"area_code":"沧州市","code":"130982","name":"任丘市"},{"area_code":"沧州市","code":"130982","name":"任丘市"},{"area_code":"沧州市","code":"130982","name":"任丘市"},{"area_code":"沧州市","code":"130982","name":"任丘市"},{"area_code":"沧州市","code":"130982","name":"任丘市"},{"area_code":"沧州市","code":"130983","name":"黄骅市"},{"area_code":"沧州市","code":"130983","name":"黄骅市"},{"area_code":"沧州市","code":"130983","name":"黄骅市"},{"area_code":"沧州市","code":"130983","name":"黄骅市"},{"area_code":"沧州市","code":"130983","name":"黄骅市"},{"area_code":"沧州市","code":"130984","name":"河间市"},{"area_code":"沧州市","code":"130984","name":"河间市"},{"area_code":"沧州市","code":"130984","name":"河间市"},{"area_code":"沧州市","code":"130984","name":"河间市"},{"area_code":"沧州市","code":"130984","name":"河间市"},{"area_code":"沧州市","code":"130984","name":"河间市"},{"area_code":"廊坊市","code":"131001","name":"市辖区"},{"area_code":"廊坊市","code":"131001","name":"市辖区"},{"area_code":"廊坊市","code":"131001","name":"市辖区"},{"area_code":"廊坊市","code":"131001","name":"市辖区"},{"area_code":"廊坊市","code":"131001","name":"市辖区"},{"area_code":"廊坊市","code":"131001","name":"市辖区"},{"area_code":"廊坊市","code":"131001","name":"市辖区"},{"area_code":"廊坊市","code":"131002","name":"安次区"},{"area_code":"廊坊市","code":"131003","name":"广阳区"},{"area_code":"廊坊市","code":"131003","name":"广阳区"},{"area_code":"廊坊市","code":"131022","name":"固安县"},{"area_code":"廊坊市","code":"131022","name":"固安县"},{"area_code":"廊坊市","code":"131022","name":"固安县"},{"area_code":"廊坊市","code":"131022","name":"固安县"},{"area_code":"廊坊市","code":"131023","name":"永清县"},{"area_code":"廊坊市","code":"131024","name":"香河县"},{"area_code":"廊坊市","code":"131024","name":"香河县"},{"area_code":"廊坊市","code":"131024","name":"香河县"},{"area_code":"廊坊市","code":"131025","name":"大城县"},{"area_code":"廊坊市","code":"131025","name":"大城县"},{"area_code":"廊坊市","code":"131026","name":"文安县"},{"area_code":"廊坊市","code":"131026","name":"文安县"},{"area_code":"廊坊市","code":"131028","name":"大厂县"},{"area_code":"廊坊市","code":"131028","name":"大厂县"},{"area_code":"廊坊市","code":"131081","name":"霸州市"},{"area_code":"廊坊市","code":"131081","name":"霸州市"},{"area_code":"廊坊市","code":"131081","name":"霸州市"},{"area_code":"廊坊市","code":"131081","name":"霸州市"},{"area_code":"廊坊市","code":"131081","name":"霸州市"},{"area_code":"廊坊市","code":"131082","name":"三河市"},{"area_code":"廊坊市","code":"131082","name":"三河市"},{"area_code":"廊坊市","code":"131082","name":"三河市"},{"area_code":"衡水市","code":"131102","name":"桃城区"},{"area_code":"衡水市","code":"131102","name":"桃城区"},{"area_code":"衡水市","code":"131102","name":"桃城区"},{"area_code":"衡水市","code":"131102","name":"桃城区"},{"area_code":"衡水市","code":"131102","name":"桃城区"},{"area_code":"衡水市","code":"131102","name":"桃城区"},{"area_code":"衡水市","code":"131121","name":"枣强县"},{"area_code":"衡水市","code":"131121","name":"枣强县"},{"area_code":"衡水市","code":"131121","name":"枣强县"},{"area_code":"衡水市","code":"131122","name":"武邑县"},{"area_code":"衡水市","code":"131122","name":"武邑县"},{"area_code":"衡水市","code":"131122","name":"武邑县"},{"area_code":"衡水市","code":"131122","name":"武邑县"},{"area_code":"衡水市","code":"131123","name":"武强县"},{"area_code":"衡水市","code":"131124","name":"饶阳县"},{"area_code":"衡水市","code":"131125","name":"安平县"},{"area_code":"衡水市","code":"131125","name":"安平县"},{"area_code":"衡水市","code":"131125","name":"安平县"},{"area_code":"衡水市","code":"131126","name":"故城县"},{"area_code":"衡水市","code":"131126","name":"故城县"},{"area_code":"衡水市","code":"131127","name":"景县"},{"area_code":"衡水市","code":"131127","name":"景县"},{"area_code":"衡水市","code":"131127","name":"景县"},{"area_code":"衡水市","code":"131128","name":"阜城县"},{"area_code":"衡水市","code":"131128","name":"阜城县"},{"area_code":"衡水市","code":"131181","name":"冀州市"},{"area_code":"衡水市","code":"131181","name":"冀州市"},{"area_code":"衡水市","code":"131181","name":"冀州市"},{"area_code":"衡水市","code":"131182","name":"深州市"},{"area_code":"衡水市","code":"131182","name":"深州市"},{"area_code":"衡水市","code":"131182","name":"深州市"}]