[{
  "area_code": 820000,
  "name": "中葡职业技术学校",
  "code": 82000001,
  "addition": null
}, {
  "area_code": 820000,
  "name": "化地玛圣母女子学校",
  "code": 82000002,
  "addition": null
}, {
  "area_code": 820000,
  "name": "同善堂中学",
  "code": 82000003,
  "addition": null
}, {
  "area_code": 820000,
  "name": "利玛窦中学",
  "code": 82000004,
  "addition": null
}, {
  "area_code": 820000,
  "name": "庇道学校",
  "code": 82000005,
  "addition":
}, {
  "area_code": 820000,
  "name": "协同特殊教育学校",
  "code": 82000006,
  "addition":
}, {
  "area_code": 820000,
  "name": "东南学校",
  "code": 82000007,
  "addition": null
}, {
  "area_code": 820000,
  "name": "海星中学",
  "code": 82000008,
  "addition": null
}, {
  "area_code": 820000,
  "name": "高美士中葡中学",
  "code": 82000009,
  "addition": null
}, {
  "area_code": 820000,
  "name": "商训夜中学",
  "code": 82000010,
  "addition": null
}, {
  "area_code": 820000,
  "name": "培正中学",
  "code": 82000011,
  "addition": null
}, {
  "area_code": 820000,
  "name": "培道中学",
  "code": 82000012,
  "addition": null
}, {
  "area_code": 820000,
  "name": "教业中学",
  "code": 82000013,
  "addition": null
}, {
  "area_code": 820000,
  "name": "陈瑞祺永援中学",
  "code": 82000014,
  "addition": null
}, {
  "area_code": 820000,
  "name": "创新中学",
  "code": 82000015,
  "addition": null
}, {
  "area_code": 820000,
  "name": "劳工子弟学校",
  "code": 82000016,
  "addition": null
}, {
  "area_code": 820000,
  "name": "菜农子弟学校",
  "code": 82000017,
  "addition": null
}, {
  "area_code": 820000,
  "name": "慈幼中学",
  "code": 82000018,
  "addition": null
}, {
  "area_code": 820000,
  "name": "新华夜中学",
  "code": 82000019,
  "addition": null
}, {
  "area_code": 820000,
  "name": "新华学校",
  "code": 82000020,
  "addition": null
}, {
  "area_code": 820000,
  "name": "粤华中学",
  "code": 82000021,
  "addition": null
}, {
  "area_code": 820000,
  "name": "圣公会(澳门)蔡高中学",
  "code": 82000022,
  "addition": null
}, {
  "area_code": 820000,
  "name": "圣玫瑰学校",
  "code": 82000023,
  "addition": null
}, {
  "area_code": 820000,
  "name": "圣保禄学校",
  "code": 82000024,
  "addition": null
}, {
  "area_code": 820000,
  "name": "圣若瑟教区中学",
  "code": 82000025,
  "addition": null
}, {
  "area_code": 820000,
  "name": "圣若瑟教区中学第五校",
  "code": 82000026,
  "addition": null
}, {
  "area_code": 820000,
  "name": "圣罗撒女子中学中文部",
  "code": 82000027,
  "addition": null
}, {
  "area_code": 820000,
  "name": "圣罗撒英文中学",
  "code": 82000028,
  "addition": null
}, {
  "area_code": 820000,
  "name": "嘉诺撒圣心中学",
  "code": 82000029,
  "addition": null
}, {
  "area_code": 820000,
  "name": "嘉诺撒圣心英文中学",
  "code": 82000030,
  "addition": null
}, {
  "area_code": 820000,
  "name": "广大中学",
  "code": 82000031,
  "addition": null
}, {
  "area_code": 820000,
  "name": "郑观应公立学校",
  "code": 82000032,
  "addition": null
}, {
  "area_code": 820000,
  "name": "澳门工联职业技术中学",
  "code": 82000033,
  "addition": null
}, {
  "area_code": 820000,
  "name": "澳门坊众学校",
  "code": 82000034,
  "addition": null
}, {
  "area_code": 820000,
  "name": "澳门浸信中学",
  "code": 82000035,
  "addition": null
}, {
  "area_code": 820000,
  "name": "澳门葡文学校",
  "code": 82000036,
  "addition": null
}, {
  "area_code": 820000,
  "name": "澳门演艺学院",
  "code": 82000037,
  "addition": null
}, {
  "area_code": 820000,
  "name": "岭南中学",
  "code": 82000038,
  "addition": null
}, {
  "area_code": 820000,
  "name": "濠江中学",
  "code": 82000039,
  "addition": null
}, {
  "area_code": 820000,
  "name": "镜平学校",
  "code": 82000040,
  "addition": null
}, {
  "area_code": 820000,
  "name": "培华中学",
  "code": 82000041,
  "addition": null
}, {
  "area_code": 820000,
  "name": "圣公会中学(澳门)",
  "code": 82000042,
  "addition": null
}, {
  "area_code": 820000,
  "name": "澳门三育中学",
  "code": 82000043,
  "addition": null
}, {
  "area_code": 820000,
  "name": "澳门大学附属应用学校",
  "code": 82000044,
  "addition": null
}, {
  "area_code": 820000,
  "name": "澳门国际学校",
  "code": 82000045,
  "addition": null
}, {
  "area_code": 820000,
  "name": "濠江中学",
  "code": 82000046,
  "addition": null
}, {
  "area_code": 820000,
  "name": "联国学校",
  "code": 82000047,
  "addition": null
}, {
  "area_code": 820000,
  "name": "氹仔坊众学校",
  "code": 82000048,
  "addition": null
}, {
  "area_code": 820000,
  "name": "九澳圣若瑟学校",
  "code": 82000049,
  "addition": null
}, {
  "area_code": 820000,
  "name": "雷鸣道主教纪念学校",
  "code": 82000050,
  "addition": null
}, {
  "area_code": 810000,
  "name": "文理书院（香港）",
  "code": 81000051,
  "addition": null
}, {
  "area_code": 810000,
  "name": "北角协同中学",
  "code": 81000052,
  "addition": null
}, {
  "area_code": 810000,
  "name": "地利亚预科夜班（太古城） ",
  "code": 81000053,
  "addition": null
}, {
  "area_code": 810000,
  "name": "地利亚（加拿大）学校",
  "code": 81000054,
  "addition": null
}, {
  "area_code": 810000,
  "name": "炮台山循道卫理中学",
  "code": 81000055,
  "addition": null
}, {
  "area_code": 810000,
  "name": "福建中学（小西湾）",
  "code": 81000056,
  "addition": null
}, {
  "area_code": 810000,
  "name": "显理中学",
  "code": 81000057,
  "addition": null
}, {
  "area_code": 810000,
  "name": "港专成人教育中心（筲箕湾官立中学） ",
  "code": 81000058,
  "addition": null
}, {
  "area_code": 810000,
  "name": "汉华中学",
  "code": 81000059,
  "addition": null
}, {
  "area_code": 810000,
  "name": "香港中国妇女会中学",
  "code": 81000060,
  "addition": null
}, {
  "area_code": 810000,
  "name": "香港红十字会医院学校",
  "code": 81000061,
  "addition": null
}, {
  "area_code": 810000,
  "name": "伊斯兰脱维善纪念中学",
  "code": 81000062,
  "addition": null
}, {
  "area_code": 810000,
  "name": "苏浙公学",
  "code": 81000063,
  "addition": null
}, {
  "area_code": 810000,
  "name": "KOREAN INTERNATIONAL SCHOOL",
  "code": 81000064,
  "addition": null
}, {
  "area_code": 810000,
  "name": "岭南衡怡纪念中学",
  "code": 81000065,
  "addition": null
}, {
  "area_code": 810000,
  "name": "岭南中学",
  "code": 81000066,
  "addition": null
}, {
  "area_code": 810000,
  "name": "闽侨中学",
  "code": 81000067,
  "addition": null
}, {
  "area_code": 810000,
  "name": "卫理中学",
  "code": 81000068,
  "addition": null
}, {
  "area_code": 810000,
  "name": "港岛民生书院",
  "code": 81000069,
  "addition": null
}, {
  "area_code": 810000,
  "name": "保良局余李慕芬纪念学校",
  "code": 81000070,
  "addition": null
}, {
  "area_code": 810000,
  "name": "宝血女子中学",
  "code": 81000071,
  "addition": null
}, {
  "area_code": 810000,
  "name": "培侨中学",
  "code": 81000072,
  "addition": null
}, {
  "area_code": 810000,
  "name": "香港西区扶轮社匡智晨辉学校",
  "code": 81000073,
  "addition": null
}, {
  "area_code": 810000,
  "name": "慈幼英文学校",
  "code": 81000074,
  "addition": null
}, {
  "area_code": 810000,
  "name": "筲箕湾东官立中学",
  "code": 81000075,
  "addition": null
}, {
  "area_code": 810000,
  "name": "筲箕湾官立中学",
  "code": 81000076,
  "addition": null
}, {
  "area_code": 810000,
  "name": "圣公会李福庆中学",
  "code": 81000077,
  "addition": null
}, {
  "area_code": 810000,
  "name": "圣贞德中学",
  "code": 81000078,
  "addition": null
}, {
  "area_code": 810000,
  "name": "圣马可中学",
  "code": 81000079,
  "addition": null
}, {
  "area_code": 810000,
  "name": "东华三院李润田纪念中学",
  "code": 81000080,
  "addition": null
}, {
  "area_code": 810000,
  "name": "香港仔浸信会吕明才书院",
  "code": 81000081,
  "addition": null
}, {
  "area_code": 810000,
  "name": "香港仔工业学校",
  "code": 81000082,
  "addition": null
}, {
  "area_code": 810000,
  "name": "加拿大国际学校",
  "code": 81000083,
  "addition": null
}, {
  "area_code": 810000,
  "name": "明爱庄月明中学",
  "code": 81000084,
  "addition": null
}, {
  "area_code": 810000,
  "name": "明爱社区书院－香港仔",
  "code": 81000085,
  "addition": null
}, {
  "area_code": 810000,
  "name": "明爱胡振中中学",
  "code": 81000086,
  "addition": null
}, {
  "area_code": 810000,
  "name": "心光恩望学校",
  "code": 81000087,
  "addition": null
}, {
  "area_code": 810000,
  "name": "心光学校",
  "code": 81000088,
  "addition": null
}, {
  "area_code": 810000,
  "name": "香港青少年培育会陈南昌纪念学校",
  "code": 81000089,
  "addition": null
}, {
  "area_code": 810000,
  "name": "香港红十字会肯尼迪中心",
  "code": 81000090,
  "addition": null
}, {
  "area_code": 810000,
  "name": "港大同学会书院",
  "code": 81000091,
  "addition": null
}, {
  "area_code": 810000,
  "name": "HONG KONG INTERNATIONAL SCHOOL",
  "code": 81000092,
  "addition": null
}, {
  "area_code": 810000,
  "name": "香港红十字会医院学校",
  "code": 81000093,
  "addition": null
}, {
  "area_code": 810000,
  "name": "香港航海学校",
  "code": 81000094,
  "addition": null
}, {
  "area_code": 810000,
  "name": "香港真光书院",
  "code": 81000095,
  "addition": null
}, {
  "area_code": 810000,
  "name": "弘立书院",
  "code": 81000096,
  "addition": null
}, {
  "area_code": 810000,
  "name": "玛利湾学校",
  "code": 81000097,
  "addition": null
}, {
  "area_code": 810000,
  "name": "保良局慧妍雅集书院",
  "code": 81000098,
  "addition": null
}, {
  "area_code": 810000,
  "name": "嘉诺撒培德书院",
  "code": 81000099,
  "addition": null
}, {
  "area_code": 810001,
  "name": "培英中学",
  "code": 81000100,
  "addition": null
}, {
  "area_code": 810001,
  "name": "嘉诺撒圣心书院",
  "code": 81000101,
  "addition": null
}, {
  "area_code": 810001,
  "name": "新会商会陈白沙纪念中学",
  "code": 81000102,
  "addition": null
}, {
  "area_code": 810001,
  "name": "新加坡国际学校",
  "code": 81000103,
  "addition": null
}, {
  "area_code": 810001,
  "name": "圣公会吕明才中学",
  "code": 81000104,
  "addition": null
}, {
  "area_code": 810001,
  "name": "圣伯多禄中学",
  "code": 81000105,
  "addition": null
}, {
  "area_code": 810001,
  "name": "圣士提反书院",
  "code": 81000106,
  "addition": null
}, {
  "area_code": 810001,
  "name": "东华三院徐展堂学校",
  "code": 81000107,
  "addition": null
}, {
  "area_code": 810001,
  "name": "沪江维多利亚学校",
  "code": 81000108,
  "addition": null
}, {
  "area_code": 810001,
  "name": "WEST ISLAND SCHOOL",
  "code": 81000109,
  "addition": null
}, {
  "area_code": 810001,
  "name": "余振强纪念第二中学",
  "code": 81000110,
  "addition": null
}, {
  "area_code": 810001,
  "name": "中华基督教会铭基书院",
  "code": 81000111,
  "addition": null
}, {
  "area_code": 810001,
  "name": "中华基督教会望觉堂啓爱学校",
  "code": 81000112,
  "addition": null
}, {
  "area_code": 810001,
  "name": "拔萃女书院",
  "code": 81000113,
  "addition": null
}, {
  "area_code": 810001,
  "name": "基督教香港信义会信义中学",
  "code": 81000114,
  "addition": null
}, {
  "area_code": 810001,
  "name": "港九潮州公会中学",
  "code": 81000115,
  "addition": null
}, {
  "area_code": 810001,
  "name": "港专成人教育中心（伊利沙伯中学） ",
  "code": 81000116,
  "addition": null
}, {
  "area_code": 810001,
  "name": "香港管理专业协会李国宝中学",
  "code": 81000117,
  "addition": null
}, {
  "area_code": 810001,
  "name": "香港红十字会医院学校",
  "code": 81000118,
  "addition": null
}, {
  "area_code": 810001,
  "name": "九龙三育中学",
  "code": 81000119,
  "addition": null
}, {
  "area_code": 810001,
  "name": "丽泽中学",
  "code": 81000120,
  "addition": null
}, {
  "area_code": 810001,
  "name": "世界龙冈学校刘皇发中学",
  "code": 81000121,
  "addition": null
}, {
  "area_code": 810001,
  "name": "循道中学",
  "code": 81000122,
  "addition": null
}, {
  "area_code": 810001,
  "name": "天主教新民书院",
  "code": 81000123,
  "addition": null
}, {
  "area_code": 810001,
  "name": "奥思书院",
  "code": 81000124,
  "addition": null
}, {
  "area_code": 810001,
  "name": "保良局庄啓程预科书院（夜校部） ",
  "code": 81000125,
  "addition": null
}, {
  "area_code": 810001,
  "name": "保良局庄啓程预科书院",
  "code": 81000126,
  "addition": null
}, {
  "area_code": 810001,
  "name": "伊利沙伯中学",
  "code": 81000127,
  "addition": null
}, {
  "area_code": 810001,
  "name": "官立嘉道理爵士中学（西九龙）",
  "code": 81000128,
  "addition": null
}, {
  "area_code": 810001,
  "name": "圣公会诸圣中学",
  "code": 81000129,
  "addition": null
}, {
  "area_code": 810001,
  "name": "圣芳济书院",
  "code": 81000130,
  "addition": null
}, {
  "area_code": 810001,
  "name": "嘉诺撒圣玛利书院",
  "code": 81000131,
  "addition": null
}, {
  "area_code": 810001,
  "name": "圣迦利亚书院（九龙）",
  "code": 81000132,
  "addition": null
}, {
  "area_code": 810001,
  "name": "真光女书院",
  "code": 81000133,
  "addition": null
}, {
  "area_code": 810001,
  "name": "华仁书院（九龙）",
  "code": 81000134,
  "addition": null
}, {
  "area_code": 810001,
  "name": "佛教大雄中学",
  "code": 81000135,
  "addition": null
}, {
  "area_code": 810001,
  "name": "明爱赛马会乐仁学校",
  "code": 81000136,
  "addition": null
}, {
  "area_code": 810001,
  "name": "中华基督教会铭贤书院",
  "code": 81000137,
  "addition": null
}, {
  "area_code": 810001,
  "name": "陈树渠纪念中学",
  "code": 81000138,
  "addition": null
}, {
  "area_code": 810001,
  "name": "长沙湾天主教英文中学",
  "code": 81000139,
  "addition": null
}, {
  "area_code": 810001,
  "name": "慈恩学校",
  "code": 81000140,
  "addition": null
}, {
  "area_code": 810001,
  "name": "中圣书院",
  "code": 81000141,
  "addition": null
}, {
  "area_code": 810001,
  "name": "厂商会中学",
  "code": 81000142,
  "addition": null
}, {
  "area_code": 810001,
  "name": "协同国际学校",
  "code": 81000143,
  "addition": null
}, {
  "area_code": 810001,
  "name": "路德会协同中学",
  "code": 81000144,
  "addition": null
}, {
  "area_code": 810001,
  "name": "地利亚修女纪念预科夜校（百老汇） ",
  "code": 81000145,
  "addition": null
}, {
  "area_code": 810001,
  "name": "地利亚修女纪念预科夜校（吉利径） ",
  "code": 81000146,
  "addition": null
}, {
  "area_code": 810001,
  "name": "地利亚修女纪念学校﹝百老汇﹞",
  "code": 81000147,
  "addition": null
}, {
  "area_code": 810001,
  "name": "地利亚修女纪念学校（吉利径）",
  "code": 81000148,
  "addition": null
}, {
  "area_code": 810001,
  "name": "香岛中学",
  "code": 81000149,
  "addition": null
}, {
  "area_code": 810001,
  "name": "港专成人教育中心（九龙工业学校） ",
  "code": 81000150,
  "addition": null
}, {
  "area_code": 810001,
  "name": "香港四邑商工总会黄棣珊纪念中学",
  "code": 81000151,
  "addition": null
}, {
  "area_code": 810001,
  "name": "宝血会上智英文书院",
  "code": 81000152,
  "addition": null
}, {
  "area_code": 810001,
  "name": "香港红十字会医院学校",
  "code": 81000153,
  "addition": null
}, {
  "area_code": 810001,
  "name": "九龙工业学校",
  "code": 81000154,
  "addition": null
}, {
  "area_code": 810001,
  "name": "玛利亚书院",
  "code": 81000155,
  "addition": null
}, {
  "area_code": 810001,
  "name": "玛利亚夜书院 ",
  "code": 81000156,
  "addition": null
}, {
  "area_code": 810001,
  "name": "玛利诺神父教会学校",
  "code": 81000157,
  "addition": null
}, {
  "area_code": 810001,
  "name": "香港心理衞生会－臻和学校",
  "code": 81000158,
  "addition": null
}, {
  "area_code": 810001,
  "name": "天主教南华中学",
  "code": 81000159,
  "addition": null
}, {
  "area_code": 810001,
  "name": "圣母玫瑰书院",
  "code": 81000160,
  "addition": null
}, {
  "area_code": 810001,
  "name": "保良局唐乃勤初中书院",
  "code": 81000161,
  "addition": null
}, {
  "area_code": 810001,
  "name": "保良局蔡继有学校",
  "code": 81000162,
  "addition": null
}, {
  "area_code": 810001,
  "name": "路德会救主学校",
  "code": 81000163,
  "addition": null
}, {
  "area_code": 810001,
  "name": "圣公会圣马利亚堂莫庆尧中学",
  "code": 81000164,
  "addition": null
}, {
  "area_code": 810001,
  "name": "香港扶幼会－许仲绳纪念学校",
  "code": 81000165,
  "addition": null
}, {
  "area_code": 810001,
  "name": "香港扶幼会则仁中心学校",
  "code": 81000166,
  "addition": null
}, {
  "area_code": 810001,
  "name": "圣玛加利男女英文中小学",
  "code": 81000167,
  "addition": null
}, {
  "area_code": 810001,
  "name": "德贞女子中学",
  "code": 81000168,
  "addition": null
}, {
  "area_code": 810001,
  "name": "德雅中学",
  "code": 81000169,
  "addition": null
}, {
  "area_code": 810001,
  "name": "基督教崇真中学",
  "code": 81000170,
  "addition": null
}, {
  "area_code": 810001,
  "name": "崇正中学",
  "code": 81000171,
  "addition": null
}, {
  "area_code": 810001,
  "name": "东华三院张明添中学",
  "code": 81000172,
  "addition": null
}, {
  "area_code": 810001,
  "name": "东华三院群芳啓智学校",
  "code": 81000173,
  "addition": null
}, {
  "area_code": 810001,
  "name": "滙基书院",
  "code": 81000174,
  "addition": null
}, {
  "area_code": 810001,
  "name": "惠侨英文中学",
  "code": 81000175,
  "addition": null
}, {
  "area_code": 810001,
  "name": "英华书院",
  "code": 81000176,
  "addition": null
}, {
  "area_code": 810001,
  "name": "美国国际学校",
  "code": 81000177,
  "addition": null
}, {
  "area_code": 810001,
  "name": "艺术与科技教育中心",
  "code": 81000178,
  "addition": null
}, {
  "area_code": 810001,
  "name": "香港澳洲国际学校",
  "code": 81000179,
  "addition": null
}, {
  "area_code": 810001,
  "name": "何明华会督银禧中学",
  "code": 81000180,
  "addition": null
}, {
  "area_code": 810001,
  "name": "迦密中学",
  "code": 81000181,
  "addition": null
}, {
  "area_code": 810001,
  "name": "中华基督教会基道中学",
  "code": 81000182,
  "addition": null
}, {
  "area_code": 810001,
  "name": "陈瑞祺（喇沙）书院",
  "code": 81000183,
  "addition": null
}, {
  "area_code": 810001,
  "name": "宣道会刘平斋纪念国际学校",
  "code": 81000184,
  "addition": null
}, {
  "area_code": 810001,
  "name": "拔萃男书院",
  "code": 81000185,
  "addition": null
}, {
  "area_code": 810001,
  "name": "协恩中学",
  "code": 81000186,
  "addition": null
}, {
  "area_code": 810001,
  "name": "香港兆基创意书院",
  "code": 81000187,
  "addition": null
}, {
  "area_code": 810001,
  "name": "旅港开平商会中学",
  "code": 81000188,
  "addition": null
}, {
  "area_code": 810001,
  "name": "嘉诺撒圣家书院",
  "code": 81000189,
  "addition": null
}, {
  "area_code": 810001,
  "name": "何文田官立中学",
  "code": 81000190,
  "addition": null
}, {
  "area_code": 810001,
  "name": "香港红十字会医院学校",
  "code": 81000191,
  "addition": null
}, {
  "area_code": 810001,
  "name": "赛马会官立中学",
  "code": 81000192,
  "addition": null
}, {
  "area_code": 810001,
  "name": "赛马会善乐学校",
  "code": 81000193,
  "addition": null
}, {
  "area_code": 810001,
  "name": "KING GEORGE V SCHOOL",
  "code": 81000194,
  "addition": null
}, {
  "area_code": 810001,
  "name": "九龙塘学校（中学部）",
  "code": 81000195,
  "addition": null
}, {
  "area_code": 810001,
  "name": "九龙真光中学",
  "code": 81000196,
  "addition": null
}, {
  "area_code": 810001,
  "name": "喇沙书院",
  "code": 81000197,
  "addition": null
}, {
  "area_code": 810001,
  "name": "天保民学校",
  "code": 81000198,
  "addition": null
}, {
  "area_code": 810001,
  "name": "玛利诺修院学校（中学部）",
  "code": 81000199,
  "addition": null
}, {
  "area_code": 810002,
  "name": "民生书院",
  "code": 81000200,
  "addition": null
}, {
  "area_code": 810002,
  "name": "新亚中学",
  "code": 81000201,
  "addition": null
}, {
  "area_code": 810002,
  "name": "圣母院书院",
  "code": 81000202,
  "addition": null
}, {
  "area_code": 810002,
  "name": "五旬节中学",
  "code": 81000203,
  "addition": null
}, {
  "area_code": 810002,
  "name": "保良局颜宝铃书院",
  "code": 81000204,
  "addition": null
}, {
  "area_code": 810002,
  "name": "香港培道中学",
  "code": 81000205,
  "addition": null
}, {
  "area_code": 810002,
  "name": "香港培正中学",
  "code": 81000206,
  "addition": null
}, {
  "area_code": 810002,
  "name": "礼贤会彭学高纪念中学",
  "code": 81000207,
  "addition": null
}, {
  "area_code": 810002,
  "name": "弘爵国际学校－半岛",
  "code": 81000208,
  "addition": null
}, {
  "area_code": 810002,
  "name": "圣公会圣匠中学",
  "code": 81000209,
  "addition": null
}, {
  "area_code": 810002,
  "name": "圣公会圣三一堂中学",
  "code": 81000210,
  "addition": null
}, {
  "area_code": 810002,
  "name": "圣公会蔡功谱中学",
  "code": 81000211,
  "addition": null
}, {
  "area_code": 810002,
  "name": "德兰中学",
  "code": 81000212,
  "addition": null
}, {
  "area_code": 810002,
  "name": "顺德联谊总会胡兆炽中学",
  "code": 81000213,
  "addition": null
}, {
  "area_code": 810002,
  "name": "邓镜波学校",
  "code": 81000214,
  "addition": null
}, {
  "area_code": 810002,
  "name": "东华三院黄笏南中学",
  "code": 81000215,
  "addition": null
}, {
  "area_code": 810002,
  "name": "华英中学",
  "code": 81000216,
  "addition": null
}, {
  "area_code": 810002,
  "name": "劳工子弟中学",
  "code": 81000217,
  "addition": null
}, {
  "area_code": 810002,
  "name": "耀中国际学校（中学）",
  "code": 81000218,
  "addition": null
}, {
  "area_code": 810002,
  "name": "余振强纪念中学",
  "code": 81000219,
  "addition": null
}, {
  "area_code": 810002,
  "name": "基督教女青年会丘佐荣中学",
  "code": 81000220,
  "addition": null
}, {
  "area_code": 810002,
  "name": "神召会夜中学 ",
  "code": 81000221,
  "addition": null
}, {
  "area_code": 810002,
  "name": "神召会马理信书院",
  "code": 81000222,
  "addition": null
}, {
  "area_code": 810002,
  "name": "佛教孔仙洲纪念中学",
  "code": 81000223,
  "addition": null
}, {
  "area_code": 810002,
  "name": "明爱培立学校",
  "code": 81000224,
  "addition": null
}, {
  "area_code": 810002,
  "name": "中华基督教会协和书院",
  "code": 81000225,
  "addition": null
}, {
  "area_code": 810002,
  "name": "中华基督教会基协中学",
  "code": 81000226,
  "addition": null
}, {
  "area_code": 810002,
  "name": "中华基督教会扶轮中学",
  "code": 81000227,
  "addition": null
}, {
  "area_code": 810002,
  "name": "佛教志莲中学",
  "code": 81000228,
  "addition": null
}, {
  "area_code": 810002,
  "name": "彩虹邨天主教英文中学",
  "code": 81000229,
  "addition": null
}, {
  "area_code": 810002,
  "name": "真铎学校",
  "code": 81000230,
  "addition": null
}, {
  "area_code": 810002,
  "name": "文理书院（九龙）",
  "code": 81000231,
  "addition": null
}, {
  "area_code": 810002,
  "name": "德望学校",
  "code": 81000232,
  "addition": null
}, {
  "area_code": 810002,
  "name": "香港红十字会玛嘉烈戴麟趾学校",
  "code": 81000233,
  "addition": null
}, {
  "area_code": 810002,
  "name": "可立中学（啬色园主办）",
  "code": 81000234,
  "addition": null
}, {
  "area_code": 810002,
  "name": "国际基督教优质音乐中学暨小学",
  "code": 81000235,
  "addition": null
}, {
  "area_code": 810002,
  "name": "洁心林炳炎中学",
  "code": 81000236,
  "addition": null
}, {
  "area_code": 810002,
  "name": "李求恩纪念中学",
  "code": 81000237,
  "addition": null
}, {
  "area_code": 810002,
  "name": "乐善堂王仲铭中学",
  "code": 81000238,
  "addition": null
}, {
  "area_code": 810002,
  "name": "乐善堂余近卿中学",
  "code": 81000239,
  "addition": null
}, {
  "area_code": 810002,
  "name": "龙翔官立中学",
  "code": 81000240,
  "addition": null
}, {
  "area_code": 810002,
  "name": "天主教伍华中学",
  "code": 81000241,
  "addition": null
}, {
  "area_code": 810002,
  "name": "圣母书院",
  "code": 81000242,
  "addition": null
}, {
  "area_code": 810002,
  "name": "五旬节圣洁会永光书院",
  "code": 81000243,
  "addition": null
}, {
  "area_code": 810002,
  "name": "保良局陈丽玲（百周年）学校",
  "code": 81000244,
  "addition": null
}, {
  "area_code": 810002,
  "name": "保良局何荫棠中学",
  "code": 81000245,
  "addition": null
}, {
  "area_code": 810002,
  "name": "保良局第一中学（夜校部） ",
  "code": 81000246,
  "addition": null
}, {
  "area_code": 810002,
  "name": "保良局第一张永庆中学",
  "code": 81000247,
  "addition": null
}, {
  "area_code": 810002,
  "name": "礼贤会恩慈学校",
  "code": 81000248,
  "addition": null
}, {
  "area_code": 810002,
  "name": "救世军卜维廉中学",
  "code": 81000249,
  "addition": null
}, {
  "area_code": 810002,
  "name": "圣公会圣本德中学",
  "code": 81000250,
  "addition": null
}, {
  "area_code": 810002,
  "name": "圣文德书院",
  "code": 81000251,
  "addition": null
}, {
  "area_code": 810002,
  "name": "香港神托会培敦中学",
  "code": 81000252,
  "addition": null
}, {
  "area_code": 810002,
  "name": "德爱中学",
  "code": 81000253,
  "addition": null
}, {
  "area_code": 810002,
  "name": "中华基督教会基顺学校",
  "code": 81000254,
  "addition": null
}, {
  "area_code": 810002,
  "name": "中华基督教会基智中学",
  "code": 81000255,
  "addition": null
}, {
  "area_code": 810002,
  "name": "中华基督教会蒙民伟书院",
  "code": 81000256,
  "addition": null
}, {
  "area_code": 810002,
  "name": "地利亚修女纪念预科夜校（观塘） ",
  "code": 81000257,
  "addition": null
}, {
  "area_code": 810002,
  "name": "地利亚修女纪念夜校（观塘） ",
  "code": 81000258,
  "addition": null
}, {
  "area_code": 810002,
  "name": "地利亚修女纪念学校（协和）",
  "code": 81000259,
  "addition": null
}, {
  "area_code": 810002,
  "name": "地利亚修女纪念学校（利玛窦）",
  "code": 81000260,
  "addition": null
}, {
  "area_code": 810002,
  "name": "地利亚修女纪念学校（月华）",
  "code": 81000261,
  "addition": null
}, {
  "area_code": 810002,
  "name": "基督教中国布道会圣道迦南书院",
  "code": 81000262,
  "addition": null
}, {
  "area_code": 810002,
  "name": "基督教中国布道会圣道学校",
  "code": 81000263,
  "addition": null
}, {
  "area_code": 810002,
  "name": "五邑司徒浩中学",
  "code": 81000264,
  "addition": null
}, {
  "area_code": 810002,
  "name": "福建中学",
  "code": 81000265,
  "addition": null
}, {
  "area_code": 810002,
  "name": "香港红十字会雅丽珊郡主学校",
  "code": 81000266,
  "addition": null
}, {
  "area_code": 810002,
  "name": "香港圣公会何明华会督中学",
  "code": 81000267,
  "addition": null
}, {
  "area_code": 810002,
  "name": "香港道教联合会青松中学",
  "code": 81000268,
  "addition": null
}, {
  "area_code": 810002,
  "name": "香港布厂商会朱石麟中学",
  "code": 81000269,
  "addition": null
}, {
  "area_code": 810002,
  "name": "香港红十字会医院学校",
  "code": 81000270,
  "addition": null
}, {
  "area_code": 810002,
  "name": "KELLETT SCHOOL",
  "code": 81000271,
  "addition": null
}, {
  "area_code": 810002,
  "name": "高雷中学",
  "code": 81000272,
  "addition": null
}, {
  "area_code": 810002,
  "name": "观塘官立中学",
  "code": 81000273,
  "addition": null
}, {
  "area_code": 810002,
  "name": "观塘功乐官立中学",
  "code": 81000274,
  "addition": null
}, {
  "area_code": 810002,
  "name": "观塘玛利诺书院",
  "code": 81000275,
  "addition": null
}, {
  "area_code": 810002,
  "name": "梁式芝书院",
  "code": 81000276,
  "addition": null
}, {
  "area_code": 810002,
  "name": "玛利诺中学",
  "code": 81000277,
  "addition": null
}, {
  "area_code": 810002,
  "name": "利玛窦英文夜中学 ",
  "code": 81000278,
  "addition": null
}, {
  "area_code": 810002,
  "name": "基督教圣约教会坚乐中学",
  "code": 81000279,
  "addition": null
}, {
  "area_code": 810002,
  "name": "慕光英文书院",
  "code": 81000280,
  "addition": null
}, {
  "area_code": 810002,
  "name": "宁波公学",
  "code": 81000281,
  "addition": null
}, {
  "area_code": 810002,
  "name": "宁波第二中学",
  "code": 81000282,
  "addition": null
}, {
  "area_code": 810002,
  "name": "新生命教育协会吕郭碧凤中学",
  "code": 81000283,
  "addition": null
}, {
  "area_code": 810002,
  "name": "天主教普照中学",
  "code": 81000284,
  "addition": null
}, {
  "area_code": 810002,
  "name": "顺利天主教中学",
  "code": 81000285,
  "addition": null
}, {
  "area_code": 810002,
  "name": "圣言中学",
  "code": 81000286,
  "addition": null
}, {
  "area_code": 810002,
  "name": "圣公会基孝中学",
  "code": 81000287,
  "addition": null
}, {
  "area_code": 810002,
  "name": "圣公会梁季彝中学",
  "code": 81000288,
  "addition": null
}, {
  "area_code": 810002,
  "name": "香港扶幼会盛德中心学校",
  "code": 81000289,
  "addition": null
}, {
  "area_code": 810002,
  "name": "圣安当女书院",
  "code": 81000290,
  "addition": null
}, {
  "area_code": 810002,
  "name": "圣杰灵女子中学",
  "code": 81000291,
  "addition": null
}, {
  "area_code": 810002,
  "name": "圣若瑟英文中学",
  "code": 81000292,
  "addition": null
}, {
  "area_code": 810002,
  "name": "蓝田圣保禄中学",
  "code": 81000293,
  "addition": null
}, {
  "area_code": 810002,
  "name": "滙基书院（东九龙）",
  "code": 81000294,
  "addition": null
}, {
  "area_code": 810002,
  "name": "仁济医院罗陈楚思中学",
  "code": 81000295,
  "addition": null
}, {
  "area_code": 810002,
  "name": "博爱医院历届总理联谊会梁省德中学",
  "code": 81000296,
  "addition": null
}, {
  "area_code": 810002,
  "name": "港专成人教育中心（荃湾官立中学） ",
  "code": 81000297,
  "addition": null
}, {
  "area_code": 810002,
  "name": "可风中学（啬色园主办）",
  "code": 81000298,
  "addition": null
}, {
  "area_code": 810002,
  "name": "可观自然教育中心暨天文馆",
  "code": 81000299,
  "addition": null
}, {
  "area_code": 810003,
  "name": "香港红十字会医院学校",
  "code": 81000300,
  "addition": null
}, {
  "area_code": 810003,
  "name": "廖宝珊纪念书院",
  "code": 81000301,
  "addition": null
}, {
  "area_code": 810003,
  "name": "路德会吕明才中学",
  "code": 81000302,
  "addition": null
}, {
  "area_code": 810003,
  "name": "保良局李城璧中学",
  "code": 81000303,
  "addition": null
}, {
  "area_code": 810003,
  "name": "保良局姚连生中学",
  "code": 81000304,
  "addition": null
}, {
  "area_code": 810003,
  "name": "宝安商会王少清中学",
  "code": 81000305,
  "addition": null
}, {
  "area_code": 810003,
  "name": "圣公会李炳中学",
  "code": 81000306,
  "addition": null
}, {
  "area_code": 810003,
  "name": "荃湾圣芳济中学",
  "code": 81000307,
  "addition": null
}, {
  "area_code": 810003,
  "name": "纺织学会美国商会胡汉辉中学",
  "code": 81000308,
  "addition": null
}, {
  "area_code": 810003,
  "name": "荃湾官立中学",
  "code": 81000309,
  "addition": null
}, {
  "area_code": 810003,
  "name": "荃湾公立何传耀纪念中学",
  "code": 81000310,
  "addition": null
}, {
  "area_code": 810003,
  "name": "仁济医院林百欣中学",
  "code": 81000311,
  "addition": null
}, {
  "area_code": 810003,
  "name": "浸信会永隆中学",
  "code": 81000312,
  "addition": null
}, {
  "area_code": 810003,
  "name": "佛教沈香林纪念中学",
  "code": 81000313,
  "addition": null
}, {
  "area_code": 810003,
  "name": "明爱屯门马登基金中学",
  "code": 81000314,
  "addition": null
}, {
  "area_code": 810003,
  "name": "迦密唐宾南纪念中学",
  "code": 81000315,
  "addition": null
}, {
  "area_code": 810003,
  "name": "中华基督教会何福堂书院",
  "code": 81000316,
  "addition": null
}, {
  "area_code": 810003,
  "name": "中华基督教会谭李丽芬纪念中学",
  "code": 81000317,
  "addition": null
}, {
  "area_code": 810003,
  "name": "青松侯宝垣中学",
  "code": 81000318,
  "addition": null
}, {
  "area_code": 810003,
  "name": "宣道中学",
  "code": 81000319,
  "addition": null
}, {
  "area_code": 810003,
  "name": "香港九龙塘基督教中华宣道会陈瑞芝纪念中学",
  "code": 81000320,
  "addition": null
}, {
  "area_code": 810003,
  "name": "厂商会蔡章阁中学",
  "code": 81000321,
  "addition": null
}, {
  "area_code": 810003,
  "name": "钟声慈善社胡陈金枝中学",
  "code": 81000322,
  "addition": null
}, {
  "area_code": 810003,
  "name": "哈罗香港国际学校",
  "code": 81000323,
  "addition": null
}, {
  "area_code": 810003,
  "name": "香海正觉莲社佛教梁植伟中学",
  "code": 81000324,
  "addition": null
}, {
  "area_code": 810003,
  "name": "港专成人教育中心（屯门官立中学） ",
  "code": 81000325,
  "addition": null
}, {
  "area_code": 810003,
  "name": "啬色园主办可艺中学",
  "code": 81000326,
  "addition": null
}, {
  "area_code": 810003,
  "name": "匡智屯门晨曦学校",
  "code": 81000327,
  "addition": null
}, {
  "area_code": 810003,
  "name": "匡智屯门晨岗学校",
  "code": 81000328,
  "addition": null
}, {
  "area_code": 810003,
  "name": "匡智屯门晨辉学校",
  "code": 81000329,
  "addition": null
}, {
  "area_code": 810003,
  "name": "香港基督教服务处培爱学校",
  "code": 81000330,
  "addition": null
}, {
  "area_code": 810003,
  "name": "香港红十字会医院学校",
  "code": 81000331,
  "addition": null
}, {
  "area_code": 810003,
  "name": "裘锦秋中学﹝屯门﹞",
  "code": 81000332,
  "addition": null
}, {
  "area_code": 810003,
  "name": "路德会吕祥光中学",
  "code": 81000333,
  "addition": null
}, {
  "area_code": 810003,
  "name": "妙法寺刘金龙中学",
  "code": 81000334,
  "addition": null
}, {
  "area_code": 810003,
  "name": "新生命教育协会平安福音中学",
  "code": 81000335,
  "addition": null
}, {
  "area_code": 810003,
  "name": "加拿大神召会嘉智中学",
  "code": 81000336,
  "addition": null
}, {
  "area_code": 810003,
  "name": "保良局百周年李兆忠纪念中学",
  "code": 81000337,
  "addition": null
}, {
  "area_code": 810003,
  "name": "保良局董玉娣中学",
  "code": 81000338,
  "addition": null
}, {
  "area_code": 810003,
  "name": "新会商会中学",
  "code": 81000339,
  "addition": null
}, {
  "area_code": 810003,
  "name": "深培中学",
  "code": 81000340,
  "addition": null
}, {
  "area_code": 810003,
  "name": "释慧文中学",
  "code": 81000341,
  "addition": null
}, {
  "area_code": 810003,
  "name": "圣公会圣西门吕明才中学",
  "code": 81000342,
  "addition": null
}, {
  "area_code": 810003,
  "name": "马锦明慈善基金马可宾纪念中学",
  "code": 81000343,
  "addition": null
}, {
  "area_code": 810003,
  "name": "南屯门官立中学",
  "code": 81000344,
  "addition": null
}, {
  "area_code": 810003,
  "name": "顺德联谊总会梁銶琚中学",
  "code": 81000345,
  "addition": null
}, {
  "area_code": 810003,
  "name": "顺德联谊总会谭伯羽中学",
  "code": 81000346,
  "addition": null
}, {
  "area_code": 810003,
  "name": "崇真书院",
  "code": 81000347,
  "addition": null
}, {
  "area_code": 810003,
  "name": "屯门天主教中学",
  "code": 81000348,
  "addition": null
}, {
  "area_code": 810003,
  "name": "屯门官立中学",
  "code": 81000349,
  "addition": null
}, {
  "area_code": 810003,
  "name": "东华三院辛亥年总理中学",
  "code": 81000350,
  "addition": null
}, {
  "area_code": 810003,
  "name": "东华三院邱子田纪念中学",
  "code": 81000351,
  "addition": null
}, {
  "area_code": 810003,
  "name": "东华三院邝锡坤伉俪中学",
  "code": 81000352,
  "addition": null
}, {
  "area_code": 810003,
  "name": "仁济医院第二中学",
  "code": 81000353,
  "addition": null
}, {
  "area_code": 810003,
  "name": "仁爱堂田家炳中学",
  "code": 81000354,
  "addition": null
}, {
  "area_code": 810003,
  "name": "仁爱堂陈黄淑芳纪念中学",
  "code": 81000355,
  "addition": null
}, {
  "area_code": 810003,
  "name": "恩平工商会李琳明中学",
  "code": 81000356,
  "addition": null
}, {
  "area_code": 810003,
  "name": "遵道学校（南边围）",
  "code": 81000357,
  "addition": null
}, {
  "area_code": 810003,
  "name": "学信书院",
  "code": 81000358,
  "addition": null
}, {
  "area_code": 810003,
  "name": "遵理学校",
  "code": 81000359,
  "addition": null
}, {
  "area_code": 810003,
  "name": "伯特利中学",
  "code": 81000360,
  "addition": null
}, {
  "area_code": 810003,
  "name": "佛教茂峰法师纪念中学",
  "code": 81000361,
  "addition": null
}, {
  "area_code": 810003,
  "name": "道慈佛社杨日霖纪念学校",
  "code": 81000362,
  "addition": null
}, {
  "area_code": 810003,
  "name": "明爱乐勤学校",
  "code": 81000363,
  "addition": null
}, {
  "area_code": 810003,
  "name": "明爱元朗陈震夏中学",
  "code": 81000364,
  "addition": null
}, {
  "area_code": 810003,
  "name": "中华基督教会方润华中学",
  "code": 81000365,
  "addition": null
}, {
  "area_code": 810003,
  "name": "中华基督教会基朗中学",
  "code": 81000366,
  "addition": null
}, {
  "area_code": 810003,
  "name": "中华基督教会基元中学",
  "code": 81000367,
  "addition": null
}, {
  "area_code": 810003,
  "name": "中华基督教青年会中学",
  "code": 81000368,
  "addition": null
}, {
  "area_code": 810003,
  "name": "赵聿修纪念中学",
  "code": 81000369,
  "addition": null
}, {
  "area_code": 810003,
  "name": "香港中文大学校友会联会张煊昌中学",
  "code": 81000370,
  "addition": null
}, {
  "area_code": 810003,
  "name": "金巴仑长老会耀道中学",
  "code": 81000371,
  "addition": null
}, {
  "area_code": 810003,
  "name": "基督教香港信义会宏信书院",
  "code": 81000372,
  "addition": null
}, {
  "area_code": 810003,
  "name": "基督教香港信义会元朗信义中学",
  "code": 81000373,
  "addition": null
}, {
  "area_code": 810003,
  "name": "基督教香港信义会元朗信义书院",
  "code": 81000374,
  "addition": null
}, {
  "area_code": 810003,
  "name": "路德会西门英才中学",
  "code": 81000375,
  "addition": null
}, {
  "area_code": 810003,
  "name": "路德会西门英才夜校 ",
  "code": 81000376,
  "addition": null
}, {
  "area_code": 810003,
  "name": "天水围香岛中学",
  "code": 81000377,
  "addition": null
}, {
  "area_code": 810003,
  "name": "香港青年协会李兆基书院",
  "code": 81000378,
  "addition": null
}, {
  "area_code": 810003,
  "name": "香港管理专业协会罗桂祥中学",
  "code": 81000379,
  "addition": null
}, {
  "area_code": 810003,
  "name": "可道中学（啬色园主办）",
  "code": 81000380,
  "addition": null
}, {
  "area_code": 810003,
  "name": "匡智元朗晨乐学校",
  "code": 81000381,
  "addition": null
}, {
  "area_code": 810003,
  "name": "匡智元朗晨曦学校",
  "code": 81000382,
  "addition": null
}, {
  "area_code": 810003,
  "name": "赛马会毅智书院",
  "code": 81000383,
  "addition": null
}, {
  "area_code": 810003,
  "name": "裘锦秋中学（元朗）",
  "code": 81000384,
  "addition": null
}, {
  "area_code": 810003,
  "name": "新界乡议局元朗区中学",
  "code": 81000385,
  "addition": null
}, {
  "area_code": 810003,
  "name": "伯裘书院",
  "code": 81000386,
  "addition": null
}, {
  "area_code": 810003,
  "name": "保良局罗氏信托学校",
  "code": 81000387,
  "addition": null
}, {
  "area_code": 810003,
  "name": "博爱医院邓佩琼纪念中学",
  "code": 81000388,
  "addition": null
}, {
  "area_code": 810003,
  "name": "天主教培圣中学",
  "code": 81000389,
  "addition": null
}, {
  "area_code": 810003,
  "name": "伊利沙伯中学旧生会中学",
  "code": 81000390,
  "addition": null
}, {
  "area_code": 810003,
  "name": "伊利沙伯中学旧生会汤国华中学",
  "code": 81000391,
  "addition": null
}, {
  "area_code": 810003,
  "name": "天主教崇德英文书院",
  "code": 81000392,
  "addition": null
}, {
  "area_code": 810003,
  "name": "圣公会白约翰会督中学",
  "code": 81000393,
  "addition": null
}, {
  "area_code": 810003,
  "name": "十八乡乡事委员会公益社中学",
  "code": 81000394,
  "addition": null
}, {
  "area_code": 810003,
  "name": "顺德联谊总会翁祐中学",
  "code": 81000395,
  "addition": null
}, {
  "area_code": 810003,
  "name": "天水围官立中学",
  "code": 81000396,
  "addition": null
}, {
  "area_code": 810003,
  "name": "天水围循道衞理中学",
  "code": 81000397,
  "addition": null
}, {
  "area_code": 810003,
  "name": "东华三院马振玉纪念中学",
  "code": 81000398,
  "addition": null
}, {
  "area_code": 810003,
  "name": "东华三院郭一苇中学",
  "code": 81000399,
  "addition": null
}, {
  "area_code": 810004,
  "name": "东华三院卢干庭纪念中学",
  "code": 81000400,
  "addition": null
}, {
  "area_code": 810004,
  "name": "圆玄学院妙法寺内明陈吕重德纪念中学",
  "code": 81000401,
  "addition": null
}, {
  "area_code": 810004,
  "name": "学铭书院",
  "code": 81000402,
  "addition": null
}, {
  "area_code": 810004,
  "name": "基督教香港信义会元朗信义夜校 ",
  "code": 81000403,
  "addition": null
}, {
  "area_code": 810004,
  "name": "元朗公立中学校友会邓兆棠中学",
  "code": 81000404,
  "addition": null
}, {
  "area_code": 810004,
  "name": "元朗天主教中学",
  "code": 81000405,
  "addition": null
}, {
  "area_code": 810004,
  "name": "元朗商会中学",
  "code": 81000406,
  "addition": null
}, {
  "area_code": 810004,
  "name": "元朗公立中学",
  "code": 81000407,
  "addition": null
}, {
  "area_code": 810004,
  "name": "遵理学校（上水）",
  "code": 81000408,
  "addition": null
}, {
  "area_code": 810004,
  "name": "明爱粉岭陈震夏中学",
  "code": 81000409,
  "addition": null
}, {
  "area_code": 810004,
  "name": "中华基督教会基新中学",
  "code": 81000410,
  "addition": null
}, {
  "area_code": 810004,
  "name": "宣道会陈朱素华纪念中学",
  "code": 81000411,
  "addition": null
}, {
  "area_code": 810004,
  "name": "新界喇沙中学",
  "code": 81000412,
  "addition": null
}, {
  "area_code": 810004,
  "name": "风采中学（教育评议会主办）",
  "code": 81000413,
  "addition": null
}, {
  "area_code": 810004,
  "name": "粉岭官立中学",
  "code": 81000414,
  "addition": null
}, {
  "area_code": 810004,
  "name": "粉岭救恩书院",
  "code": 81000415,
  "addition": null
}, {
  "area_code": 810004,
  "name": "基督教香港信义会心诚中学",
  "code": 81000416,
  "addition": null
}, {
  "area_code": 810004,
  "name": "粉岭礼贤会中学",
  "code": 81000417,
  "addition": null
}, {
  "area_code": 810004,
  "name": "凤溪廖万石堂中学",
  "code": 81000418,
  "addition": null
}, {
  "area_code": 810004,
  "name": "凤溪第一中学",
  "code": 81000419,
  "addition": null
}, {
  "area_code": 810004,
  "name": "香海正觉莲社佛教马锦灿纪念英文中学",
  "code": 81000420,
  "addition": null
}, {
  "area_code": 810004,
  "name": "香海正觉莲社佛教普光学校",
  "code": 81000421,
  "addition": null
}, {
  "area_code": 810004,
  "name": "香港道教联合会邓显纪念中学",
  "code": 81000422,
  "addition": null
}, {
  "area_code": 810004,
  "name": "香港红十字会医院学校",
  "code": 81000423,
  "addition": null
}, {
  "area_code": 810004,
  "name": "INTERNATIONAL COLLEGE HONG KONG (NT)",
  "code": 81000424,
  "addition": null
}, {
  "area_code": 810004,
  "name": "英皇教育中心（粉岭分校）",
  "code": 81000425,
  "addition": null
}, {
  "area_code": 810004,
  "name": "保良局马锦明中学",
  "code": 81000426,
  "addition": null
}, {
  "area_code": 810004,
  "name": "救世军石湖学校",
  "code": 81000427,
  "addition": null
}, {
  "area_code": 810004,
  "name": "上水官立中学",
  "code": 81000428,
  "addition": null
}, {
  "area_code": 810004,
  "name": "圣公会陈融中学",
  "code": 81000429,
  "addition": null
}, {
  "area_code": 810004,
  "name": "圣芳济各书院",
  "code": 81000430,
  "addition": null
}, {
  "area_code": 810004,
  "name": "田家炳中学",
  "code": 81000431,
  "addition": null
}, {
  "area_code": 810004,
  "name": "东华三院甲寅年总理中学",
  "code": 81000432,
  "addition": null
}, {
  "area_code": 810004,
  "name": "东华三院李嘉诚中学",
  "code": 81000433,
  "addition": null
}, {
  "area_code": 810004,
  "name": "神召会康乐夜中学 ",
  "code": 81000434,
  "addition": null
}, {
  "area_code": 810004,
  "name": "神召会康乐中学",
  "code": 81000435,
  "addition": null
}, {
  "area_code": 810004,
  "name": "佛教大光慈航中学",
  "code": 81000436,
  "addition": null
}, {
  "area_code": 810004,
  "name": "迦密圣道中学",
  "code": 81000437,
  "addition": null
}, {
  "area_code": 810004,
  "name": "迦密柏雨中学",
  "code": 81000438,
  "addition": null
}, {
  "area_code": 810004,
  "name": "中华基督教会冯梁结纪念中学",
  "code": 81000439,
  "addition": null
}, {
  "area_code": 810004,
  "name": "中华圣洁会灵风中学",
  "code": 81000440,
  "addition": null
}, {
  "area_code": 810004,
  "name": "孔教学院何郭佩珍中学",
  "code": 81000441,
  "addition": null
}, {
  "area_code": 810004,
  "name": "港九街坊妇女会孙方中书院",
  "code": 81000442,
  "addition": null
}, {
  "area_code": 810004,
  "name": "香港教师会夜中学 ",
  "code": 81000443,
  "addition": null
}, {
  "area_code": 810004,
  "name": "香港教师会李兴贵中学",
  "code": 81000444,
  "addition": null
}, {
  "area_code": 810004,
  "name": "香港红卍字会大埔卍慈中学",
  "code": 81000445,
  "addition": null
}, {
  "area_code": 810004,
  "name": "香港道教联合会圆玄学院第二中学",
  "code": 81000446,
  "addition": null
}, {
  "area_code": 810004,
  "name": "匡智松岭第二校",
  "code": 81000447,
  "addition": null
}, {
  "area_code": 810004,
  "name": "匡智松岭第三校",
  "code": 81000448,
  "addition": null
}, {
  "area_code": 810004,
  "name": "匡智松岭学校",
  "code": 81000449,
  "addition": null
}, {
  "area_code": 810004,
  "name": "香港红十字会医院学校",
  "code": 81000450,
  "addition": null
}, {
  "area_code": 810004,
  "name": "救恩书院",
  "code": 81000451,
  "addition": null
}, {
  "area_code": 810004,
  "name": "罗定邦中学",
  "code": 81000452,
  "addition": null
}, {
  "area_code": 810004,
  "name": "灵粮堂刘梅轩中学",
  "code": 81000453,
  "addition": null
}, {
  "area_code": 810004,
  "name": "新界乡议局大埔区中学",
  "code": 81000454,
  "addition": null
}, {
  "area_code": 810004,
  "name": "香港耀能协会赛马会田绮玲学校",
  "code": 81000455,
  "addition": null
}, {
  "area_code": 810004,
  "name": "南亚路德会沐恩中学",
  "code": 81000456,
  "addition": null
}, {
  "area_code": 810004,
  "name": "圣公会莫寿增会督中学",
  "code": 81000457,
  "addition": null
}, {
  "area_code": 810004,
  "name": "大埔官立中学",
  "code": 81000458,
  "addition": null
}, {
  "area_code": 810004,
  "name": "大埔三育中学",
  "code": 81000459,
  "addition": null
}, {
  "area_code": 810004,
  "name": "恩主教书院",
  "code": 81000460,
  "addition": null
}, {
  "area_code": 810004,
  "name": "王肇枝中学",
  "code": 81000461,
  "addition": null
}, {
  "area_code": 810004,
  "name": "基督教宣道会宣基中学",
  "code": 81000462,
  "addition": null
}, {
  "area_code": 810004,
  "name": "迦密主恩中学",
  "code": 81000463,
  "addition": null
}, {
  "area_code": 810004,
  "name": "天主教鸣远中学",
  "code": 81000464,
  "addition": null
}, {
  "area_code": 810004,
  "name": "新界西贡坑口区郑植之中学",
  "code": 81000465,
  "addition": null
}, {
  "area_code": 810004,
  "name": "啓思中学",
  "code": 81000466,
  "addition": null
}, {
  "area_code": 810004,
  "name": "播道书院",
  "code": 81000467,
  "addition": null
}, {
  "area_code": 810004,
  "name": "优才（杨殷有娣）书院",
  "code": 81000468,
  "addition": null
}, {
  "area_code": 810004,
  "name": "灵实恩光学校",
  "code": 81000469,
  "addition": null
}, {
  "area_code": 810004,
  "name": "将军澳香岛中学",
  "code": 81000470,
  "addition": null
}, {
  "area_code": 810004,
  "name": "香海正觉莲社佛教正觉中学",
  "code": 81000471,
  "addition": null
}, {
  "area_code": 810004,
  "name": "港澳信义会慕德中学",
  "code": 81000472,
  "addition": null
}, {
  "area_code": 810004,
  "name": "香港华人基督教联会真道书院",
  "code": 81000473,
  "addition": null
}, {
  "area_code": 810004,
  "name": "香港道教联合会圆玄学院第三中学",
  "code": 81000474,
  "addition": null
}, {
  "area_code": 810004,
  "name": "匡智翠林晨岗学校",
  "code": 81000475,
  "addition": null
}, {
  "area_code": 810004,
  "name": "香港学堂国际学校",
  "code": 81000476,
  "addition": null
}, {
  "area_code": 810004,
  "name": "香港复临学校",
  "code": 81000477,
  "addition": null
}, {
  "area_code": 810004,
  "name": "香港红十字会医院学校",
  "code": 81000478,
  "addition": null
}, {
  "area_code": 810004,
  "name": "景岭书院",
  "code": 81000479,
  "addition": null
}, {
  "area_code": 810004,
  "name": "马锦明慈善基金马陈端喜纪念中学",
  "code": 81000480,
  "addition": null
}, {
  "area_code": 810004,
  "name": "保良局甲子何玉清中学",
  "code": 81000481,
  "addition": null
}, {
  "area_code": 810004,
  "name": "宝觉中学",
  "code": 81000482,
  "addition": null
}, {
  "area_code": 810004,
  "name": "保良局罗氏基金中学",
  "code": 81000483,
  "addition": null
}, {
  "area_code": 810004,
  "name": "博爱医院八十周年邓英喜中学",
  "code": 81000484,
  "addition": null
}, {
  "area_code": 810004,
  "name": "汇知中学",
  "code": 81000485,
  "addition": null
}, {
  "area_code": 810004,
  "name": "西贡崇真天主教学校（中学部）",
  "code": 81000486,
  "addition": null
}, {
  "area_code": 810004,
  "name": "顺德联谊总会郑裕彤中学",
  "code": 81000487,
  "addition": null
}, {
  "area_code": 810004,
  "name": "将军澳官立中学",
  "code": 81000488,
  "addition": null
}, {
  "area_code": 810004,
  "name": "将军澳培智学校",
  "code": 81000489,
  "addition": null
}, {
  "area_code": 810004,
  "name": "东华三院吕润财纪念中学",
  "code": 81000490,
  "addition": null
}, {
  "area_code": 810004,
  "name": "威灵顿教育机构张沛松纪念中学",
  "code": 81000491,
  "addition": null
}, {
  "area_code": 810004,
  "name": "仁济医院靓次伯纪念中学",
  "code": 81000492,
  "addition": null
}, {
  "area_code": 810004,
  "name": "仁济医院王华湘中学",
  "code": 81000493,
  "addition": null
}, {
  "area_code": 810004,
  "name": "邱子文高中学校",
  "code": 81000494,
  "addition": null
}, {
  "area_code": 810004,
  "name": "浸信会吕明才中学",
  "code": 81000495,
  "addition": null
}, {
  "area_code": 810004,
  "name": "佛教觉光法师中学",
  "code": 81000496,
  "addition": null
}, {
  "area_code": 810004,
  "name": "佛教黄允畋中学",
  "code": 81000497,
  "addition": null
}, {
  "area_code": 810004,
  "name": "明爱乐进学校",
  "code": 81000498,
  "addition": null
}, {
  "area_code": 810004,
  "name": "明爱马鞍山中学",
  "code": 81000499,
  "addition": null
}, {
  "area_code": 810005,
  "name": "明爱乐群学校",
  "code": 81000500,
  "addition": null
}, {
  "area_code": 810005,
  "name": "青年会书院",
  "code": 81000501,
  "addition": null
}, {
  "area_code": 810005,
  "name": "潮州会馆中学",
  "code": 81000502,
  "addition": null
}, {
  "area_code": 810005,
  "name": "才俊学校",
  "code": 81000503,
  "addition": null
}, {
  "area_code": 810005,
  "name": "基督书院",
  "code": 81000504,
  "addition": null
}, {
  "area_code": 810005,
  "name": "香港九龙塘基督教中华宣道会郑荣之中学",
  "code": 81000505,
  "addition": null
}, {
  "area_code": 810005,
  "name": "香港中文大学校友会联会陈震夏中学",
  "code": 81000506,
  "addition": null
}, {
  "area_code": 810005,
  "name": "东莞工商总会刘百乐中学",
  "code": 81000507,
  "addition": null
}, {
  "area_code": 810005,
  "name": "梁文燕纪念中学（沙田）",
  "code": 81000508,
  "addition": null
}, {
  "area_code": 810005,
  "name": "港九潮州公会马松深中学",
  "code": 81000509,
  "addition": null
}, {
  "area_code": 810005,
  "name": "香港浸会大学附属学校王锦辉中小学",
  "code": 81000510,
  "addition": null
}, {
  "area_code": 810005,
  "name": "港专成人教育中心（沙田官立中学） ",
  "code": 81000511,
  "addition": null
}, {
  "area_code": 810005,
  "name": "香港中国妇女会冯尧敬纪念中学",
  "code": 81000512,
  "addition": null
}, {
  "area_code": 810005,
  "name": "香港红十字会医院学校",
  "code": 81000513,
  "addition": null
}, {
  "area_code": 810005,
  "name": "圣母无玷圣心书院",
  "code": 81000514,
  "addition": null
}, {
  "area_code": 810005,
  "name": "基督教国际学校",
  "code": 81000515,
  "addition": null
}, {
  "area_code": 810005,
  "name": "赛马会体艺中学",
  "code": 81000516,
  "addition": null
}, {
  "area_code": 810005,
  "name": "沙田苏浙公学",
  "code": 81000517,
  "addition": null
}, {
  "area_code": 810005,
  "name": "天主教郭得胜中学",
  "code": 81000518,
  "addition": null
}, {
  "area_code": 810005,
  "name": "林大辉中学",
  "code": 81000519,
  "addition": null
}, {
  "area_code": 810005,
  "name": "李宝椿联合世界书院",
  "code": 81000520,
  "addition": null
}, {
  "area_code": 810005,
  "name": "乐道中学",
  "code": 81000521,
  "addition": null
}, {
  "area_code": 810005,
  "name": "乐善堂杨葛小琳中学",
  "code": 81000522,
  "addition": null
}, {
  "area_code": 810005,
  "name": "马鞍山圣若瑟中学",
  "code": 81000523,
  "addition": null
}, {
  "area_code": 810005,
  "name": "马鞍山崇真中学",
  "code": 81000524,
  "addition": null
}, {
  "area_code": 810005,
  "name": "五育中学",
  "code": 81000525,
  "addition": null
}, {
  "area_code": 810005,
  "name": "五旬节林汉光中学",
  "code": 81000526,
  "addition": null
}, {
  "area_code": 810005,
  "name": "保良局朱敬文中学",
  "code": 81000527,
  "addition": null
}, {
  "area_code": 810005,
  "name": "保良局思培基金香港外国记者会中学教育服务中心 ",
  "code": 81000528,
  "addition": null
}, {
  "area_code": 810005,
  "name": "保良局胡忠中学",
  "code": 81000529,
  "addition": null
}, {
  "area_code": 810005,
  "name": "博爱医院陈楷纪念中学",
  "code": 81000530,
  "addition": null
}, {
  "area_code": 810005,
  "name": "培侨书院",
  "code": 81000531,
  "addition": null
}, {
  "area_code": 810005,
  "name": "啓新书院",
  "code": 81000532,
  "addition": null
}, {
  "area_code": 810005,
  "name": "香港耀能协会高福耀纪念学校",
  "code": 81000533,
  "addition": null
}, {
  "area_code": 810005,
  "name": "沙田官立中学",
  "code": 81000534,
  "addition": null
}, {
  "area_code": 810005,
  "name": "沙田循道卫理中学",
  "code": 81000535,
  "addition": null
}, {
  "area_code": 810005,
  "name": "SHATIN COLLEGE",
  "code": 81000536,
  "addition": null
}, {
  "area_code": 810005,
  "name": "路德会沙田夜校 ",
  "code": 81000537,
  "addition": null
}, {
  "area_code": 810005,
  "name": "沙田公立学校",
  "code": 81000538,
  "addition": null
}, {
  "area_code": 810005,
  "name": "沙田培英中学",
  "code": 81000539,
  "addition": null
}, {
  "area_code": 810005,
  "name": "沙田崇真中学",
  "code": 81000540,
  "addition": null
}, {
  "area_code": 810005,
  "name": "圣公会林裘谋中学",
  "code": 81000541,
  "addition": null
}, {
  "area_code": 810005,
  "name": "圣公会曾肇添中学",
  "code": 81000542,
  "addition": null
}, {
  "area_code": 810005,
  "name": "圣罗撒书院",
  "code": 81000543,
  "addition": null
}, {
  "area_code": 810005,
  "name": "香港神托会培基书院",
  "code": 81000544,
  "addition": null
}, {
  "area_code": 810005,
  "name": "德信中学",
  "code": 81000545,
  "addition": null
}, {
  "area_code": 810005,
  "name": "台山商会中学",
  "code": 81000546,
  "addition": null
}, {
  "area_code": 810005,
  "name": "曾璧山中学",
  "code": 81000547,
  "addition": null
}, {
  "area_code": 810005,
  "name": "东华三院冯黄凤亭中学",
  "code": 81000548,
  "addition": null
}, {
  "area_code": 810005,
  "name": "东华三院黄凤翎中学",
  "code": 81000549,
  "addition": null
}, {
  "area_code": 810005,
  "name": "东华三院邱金元中学",
  "code": 81000550,
  "addition": null
}, {
  "area_code": 810005,
  "name": "仁济医院董之英纪念中学",
  "code": 81000551,
  "addition": null
}, {
  "area_code": 810005,
  "name": "佛教善德英文中学",
  "code": 81000552,
  "addition": null
}, {
  "area_code": 810005,
  "name": "佛教叶纪南纪念中学",
  "code": 81000553,
  "addition": null
}, {
  "area_code": 810005,
  "name": "明爱圣若瑟中学",
  "code": 81000554,
  "addition": null
}, {
  "area_code": 810005,
  "name": "迦密爱礼信中学",
  "code": 81000555,
  "addition": null
}, {
  "area_code": 810005,
  "name": "中华基督教会全完中学",
  "code": 81000556,
  "addition": null
}, {
  "area_code": 810005,
  "name": "中华基督教会燕京书院",
  "code": 81000557,
  "addition": null
}, {
  "area_code": 810005,
  "name": "中华传道会安柱中学",
  "code": 81000558,
  "addition": null
}, {
  "area_code": 810005,
  "name": "中华传道会李贤尧纪念中学",
  "code": 81000559,
  "addition": null
}, {
  "area_code": 810005,
  "name": "棉纺会中学",
  "code": 81000560,
  "addition": null
}, {
  "area_code": 810005,
  "name": "天主教母佑会萧明中学",
  "code": 81000561,
  "addition": null
}, {
  "area_code": 810005,
  "name": "香港四邑商工总会陈南昌纪念中学",
  "code": 81000562,
  "addition": null
}, {
  "area_code": 810005,
  "name": "香港道教联合会圆玄学院第一中学",
  "code": 81000563,
  "addition": null
}, {
  "area_code": 810005,
  "name": "匡智张玉琼晨辉学校",
  "code": 81000564,
  "addition": null
}, {
  "area_code": 810005,
  "name": "香港红十字会医院学校",
  "code": 81000565,
  "addition": null
}, {
  "area_code": 810005,
  "name": "裘锦秋中学（葵涌）",
  "code": 81000566,
  "addition": null
}, {
  "area_code": 810005,
  "name": "葵涌苏浙公学",
  "code": 81000567,
  "addition": null
}, {
  "area_code": 810005,
  "name": "葵涌循道中学",
  "code": 81000568,
  "addition": null
}, {
  "area_code": 810005,
  "name": "荔景天主教中学",
  "code": 81000569,
  "addition": null
}, {
  "area_code": 810005,
  "name": "岭南锺荣光博士纪念中学",
  "code": 81000570,
  "addition": null
}, {
  "area_code": 810005,
  "name": "狮子会中学",
  "code": 81000571,
  "addition": null
}, {
  "area_code": 810005,
  "name": "乐善堂顾超文中学",
  "code": 81000572,
  "addition": null
}, {
  "area_code": 810005,
  "name": "乐善堂梁植伟纪念中学",
  "code": 81000573,
  "addition": null
}, {
  "area_code": 810005,
  "name": "路德会啓聋学校",
  "code": 81000574,
  "addition": null
}, {
  "area_code": 810005,
  "name": "李惠利中学",
  "code": 81000575,
  "addition": null
}, {
  "area_code": 810005,
  "name": "保良局陈百强伉俪青衣学校",
  "code": 81000576,
  "addition": null
}, {
  "area_code": 810005,
  "name": "保良局罗杰承（一九八三）中学",
  "code": 81000577,
  "addition": null
}, {
  "area_code": 810005,
  "name": "保禄六世书院",
  "code": 81000578,
  "addition": null
}, {
  "area_code": 810005,
  "name": "皇仁旧生会中学",
  "code": 81000579,
  "addition": null
}, {
  "area_code": 810005,
  "name": "香港耀能协会罗怡基纪念学校",
  "code": 81000580,
  "addition": null
}, {
  "area_code": 810005,
  "name": "天主教慈幼会伍少梅中学",
  "code": 81000581,
  "addition": null
}, {
  "area_code": 810005,
  "name": "三水同乡会刘本章学校",
  "code": 81000582,
  "addition": null
}, {
  "area_code": 810005,
  "name": "石篱天主教中学",
  "code": 81000583,
  "addition": null
}, {
  "area_code": 810005,
  "name": "圣公会林护纪念中学",
  "code": 81000584,
  "addition": null
}, {
  "area_code": 810005,
  "name": "顺德联谊总会李兆基中学",
  "code": 81000585,
  "addition": null
}, {
  "area_code": 810005,
  "name": "东华三院陈兆民中学",
  "code": 81000586,
  "addition": null
}, {
  "area_code": 810005,
  "name": "东华三院伍若瑜夫人纪念中学",
  "code": 81000587,
  "addition": null
}, {
  "area_code": 810005,
  "name": "东华三院吴祥川纪念中学",
  "code": 81000588,
  "addition": null
}, {
  "area_code": 810005,
  "name": "佛教筏可纪念中学",
  "code": 81000589,
  "addition": null
}, {
  "area_code": 810005,
  "name": "佛教慧因法师纪念中学",
  "code": 81000590,
  "addition": null
}, {
  "area_code": 810005,
  "name": "明爱陈震夏郊野学园",
  "code": 81000591,
  "addition": null
}, {
  "area_code": 810005,
  "name": "明爱华德中书院",
  "code": 81000592,
  "addition": null
}, {
  "area_code": 810005,
  "name": "长洲官立中学",
  "code": 81000593,
  "addition": null
}, {
  "area_code": 810005,
  "name": "基督教正生书院",
  "code": 81000594,
  "addition": null
}, {
  "area_code": 810005,
  "name": "智新书院",
  "code": 81000595,
  "addition": null
}, {
  "area_code": 810005,
  "name": "香港教育工作者联会黄楚标中学",
  "code": 81000596,
  "addition": null
}, {
  "area_code": 810005,
  "name": "啬色园主办可誉中学暨可誉小学",
  "code": 81000597,
  "addition": null
}, {
  "area_code": 810005,
  "name": "灵粮堂怡文中学",
  "code": 81000598,
  "addition": null
}, {
  "area_code": 810005,
  "name": "保良局马锦明夫人章馥仙中学",
  "code": 81000599,
  "addition": null
}, {
  "area_code": 810006,
  "name": "东涌天主教学校",
  "code": 81000600,
  "addition": null
}, {
  "area_code": 810006,
  "name": "港青基信书院",
  "code": 81000601,
  "addition": null
}, {
  "area_code": 410102,
  "name": "郑州外国语学校分校",
  "code": 41010210,
  "addition": null
}, {
  "area_code": 410102,
  "name": "郑州新意中学",
  "code": 41010211,
  "addition": null
}, {
  "area_code": 410102,
  "name": "郑州一中实验分校",
  "code": 41010212,
  "addition": null
}, {
  "area_code": 411602,
  "name": "龙水实验高中",
  "code": 41160201,
  "addition": null
}, {
  "area_code": 411602,
  "name": "周口第三高级中学",
  "code": 41160202,
  "addition": null
}, {
  "area_code": 411602,
  "name": "周口市第二高级中学",
  "code": 41160203,
  "addition": null
}, {
  "area_code": 411602,
  "name": "周口市第一高级中学",
  "code": 41160204,
  "addition": null
}, {
  "area_code": 411602,
  "name": "周口市华龙高中",
  "code": 41160205,
  "addition": null
}, {
  "area_code": 411602,
  "name": "周口市宇立学校",
  "code": 41160206,
  "addition": null
}, {
  "area_code": 411602,
  "name": "周口市育新高级中学",
  "code": 41160207,
  "addition": null
}, {
  "area_code": 411602,
  "name": "周口颍河高级中学",
  "code": 41160208,
  "addition": null
}, {
  "area_code": 411625,
  "name": "郸城县才源高中",
  "code": 41162501,
  "addition": null
}, {
  "area_code": 411625,
  "name": "郸城县第二高级中学",
  "code": 41162502,
  "addition": null
}, {
  "area_code": 411625,
  "name": "郸城县第三高级中学",
  "code": 41162503,
  "addition": null
}, {
  "area_code": 411625,
  "name": "郸城县第一高级中学",
  "code": 41162504,
  "addition": null
}, {
  "area_code": 411625,
  "name": "郸城县希望高中",
  "code": 41162505,
  "addition": null
}, {
  "area_code": 411625,
  "name": "郸城县一高东校",
  "code": 41162506,
  "addition": null
}, {
  "area_code": 411621,
  "name": "扶沟县包屯高级中学",
  "code": 41162101,
  "addition": null
}, {
  "area_code": 411621,
  "name": "扶沟县第二高级中学",
  "code": 41162102,
  "addition": null
}, {
  "area_code": 411621,
  "name": "扶沟县高级中学",
  "code": 41162103,
  "addition": null
}, {
  "area_code": 411621,
  "name": "扶沟县韭园高级中学",
  "code": 41162104,
  "addition": null
}, {
  "area_code": 411621,
  "name": "扶沟县秋实高中",
  "code": 41162105,
  "addition": null
}, {
  "area_code": 411621,
  "name": "扶沟县县直高中",
  "code": 41162106,
  "addition": null
}, {
  "area_code": 411626,
  "name": "淮阳县第一高级中学",
  "code": 41162601,
  "addition": null
}, {
  "area_code": 411626,
  "name": "淮阳县第一中学",
  "code": 41162602,
  "addition": null
}, {
  "area_code": 411626,
  "name": "淮阳县淮阳一中分校",
  "code": 41162603,
  "addition": null
}, {
  "area_code": 411626,
  "name": "淮阳县淮阳中学",
  "code": 41162604,
  "addition": null
}, {
  "area_code": 411626,
  "name": "淮阳县淮阳中学分校",
  "code": 41162605,
  "addition": null
}, {
  "area_code": 411626,
  "name": "淮阳县实验高中",
  "code": 41162606,
  "addition": null
}, {
  "area_code": 411626,
  "name": "淮阳县朱集高中",
  "code": 41162607,
  "addition": null
}, {
  "area_code": 411628,
  "name": "鹿邑县伯阳双语学校",
  "code": 41162801,
  "addition": null
}, {
  "area_code": 411628,
  "name": "鹿邑县第二高级中学",
  "code": 41162802,
  "addition": null
}, {
  "area_code": 411628,
  "name": "鹿邑县第三高级中学",
  "code": 41162803,
  "addition": null
}, {
  "area_code": 411628,
  "name": "鹿邑县高级中学",
  "code": 41162804,
  "addition": null
}, {
  "area_code": 411628,
  "name": "鹿邑县远志高级中学",
  "code": 41162805,
  "addition": null
}, {
  "area_code": 411623,
  "name": "商水县第二高级中学",
  "code": 41162301,
  "addition": null
}, {
  "area_code": 411623,
  "name": "商水县第三中学",
  "code": 41162302,
  "addition": null
}, {
  "area_code": 411623,
  "name": "商水县第一高级中学",
  "code": 41162303,
  "addition": null
}, {
  "area_code": 411623,
  "name": "商水县中英文学校",
  "code": 41162304,
  "addition": null
}, {
  "area_code": 411624,
  "name": "沈丘县第二高级中学",
  "code": 41162401,
  "addition": null
}, {
  "area_code": 411624,
  "name": "沈丘县第七高级中学",
  "code": 41162402,
  "addition": null
}, {
  "area_code": 411624,
  "name": "沈丘县第三高级中学",
  "code": 41162403,
  "addition": null
}, {
  "area_code": 411624,
  "name": "沈丘县第四高级中学",
  "code": 41162404,
  "addition": null
}, {
  "area_code": 411624,
  "name": "沈丘县第五高级中学",
  "code": 41162405,
  "addition": null
}, {
  "area_code": 411624,
  "name": "沈丘县第一高级中学",
  "code": 41162406,
  "addition": null
}, {
  "area_code": 411624,
  "name": "沈丘县万龙高中",
  "code": 41162407,
  "addition": null
}, {
  "area_code": 411624,
  "name": "沈丘县县直高中",
  "code": 41162408,
  "addition": null
}, {
  "area_code": 411624,
  "name": "沈丘县醒民高级中学",
  "code": 41162409,
  "addition": null
}, {
  "area_code": 411627,
  "name": "河南华夏外国语高级中学",
  "code": 41162701,
  "addition": null
}, {
  "area_code": 411627,
  "name": "太康县第二高级中学",
  "code": 41162702,
  "addition": null
}, {
  "area_code": 411627,
  "name": "太康县第三高级中学",
  "code": 41162703,
  "addition": null
}, {
  "area_code": 411627,
  "name": "太康县第一高级中学",
  "code": 41162704,
  "addition": null
}, {
  "area_code": 411622,
  "name": "西华县第二高级中学",
  "code": 41162201,
  "addition": null
}, {
  "area_code": 411622,
  "name": "西华县第三高级中学",
  "code": 41162202,
  "addition": null
}, {
  "area_code": 411622,
  "name": "西华县第一高级中学",
  "code": 41162203,
  "addition": null
}, {
  "area_code": 411622,
  "name": "西华县黄泛区农场高级中学",
  "code": 41162204,
  "addition": null
}, {
  "area_code": 411622,
  "name": "西华县箕城高中",
  "code": 41162205,
  "addition": null
}, {
  "area_code": 411681,
  "name": "项城市第二高级中学",
  "code": 41168101,
  "addition": null
}, {
  "area_code": 411681,
  "name": "项城市第三高级中学",
  "code": 41168102,
  "addition": null
}, {
  "area_code": 411681,
  "name": "项城市第一高级中学",
  "code": 41168103,
  "addition": null
}, {
  "area_code": 411681,
  "name": "项城市第一高级中学分校",
  "code": 41168104,
  "addition": null
}, {
  "area_code": 411681,
  "name": "项城市二高分校",
  "code": 41168105,
  "addition": null
}, {
  "area_code": 411681,
  "name": "项城市老城高级中学",
  "code": 41168106,
  "addition": null
}, {
  "area_code": 411726,
  "name": "泌阳县第二高级中学",
  "code": 41172601,
  "addition": null
}, {
  "area_code": 411726,
  "name": "泌阳县第一高级中学",
  "code": 41172602,
  "addition": null
}, {
  "area_code": 411726,
  "name": "泌阳县官庄高级中学校",
  "code": 41172603,
  "addition": null
}, {
  "area_code": 411723,
  "name": "平舆县第二高级中学",
  "code": 41172301,
  "addition": null
}, {
  "area_code": 411723,
  "name": "平舆县第三高级中学",
  "code": 41172302,
  "addition": null
}, {
  "area_code": 411723,
  "name": "平舆县第一高级中学",
  "code": 41172303,
  "addition": null
}, {
  "area_code": 411723,
  "name": "平舆县实验中学",
  "code": 41172304,
  "addition": 原名平舆四高
}, {
  "area_code": 411725,
  "name": "确山县第一高级中学",
  "code": 41172501,
  "addition": null
}, {
  "area_code": 411725,
  "name": "驻马店市确山县二高",
  "code": 41172502,
  "addition": null
}, {
  "area_code": 411727,
  "name": "河南省汝南双语学校",
  "code": 41172701,
  "addition": null
}, {
  "area_code": 411727,
  "name": "汝南县第二高级中学",
  "code": 41172702,
  "addition": null
}, {
  "area_code": 411727,
  "name": "汝南县第一高级中学",
  "code": 41172703,
  "addition": null
}, {
  "area_code": 411722,
  "name": "上蔡县第二高级中学",
  "code": 41172201,
  "addition": null
}, {
  "area_code": 411722,
  "name": "河南省上蔡县第一高级中学",
  "code": 41172202,
  "addition": null
}, {
  "area_code": 411722,
  "name": "上蔡一高分校",
  "code": 41172203,
  "addition": null
}, {
  "area_code": 411728,
  "name": "遂平县第二高级中学",
  "code": 41172801,
  "addition": null
}, {
  "area_code": 411728,
  "name": "遂平县第一高级中学",
  "code": 41172802,
  "addition": null
}, {
  "area_code": 411721,
  "name": "西平县高级中学",
  "code": 41172101,
  "addition": null
}, {
  "area_code": 411721,
  "name": "西平县文成中学",
  "code": 41172102,
  "addition": null
}, {
  "area_code": 411721,
  "name": "西平县杨庄高级中学",
  "code": 41172103,
  "addition": null
}, {
  "area_code": 411729,
  "name": "新蔡县第二高级中学",
  "code": 41172901,
  "addition": null
}, {
  "area_code": 411729,
  "name": "新蔡县第一高级中学",
  "code": 41172902,
  "addition": null
}, {
  "area_code": 411729,
  "name": "新蔡县第一高级中学新校区（高三）",
  "code": 41172903,
  "addition": null
}, {
  "area_code": 411702,
  "name": "驻马店高级中学",
  "code": 41170201,
  "addition": null
}, {
  "area_code": 411702,
  "name": "驻马店敬业高中",
  "code": 41170202,
  "addition": null
}, {
  "area_code": 411702,
  "name": "驻马店市第二高级中学",
  "code": 41170203,
  "addition": null
}, {
  "area_code": 411702,
  "name": "驻马店市第三高级中学",
  "code": 41170204,
  "addition": null
}, {
  "area_code": 411702,
  "name": "驻马店市第一高级中学",
  "code": 41170205,
  "addition": null
}, {
  "area_code": 411702,
  "name": "驻马店市高级中学（分校）",
  "code": 41170206,
  "addition": null
}, {
  "area_code": 411702,
  "name": "驻马店市育秀高级中学",
  "code": 41170207,
  "addition": null
}, {
  "area_code": 411702,
  "name": "驻马店驿城高中",
  "code": 41170208,
  "addition": null
}, {
  "area_code": 411724,
  "name": "正阳县县直二高",
  "code": 41172401,
  "addition": null
}, {
  "area_code": 411724,
  "name": "正阳县县直一高",
  "code": 41172402,
  "addition": null
}, {
  "area_code": 411724,
  "name": "正阳育才外国语学校",
  "code": 41172403,
  "addition": null
}, {
  "area_code": 411724,
  "name": "驻马店市正阳县高级中学",
  "code": 41172404,
  "addition": null
}]
