[{"area_code":"西宁市","code":"630101","name":"市辖区"},{"area_code":"西宁市","code":"630101","name":"市辖区"},{"area_code":"西宁市","code":"630101","name":"市辖区"},{"area_code":"西宁市","code":"630101","name":"市辖区"},{"area_code":"西宁市","code":"630101","name":"市辖区"},{"area_code":"西宁市","code":"630101","name":"市辖区"},{"area_code":"西宁市","code":"630101","name":"市辖区"},{"area_code":"西宁市","code":"630101","name":"市辖区"},{"area_code":"西宁市","code":"630101","name":"市辖区"},{"area_code":"西宁市","code":"630101","name":"市辖区"},{"area_code":"西宁市","code":"630101","name":"市辖区"},{"area_code":"西宁市","code":"630101","name":"市辖区"},{"area_code":"西宁市","code":"630101","name":"市辖区"},{"area_code":"西宁市","code":"630101","name":"市辖区"},{"area_code":"西宁市","code":"630101","name":"市辖区"},{"area_code":"西宁市","code":"630101","name":"市辖区"},{"area_code":"西宁市","code":"630101","name":"市辖区"},{"area_code":"西宁市","code":"630101","name":"市辖区"},{"area_code":"西宁市","code":"630101","name":"市辖区"},{"area_code":"西宁市","code":"630101","name":"市辖区"},{"area_code":"西宁市","code":"630101","name":"市辖区"},{"area_code":"西宁市","code":"630101","name":"市辖区"},{"area_code":"西宁市","code":"630101","name":"市辖区"},{"area_code":"西宁市","code":"630101","name":"市辖区"},{"area_code":"西宁市","code":"630101","name":"市辖区"},{"area_code":"西宁市","code":"630121","name":"大通县  "},{"area_code":"西宁市","code":"630121","name":"大通县  "},{"area_code":"西宁市","code":"630121","name":"大通县  "},{"area_code":"西宁市","code":"630121","name":"大通县  "},{"area_code":"西宁市","code":"630121","name":"大通县  "},{"area_code":"西宁市","code":"630122","name":"湟中县"},{"area_code":"西宁市","code":"630122","name":"湟中县"},{"area_code":"西宁市","code":"630122","name":"湟中县"},{"area_code":"西宁市","code":"630122","name":"湟中县"},{"area_code":"西宁市","code":"630122","name":"湟中县"},{"area_code":"西宁市","code":"630122","name":"湟中县"},{"area_code":"西宁市","code":"630122","name":"湟中县"},{"area_code":"西宁市","code":"630122","name":"湟中县"},{"area_code":"西宁市","code":"630123","name":"湟源县"},{"area_code":"西宁市","code":"630123","name":"湟源县"},{"area_code":"海东地区","code":"632121","name":"平安县"},{"area_code":"海东地区","code":"632122","name":"民和县"},{"area_code":"海东地区","code":"632122","name":"民和县"},{"area_code":"海东地区","code":"632122","name":"民和县"},{"area_code":"海东地区","code":"632122","name":"民和县"},{"area_code":"海东地区","code":"632122","name":"民和县"},{"area_code":"海东地区","code":"632123","name":"乐都县"},{"area_code":"海东地区","code":"632123","name":"乐都县"},{"area_code":"海东地区","code":"632123","name":"乐都县"},{"area_code":"海东地区","code":"632123","name":"乐都县"},{"area_code":"海东地区","code":"632123","name":"乐都县"},{"area_code":"海东地区","code":"632123","name":"乐都县"},{"area_code":"海东地区","code":"632123","name":"乐都县"},{"area_code":"海东地区","code":"632126","name":"互助县"},{"area_code":"海东地区","code":"632126","name":"互助县"},{"area_code":"海东地区","code":"632126","name":"互助县"},{"area_code":"海东地区","code":"632126","name":"互助县"},{"area_code":"海东地区","code":"632126","name":"互助县"},{"area_code":"海东地区","code":"632126","name":"互助县"},{"area_code":"海东地区","code":"632126","name":"互助县"},{"area_code":"海东地区","code":"632127","name":"化隆县"},{"area_code":"海东地区","code":"632127","name":"化隆县"},{"area_code":"海东地区","code":"632127","name":"化隆县"},{"area_code":"海东地区","code":"632127","name":"化隆县"},{"area_code":"海东地区","code":"632127","name":"化隆县"},{"area_code":"海东地区","code":"632128","name":"循化县"},{"area_code":"海东地区","code":"632128","name":"循化县"},{"area_code":"海北藏族自治州","code":"632221","name":"门源县"},{"area_code":"海北藏族自治州","code":"632223","name":"海晏县"},{"area_code":"海北藏族自治州","code":"632222","name":"祁连县"},{"area_code":"黄南藏族自治州","code":"632321","name":"同仁县  "},{"area_code":"黄南藏族自治州","code":"632321","name":"同仁县  "},{"area_code":"黄南藏族自治州","code":"632321","name":"同仁县  "},{"area_code":"黄南藏族自治州","code":"632322","name":"尖扎县"},{"area_code":"黄南藏族自治州","code":"632322","name":"尖扎县"},{"area_code":"黄南藏族自治州","code":"632322","name":"尖扎县"},{"area_code":"海南藏族自治州","code":"632521","name":"共和县"},{"area_code":"海南藏族自治州","code":"632521","name":"共和县"},{"area_code":"海南藏族自治州","code":"632523","name":"贵德县"},{"area_code":"果洛藏族自治州","code":"632621","name":"玛沁县"},{"area_code":"果洛藏族自治州","code":"632621","name":"玛沁县"},{"area_code":"果洛藏族自治州","code":"632621","name":"玛沁县"},{"area_code":"玉树藏族自治州","code":"632721","name":"玉树县"},{"area_code":"玉树藏族自治州","code":"632721","name":"玉树县"},{"area_code":"玉树藏族自治州","code":"632721","name":"玉树县"},{"area_code":"玉树藏族自治州","code":"632721","name":"玉树县"},{"area_code":"玉树藏族自治州","code":"632723","name":"称多县"},{"area_code":"玉树藏族自治州","code":"632725","name":"囊谦县"},{"area_code":"海西蒙古族藏族自治州","code":"632801","name":"格尔木市"},{"area_code":"海西蒙古族藏族自治州","code":"632801","name":"格尔木市"},{"area_code":"海西蒙古族藏族自治州","code":"632801","name":"格尔木市"},{"area_code":"海西蒙古族藏族自治州","code":"632801","name":"格尔木市"},{"area_code":"海西蒙古族藏族自治州","code":"632802","name":"德令哈市"},{"area_code":"海西蒙古族藏族自治州","code":"632821","name":"乌兰县"},{"area_code":"海西蒙古族藏族自治州","code":"632822","name":"都兰县"},{"area_code":"海西蒙古族藏族自治州","code":"632822","name":"都兰县"},{"area_code":"海西蒙古族藏族自治州","code":"632823","name":"天峻县"},{"area_code":"海西蒙古族藏族自治州","code":"632823","name":"天峻县"},{"area_code":"海西蒙古族藏族自治州","code":"632823","name":"天峻县"},{"area_code":"海西蒙古族藏族自治州","code":"632823","name":"天峻县"},{"area_code":"乌海市","code":"150304","name":"乌达区"},{"area_code":"赤峰市","code":"150402","name":"红山区"},{"area_code":"赤峰市","code":"150402","name":"红山区"},{"area_code":"赤峰市","code":"150402","name":"红山区"},{"area_code":"赤峰市","code":"150402","name":"红山区"},{"area_code":"赤峰市","code":"150402","name":"红山区"},{"area_code":"赤峰市","code":"150402","name":"红山区"},{"area_code":"赤峰市","code":"150402","name":"红山区"},{"area_code":"赤峰市","code":"150402","name":"红山区"},{"area_code":"赤峰市","code":"150402","name":"红山区"},{"area_code":"赤峰市","code":"150402","name":"红山区"},{"area_code":"赤峰市","code":"150402","name":"红山区"},{"area_code":"赤峰市","code":"150403","name":"元宝山区"},{"area_code":"赤峰市","code":"150403","name":"元宝山区"},{"area_code":"赤峰市","code":"150403","name":"元宝山区"},{"area_code":"赤峰市","code":"150403","name":"元宝山区"},{"area_code":"赤峰市","code":"150403","name":"元宝山区"},{"area_code":"赤峰市","code":"150404","name":"松山区"},{"area_code":"赤峰市","code":"150404","name":"松山区"},{"area_code":"赤峰市","code":"150404","name":"松山区"},{"area_code":"赤峰市","code":"150404","name":"松山区"},{"area_code":"赤峰市","code":"150404","name":"松山区"},{"area_code":"赤峰市","code":"150404","name":"松山区"},{"area_code":"赤峰市","code":"150404","name":"松山区"},{"area_code":"赤峰市","code":"150404","name":"松山区"},{"area_code":"赤峰市","code":"150421","name":"阿鲁科尔沁"},{"area_code":"赤峰市","code":"150421","name":"阿鲁科尔沁"},{"area_code":"赤峰市","code":"150423","name":"巴林右旗  "},{"area_code":"赤峰市","code":"150423","name":"巴林右旗  "},{"area_code":"赤峰市","code":"150422","name":"巴林左旗"},{"area_code":"赤峰市","code":"150422","name":"巴林左旗"},{"area_code":"赤峰市","code":"150422","name":"巴林左旗"},{"area_code":"赤峰市","code":"150424","name":"林西县  "},{"area_code":"赤峰市","code":"150425","name":"克什克腾旗"},{"area_code":"赤峰市","code":"150425","name":"克什克腾旗"},{"area_code":"赤峰市","code":"150426","name":"翁牛特旗"},{"area_code":"赤峰市","code":"150426","name":"翁牛特旗"},{"area_code":"赤峰市","code":"150426","name":"翁牛特旗"},{"area_code":"赤峰市","code":"150428","name":"喀喇沁旗"},{"area_code":"赤峰市","code":"150428","name":"喀喇沁旗"},{"area_code":"赤峰市","code":"150428","name":"喀喇沁旗"},{"area_code":"赤峰市","code":"150428","name":"喀喇沁旗"},{"area_code":"赤峰市","code":"150428","name":"喀喇沁旗"},{"area_code":"赤峰市","code":"150429","name":"宁城县"},{"area_code":"赤峰市","code":"150429","name":"宁城县"},{"area_code":"赤峰市","code":"150429","name":"宁城县"},{"area_code":"赤峰市","code":"150429","name":"宁城县"},{"area_code":"赤峰市","code":"150430","name":"敖汉旗"},{"area_code":"赤峰市","code":"150430","name":"敖汉旗"},{"area_code":"赤峰市","code":"150430","name":"敖汉旗"},{"area_code":"赤峰市","code":"150430","name":"敖汉旗"},{"area_code":"通辽市","code":"150502","name":"科尔沁区"},{"area_code":"通辽市","code":"150502","name":"科尔沁区"},{"area_code":"通辽市","code":"150502","name":"科尔沁区"},{"area_code":"通辽市","code":"150502","name":"科尔沁区"},{"area_code":"通辽市","code":"150502","name":"科尔沁区"},{"area_code":"通辽市","code":"150502","name":"科尔沁区"},{"area_code":"通辽市","code":"150502","name":"科尔沁区"},{"area_code":"通辽市","code":"150502","name":"科尔沁区"},{"area_code":"通辽市","code":"150502","name":"科尔沁区"},{"area_code":"通辽市","code":"150522","name":"科左后旗"},{"area_code":"通辽市","code":"150522","name":"科左后旗"},{"area_code":"通辽市","code":"150521","name":"科左中旗"},{"area_code":"通辽市","code":"150521","name":"科左中旗"},{"area_code":"通辽市","code":"150521","name":"科左中旗"},{"area_code":"通辽市","code":"150523","name":"开鲁县"},{"area_code":"通辽市","code":"150523","name":"开鲁县"},{"area_code":"通辽市","code":"150523","name":"开鲁县"},{"area_code":"通辽市","code":"150524","name":"库伦旗"},{"area_code":"通辽市","code":"150524","name":"库伦旗"},{"area_code":"通辽市","code":"150525","name":"奈曼旗"},{"area_code":"通辽市","code":"150525","name":"奈曼旗"},{"area_code":"通辽市","code":"150525","name":"奈曼旗"},{"area_code":"通辽市","code":"150526","name":"扎鲁特旗"},{"area_code":"通辽市","code":"150526","name":"扎鲁特旗"},{"area_code":"通辽市","code":"150581","name":"霍林郭勒市  "},{"area_code":"通辽市","code":"150581","name":"霍林郭勒市  "},{"area_code":"通辽市","code":"150581","name":"霍林郭勒市  "},{"area_code":"通辽市","code":"150581","name":"霍林郭勒市  "},{"area_code":"鄂尔多斯市","code":"150602","name":"东胜区"},{"area_code":"鄂尔多斯市","code":"150602","name":"东胜区"},{"area_code":"鄂尔多斯市","code":"150602","name":"东胜区"},{"area_code":"鄂尔多斯市","code":"150602","name":"东胜区"},{"area_code":"鄂尔多斯市","code":"150602","name":"东胜区"},{"area_code":"鄂尔多斯市","code":"150621","name":"达拉特旗"},{"area_code":"鄂尔多斯市","code":"150621","name":"达拉特旗"},{"area_code":"鄂尔多斯市","code":"150621","name":"达拉特旗"},{"area_code":"鄂尔多斯市","code":"150622","name":"准格尔旗"},{"area_code":"鄂尔多斯市","code":"150622","name":"准格尔旗"},{"area_code":"鄂尔多斯市","code":"150622","name":"准格尔旗"},{"area_code":"鄂尔多斯市","code":"150623","name":"鄂托克前旗  "},{"area_code":"鄂尔多斯市","code":"150623","name":"鄂托克前旗  "},{"area_code":"鄂尔多斯市","code":"150624","name":"鄂托克旗  "},{"area_code":"鄂尔多斯市","code":"150624","name":"鄂托克旗  "},{"area_code":"鄂尔多斯市","code":"150624","name":"鄂托克旗  "},{"area_code":"鄂尔多斯市","code":"150625","name":"杭锦旗"},{"area_code":"鄂尔多斯市","code":"150625","name":"杭锦旗"},{"area_code":"鄂尔多斯市","code":"150626","name":"乌审旗"},{"area_code":"鄂尔多斯市","code":"150626","name":"乌审旗"},{"area_code":"鄂尔多斯市","code":"150627","name":"伊金霍洛旗"},{"area_code":"鄂尔多斯市","code":"150627","name":"伊金霍洛旗"},{"area_code":"呼伦贝尔市","code":"150702","name":"海拉尔区"},{"area_code":"呼伦贝尔市","code":"150702","name":"海拉尔区"},{"area_code":"呼伦贝尔市","code":"150702","name":"海拉尔区"},{"area_code":"呼伦贝尔市","code":"150702","name":"海拉尔区"},{"area_code":"呼伦贝尔市","code":"150702","name":"海拉尔区"},{"area_code":"呼伦贝尔市","code":"150702","name":"海拉尔区"},{"area_code":"呼伦贝尔市","code":"150702","name":"海拉尔区"},{"area_code":"呼伦贝尔市","code":"150702","name":"海拉尔区"},{"area_code":"呼伦贝尔市","code":"150721","name":"阿荣旗  "},{"area_code":"呼伦贝尔市","code":"150721","name":"阿荣旗  "},{"area_code":"呼伦贝尔市","code":"150722","name":"莫力达瓦旗"},{"area_code":"呼伦贝尔市","code":"150722","name":"莫力达瓦旗"},{"area_code":"呼伦贝尔市","code":"150723","name":"鄂伦春自治旗"},{"area_code":"呼伦贝尔市","code":"150723","name":"鄂伦春自治旗"},{"area_code":"呼伦贝尔市","code":"150723","name":"鄂伦春自治旗"},{"area_code":"呼伦贝尔市","code":"150723","name":"鄂伦春自治旗"},{"area_code":"呼伦贝尔市","code":"150723","name":"鄂伦春自治旗"},{"area_code":"呼伦贝尔市","code":"150724","name":"鄂温克旗"},{"area_code":"呼伦贝尔市","code":"150724","name":"鄂温克旗"},{"area_code":"呼伦贝尔市","code":"150724","name":"鄂温克旗"},{"area_code":"呼伦贝尔市","code":"150724","name":"鄂温克旗"},{"area_code":"呼伦贝尔市","code":"150781","name":"满洲里市  "},{"area_code":"呼伦贝尔市","code":"150781","name":"满洲里市  "},{"area_code":"呼伦贝尔市","code":"150782","name":"牙克石市"},{"area_code":"呼伦贝尔市","code":"150782","name":"牙克石市"},{"area_code":"呼伦贝尔市","code":"150782","name":"牙克石市"},{"area_code":"呼伦贝尔市","code":"150782","name":"牙克石市"},{"area_code":"呼伦贝尔市","code":"150782","name":"牙克石市"},{"area_code":"呼伦贝尔市","code":"150782","name":"牙克石市"},{"area_code":"呼伦贝尔市","code":"150783","name":"扎兰屯市"},{"area_code":"呼伦贝尔市","code":"150783","name":"扎兰屯市"},{"area_code":"呼伦贝尔市","code":"150783","name":"扎兰屯市"},{"area_code":"呼伦贝尔市","code":"150783","name":"扎兰屯市"},{"area_code":"呼伦贝尔市","code":"150784","name":"额尔古纳市"},{"area_code":"呼伦贝尔市","code":"150784","name":"额尔古纳市"},{"area_code":"呼伦贝尔市","code":"150785","name":"根河市"},{"area_code":"呼伦贝尔市","code":"150785","name":"根河市"},{"area_code":"呼伦贝尔市","code":"150785","name":"根河市"},{"area_code":"呼伦贝尔市","code":"150785","name":"根河市"},{"area_code":"呼伦贝尔市","code":"150785","name":"根河市"},{"area_code":"呼伦贝尔市","code":"150785","name":"根河市"},{"area_code":"巴彦淖尔市","code":"150802","name":"临河区"},{"area_code":"巴彦淖尔市","code":"150802","name":"临河区"},{"area_code":"巴彦淖尔市","code":"150802","name":"临河区"},{"area_code":"巴彦淖尔市","code":"150802","name":"临河区"},{"area_code":"巴彦淖尔市","code":"150802","name":"临河区"},{"area_code":"巴彦淖尔市","code":"150802","name":"临河区"},{"area_code":"巴彦淖尔市","code":"150802","name":"临河区"},{"area_code":"巴彦淖尔市","code":"150821","name":"五原县"},{"area_code":"巴彦淖尔市","code":"150821","name":"五原县"},{"area_code":"巴彦淖尔市","code":"150822","name":"磴口县"},{"area_code":"巴彦淖尔市","code":"150823","name":"乌拉特前旗"},{"area_code":"巴彦淖尔市","code":"150823","name":"乌拉特前旗"},{"area_code":"巴彦淖尔市","code":"150823","name":"乌拉特前旗"},{"area_code":"巴彦淖尔市","code":"150824","name":"乌拉特中旗"},{"area_code":"巴彦淖尔市","code":"150824","name":"乌拉特中旗"},{"area_code":"巴彦淖尔市","code":"150825","name":"乌拉特后旗"},{"area_code":"巴彦淖尔市","code":"150825","name":"乌拉特后旗"},{"area_code":"巴彦淖尔市","code":"150826","name":"杭锦后旗"},{"area_code":"巴彦淖尔市","code":"150826","name":"杭锦后旗"},{"area_code":"乌兰察布市","code":"150902","name":"集宁区"},{"area_code":"乌兰察布市","code":"150902","name":"集宁区"},{"area_code":"乌兰察布市","code":"150902","name":"集宁区"},{"area_code":"乌兰察布市","code":"150902","name":"集宁区"},{"area_code":"乌兰察布市","code":"150902","name":"集宁区"},{"area_code":"乌兰察布市","code":"150902","name":"集宁区"},{"area_code":"乌兰察布市","code":"150902","name":"集宁区"},{"area_code":"乌兰察布市","code":"150902","name":"集宁区"},{"area_code":"乌兰察布市","code":"150902","name":"集宁区"},{"area_code":"乌兰察布市","code":"150902","name":"集宁区"},{"area_code":"乌兰察布市","code":"150921","name":"卓资县"},{"area_code":"乌兰察布市","code":"150921","name":"卓资县"},{"area_code":"乌兰察布市","code":"150923","name":"商都县"},{"area_code":"乌兰察布市","code":"150922","name":"化德县"},{"area_code":"乌兰察布市","code":"150924","name":"兴和县"},{"area_code":"乌兰察布市","code":"150925","name":"凉城县"},{"area_code":"乌兰察布市","code":"150925","name":"凉城县"},{"area_code":"乌兰察布市","code":"150925","name":"凉城县"},{"area_code":"乌兰察布市","code":"150927","name":"察哈尔中旗 "},{"area_code":"乌兰察布市","code":"150928","name":"察哈尔后旗"},{"area_code":"乌兰察布市","code":"150929","name":"四子王旗"},{"area_code":"乌兰察布市","code":"150981","name":"丰镇市"},{"area_code":"兴安盟","code":"152201","name":"乌兰浩特市"},{"area_code":"兴安盟","code":"152201","name":"乌兰浩特市"},{"area_code":"兴安盟","code":"152201","name":"乌兰浩特市"},{"area_code":"兴安盟","code":"152201","name":"乌兰浩特市"},{"area_code":"兴安盟","code":"152201","name":"乌兰浩特市"},{"area_code":"兴安盟","code":"152201","name":"乌兰浩特市"},{"area_code":"兴安盟","code":"152201","name":"乌兰浩特市"},{"area_code":"兴安盟","code":"152201","name":"乌兰浩特市"},{"area_code":"兴安盟","code":"152201","name":"乌兰浩特市"},{"area_code":"兴安盟","code":"152202","name":"阿尔山市  "},{"area_code":"兴安盟","code":"152202","name":"阿尔山市  "},{"area_code":"兴安盟","code":"152202","name":"阿尔山市  "},{"area_code":"兴安盟","code":"152221","name":"科尔沁前旗"},{"area_code":"兴安盟","code":"152222","name":"科尔沁中旗"},{"area_code":"兴安盟","code":"152223","name":"扎赉特旗"},{"area_code":"兴安盟","code":"152223","name":"扎赉特旗"},{"area_code":"兴安盟","code":"152223","name":"扎赉特旗"},{"area_code":"兴安盟","code":"152224","name":"突泉县"},{"area_code":"锡林郭勒盟","code":"152502","name":"锡林浩特市  "},{"area_code":"锡林郭勒盟","code":"152502","name":"锡林浩特市  "},{"area_code":"锡林郭勒盟","code":"152502","name":"锡林浩特市  "},{"area_code":"锡林郭勒盟","code":"152502","name":"锡林浩特市  "},{"area_code":"锡林郭勒盟","code":"152502","name":"锡林浩特市  "},{"area_code":"锡林郭勒盟","code":"152501","name":"二连浩特市"},{"area_code":"锡林郭勒盟","code":"152501","name":"二连浩特市"},{"area_code":"锡林郭勒盟","code":"152525","name":"东乌珠穆沁旗"},{"area_code":"锡林郭勒盟","code":"152527","name":"太仆寺旗"},{"area_code":"锡林郭勒盟","code":"152527","name":"太仆寺旗"},{"area_code":"锡林郭勒盟","code":"152528","name":"镶黄旗"},{"area_code":"锡林郭勒盟","code":"152529","name":"正镶白旗  "},{"area_code":"锡林郭勒盟","code":"152530","name":"正蓝旗"},{"area_code":"锡林郭勒盟","code":"152531","name":"多伦县"},{"area_code":"阿拉善盟","code":"152921","name":"阿拉善左旗  "},{"area_code":"阿拉善盟","code":"152921","name":"阿拉善左旗  "},{"area_code":"阿拉善盟","code":"152921","name":"阿拉善左旗  "},{"area_code":"阿拉善盟","code":"152921","name":"阿拉善左旗  "},{"area_code":"阿拉善盟","code":"152922","name":"阿拉善右旗"},{"area_code":"阿拉善盟","code":"152923","name":"额济纳旗"},{"area_code":"伊犁哈萨克自治州","code":"654003","name":"奎屯市"},{"area_code":"伊犁哈萨克自治州","code":"654003","name":"奎屯市"},{"area_code":"伊犁哈萨克自治州","code":"654003","name":"奎屯市"},{"area_code":"伊犁哈萨克自治州","code":"654003","name":"奎屯市"},{"area_code":"伊犁哈萨克自治州","code":"654021","name":"伊宁县"},{"area_code":"伊犁哈萨克自治州","code":"654021","name":"伊宁县"},{"area_code":"伊犁哈萨克自治州","code":"654021","name":"伊宁县"},{"area_code":"伊犁哈萨克自治州","code":"654021","name":"伊宁县"},{"area_code":"伊犁哈萨克自治州","code":"654021","name":"伊宁县"},{"area_code":"伊犁哈萨克自治州","code":"654021","name":"伊宁县"},{"area_code":"伊犁哈萨克自治州","code":"654021","name":"伊宁县"},{"area_code":"伊犁哈萨克自治州","code":"654021","name":"伊宁县"},{"area_code":"伊犁哈萨克自治州","code":"654021","name":"伊宁县"},{"area_code":"伊犁哈萨克自治州","code":"654022","name":"察县"},{"area_code":"伊犁哈萨克自治州","code":"654022","name":"察县"},{"area_code":"伊犁哈萨克自治州","code":"654022","name":"察县"},{"area_code":"伊犁哈萨克自治州","code":"654022","name":"察县"},{"area_code":"伊犁哈萨克自治州","code":"654022","name":"察县"},{"area_code":"伊犁哈萨克自治州","code":"654022","name":"察县"},{"area_code":"伊犁哈萨克自治州","code":"654022","name":"察县"},{"area_code":"伊犁哈萨克自治州","code":"654022","name":"察县"},{"area_code":"伊犁哈萨克自治州","code":"654022","name":"察县"},{"area_code":"伊犁哈萨克自治州","code":"654022","name":"察县"},{"area_code":"伊犁哈萨克自治州","code":"654022","name":"察县"},{"area_code":"伊犁哈萨克自治州","code":"654022","name":"察县"},{"area_code":"伊犁哈萨克自治州","code":"654023","name":"霍城县"},{"area_code":"伊犁哈萨克自治州","code":"654023","name":"霍城县"},{"area_code":"伊犁哈萨克自治州","code":"654023","name":"霍城县"},{"area_code":"伊犁哈萨克自治州","code":"654023","name":"霍城县"},{"area_code":"伊犁哈萨克自治州","code":"654023","name":"霍城县"},{"area_code":"伊犁哈萨克自治州","code":"654023","name":"霍城县"},{"area_code":"伊犁哈萨克自治州","code":"654024","name":"巩留县"},{"area_code":"伊犁哈萨克自治州","code":"654024","name":"巩留县"},{"area_code":"伊犁哈萨克自治州","code":"654024","name":"巩留县"},{"area_code":"伊犁哈萨克自治州","code":"654025","name":"新源县"},{"area_code":"伊犁哈萨克自治州","code":"654025","name":"新源县"},{"area_code":"伊犁哈萨克自治州","code":"654025","name":"新源县"},{"area_code":"伊犁哈萨克自治州","code":"654025","name":"新源县"},{"area_code":"伊犁哈萨克自治州","code":"654025","name":"新源县"},{"area_code":"伊犁哈萨克自治州","code":"654025","name":"新源县"},{"area_code":"伊犁哈萨克自治州","code":"654025","name":"新源县"},{"area_code":"伊犁哈萨克自治州","code":"654025","name":"新源县"},{"area_code":"伊犁哈萨克自治州","code":"654025","name":"新源县"},{"area_code":"伊犁哈萨克自治州","code":"654025","name":"新源县"},{"area_code":"伊犁哈萨克自治州","code":"654026","name":"昭苏县"},{"area_code":"伊犁哈萨克自治州","code":"654026","name":"昭苏县"},{"area_code":"伊犁哈萨克自治州","code":"654026","name":"昭苏县"},{"area_code":"伊犁哈萨克自治州","code":"654026","name":"昭苏县"},{"area_code":"伊犁哈萨克自治州","code":"654026","name":"昭苏县"},{"area_code":"伊犁哈萨克自治州","code":"654026","name":"昭苏县"},{"area_code":"伊犁哈萨克自治州","code":"654027","name":"特克斯县"},{"area_code":"伊犁哈萨克自治州","code":"654027","name":"特克斯县"},{"area_code":"伊犁哈萨克自治州","code":"654027","name":"特克斯县"},{"area_code":"伊犁哈萨克自治州","code":"654027","name":"特克斯县"},{"area_code":"伊犁哈萨克自治州","code":"654028","name":"尼勒克县"},{"area_code":"塔城地区","code":"654201","name":"塔城市"},{"area_code":"塔城地区","code":"654201","name":"塔城市"},{"area_code":"塔城地区","code":"654201","name":"塔城市"},{"area_code":"塔城地区","code":"654201","name":"塔城市"},{"area_code":"塔城地区","code":"654202","name":"乌苏市"},{"area_code":"塔城地区","code":"654202","name":"乌苏市"},{"area_code":"塔城地区","code":"654202","name":"乌苏市"},{"area_code":"塔城地区","code":"654202","name":"乌苏市"},{"area_code":"塔城地区","code":"654202","name":"乌苏市"},{"area_code":"塔城地区","code":"654202","name":"乌苏市"},{"area_code":"塔城地区","code":"654202","name":"乌苏市"},{"area_code":"塔城地区","code":"654202","name":"乌苏市"},{"area_code":"塔城地区","code":"654202","name":"乌苏市"},{"area_code":"塔城地区","code":"654202","name":"乌苏市"},{"area_code":"塔城地区","code":"654202","name":"乌苏市"},{"area_code":"塔城地区","code":"654221","name":"额敏县"},{"area_code":"塔城地区","code":"654221","name":"额敏县"},{"area_code":"塔城地区","code":"654221","name":"额敏县"},{"area_code":"塔城地区","code":"654223","name":"沙湾县"},{"area_code":"塔城地区","code":"654223","name":"沙湾县"},{"area_code":"塔城地区","code":"654223","name":"沙湾县"},{"area_code":"塔城地区","code":"654223","name":"沙湾县"},{"area_code":"塔城地区","code":"654223","name":"沙湾县"},{"area_code":"塔城地区","code":"654224","name":"托里县"},{"area_code":"塔城地区","code":"654224","name":"托里县"},{"area_code":"塔城地区","code":"654224","name":"托里县"},{"area_code":"塔城地区","code":"654225","name":"裕民县"},{"area_code":"塔城地区","code":"654225","name":"裕民县"},{"area_code":"塔城地区","code":"654225","name":"裕民县"},{"area_code":"塔城地区","code":"654226","name":"和丰县"},{"area_code":"塔城地区","code":"654226","name":"和丰县"},{"area_code":"塔城地区","code":"654226","name":"和丰县"},{"area_code":"阿勒泰地区","code":"654301","name":"阿勒泰市 "},{"area_code":"阿勒泰地区","code":"654301","name":"阿勒泰市 "},{"area_code":"阿勒泰地区","code":"654301","name":"阿勒泰市 "},{"area_code":"阿勒泰地区","code":"654301","name":"阿勒泰市 "},{"area_code":"阿勒泰地区","code":"654321","name":"布尔津县"},{"area_code":"阿勒泰地区","code":"654322","name":"富蕴县"},{"area_code":"阿勒泰地区","code":"654322","name":"富蕴县"},{"area_code":"阿勒泰地区","code":"654322","name":"富蕴县"},{"area_code":"阿勒泰地区","code":"654323","name":"福海县"},{"area_code":"阿勒泰地区","code":"654324","name":"哈巴河县"},{"area_code":"阿勒泰地区","code":"654324","name":"哈巴河县"},{"area_code":"阿勒泰地区","code":"654325","name":"青河县"},{"area_code":"阿勒泰地区","code":"654326","name":"吉木乃县"},{"area_code":"阿勒泰地区","code":"654326","name":"吉木乃县"},{"area_code":"阿勒泰地区","code":"654326","name":"吉木乃县"},{"area_code":"阿勒泰地区","code":"654326","name":"吉木乃县"},{"area_code":"阿勒泰地区","code":"654326","name":"吉木乃县"},{"area_code":"直辖行政单位","code":"659001","name":"石河子市"},{"area_code":"直辖行政单位","code":"659001","name":"石河子市"},{"area_code":"直辖行政单位","code":"659001","name":"石河子市"},{"area_code":"直辖行政单位","code":"659001","name":"石河子市"},{"area_code":"直辖行政单位","code":"659001","name":"石河子市"},{"area_code":"直辖行政单位","code":"659001","name":"石河子市"},{"area_code":"直辖行政单位","code":"659001","name":"石河子市"},{"area_code":"直辖行政单位","code":"659001","name":"石河子市"},{"area_code":"直辖行政单位","code":"659001","name":"石河子市"},{"area_code":"直辖行政单位","code":"659001","name":"石河子市"},{"area_code":"直辖行政单位","code":"659001","name":"石河子市"},{"area_code":"直辖行政单位","code":"659001","name":"石河子市"},{"area_code":"直辖行政单位","code":"659001","name":"石河子市"},{"area_code":"直辖行政单位","code":"659001","name":"石河子市"},{"area_code":"直辖行政单位","code":"659001","name":"石河子市"},{"area_code":"直辖行政单位","code":"659001","name":"石河子市"},{"area_code":"直辖行政单位","code":"659001","name":"石河子市"},{"area_code":"直辖行政单位","code":"659001","name":"石河子市"},{"area_code":"直辖行政单位","code":"659001","name":"石河子市"},{"area_code":"直辖行政单位","code":"659001","name":"石河子市"},{"area_code":"直辖行政单位","code":"659002","name":"阿拉尔市"},{"area_code":"直辖行政单位","code":"659002","name":"阿拉尔市"},{"area_code":"直辖行政单位","code":"659002","name":"阿拉尔市"},{"area_code":"直辖行政单位","code":"659002","name":"阿拉尔市"},{"area_code":"直辖行政单位","code":"659002","name":"阿拉尔市"},{"area_code":"直辖行政单位","code":"659004","name":"五家渠市"},{"area_code":"直辖行政单位","code":"659004","name":"五家渠市"},{"area_code":"直辖行政单位","code":"659004","name":"五家渠市"},{"area_code":"直辖行政单位","code":"659004","name":"五家渠市"},{"area_code":"直辖行政单位","code":"659004","name":"五家渠市"},{"area_code":"直辖行政单位","code":"659004","name":"五家渠市"},{"area_code":"直辖行政单位","code":"659004","name":"五家渠市"},{"area_code":"直辖行政单位","code":"659004","name":"五家渠市"},{"area_code":"直辖行政单位","code":"659004","name":"五家渠市"},{"area_code":"直辖行政单位","code":"659004","name":"五家渠市"},{"area_code":"","code":"","name":"大丰市"},{"area_code":"","code":"","name":"盐都区"},{"area_code":"","code":"","name":"亭湖区"},{"area_code":"","code":"","name":"市辖区"},{"area_code":"扬州市","code":"","name":"市辖区"},{"area_code":"","code":"","name":"宝应县"},{"area_code":"","code":"","name":"仪征市"},{"area_code":"","code":"","name":"高邮市"},{"area_code":"","code":"","name":"江都市"},{"area_code":"镇江市","code":"","name":"市辖区"},{"area_code":"","code":"","name":"丹阳市"},{"area_code":"","code":"","name":"扬中市"},{"area_code":"","code":"","name":"句容市"},{"area_code":"泰州市","code":"","name":"海陵区"},{"area_code":"","code":"","name":"高港区"},{"area_code":"","code":"","name":"兴化市"},{"area_code":"","code":"","name":"靖江市"},{"area_code":"","code":"","name":"泰兴市"},{"area_code":"","code":"","name":"姜堰市"},{"area_code":"宿迁市","code":"","name":"宿城区"},{"area_code":"","code":"","name":"宿豫区"},{"area_code":"","code":"","name":"沭阳县"},{"area_code":"","code":"","name":"泗阳县"},{"area_code":"","code":"","name":"泗洪县"},{"area_code":"","code":"361127","name":""},{"area_code":"","code":"361128","name":"鄱阳县"},{"area_code":"","code":"361128","name":""},{"area_code":"","code":"361128","name":""},{"area_code":"","code":"361128","name":""},{"area_code":"","code":"361128","name":""},{"area_code":"","code":"361128","name":""},{"area_code":"","code":"361128","name":""},{"area_code":"","code":"361128","name":""},{"area_code":"","code":"361129","name":"万年县"},{"area_code":"","code":"361129","name":""},{"area_code":"","code":"361129","name":""},{"area_code":"","code":"361130","name":"婺源县"},{"area_code":"","code":"361130","name":""},{"area_code":"","code":"361130","name":""},{"area_code":"","code":"361181","name":"德兴市"},{"area_code":"","code":"361181","name":""},{"area_code":"周口市","code":"411624","name":"沈丘县"},{"area_code":"周口市","code":"411624","name":"沈丘县"},{"area_code":"周口市","code":"411624","name":"沈丘县"},{"area_code":"周口市","code":"411624","name":"沈丘县"},{"area_code":"周口市","code":"411624","name":"沈丘县"},{"area_code":"周口市","code":"411624","name":"沈丘县"},{"area_code":"周口市","code":"411627","name":"太康县"},{"area_code":"周口市","code":"411627","name":"太康县"},{"area_code":"周口市","code":"411627","name":"太康县"},{"area_code":"周口市","code":"411627","name":"太康县"},{"area_code":"周口市","code":"411622","name":"西华县"},{"area_code":"周口市","code":"411622","name":"西华县"},{"area_code":"周口市","code":"411622","name":"西华县"},{"area_code":"周口市","code":"411622","name":"西华县"},{"area_code":"周口市","code":"411622","name":"西华县"},{"area_code":"周口市","code":"411681","name":"项城市"},{"area_code":"周口市","code":"411681","name":"项城市"},{"area_code":"周口市","code":"411681","name":"项城市"},{"area_code":"周口市","code":"411681","name":"项城市"},{"area_code":"周口市","code":"411681","name":"项城市"},{"area_code":"周口市","code":"411681","name":"项城市"},{"area_code":"驻马店市","code":"411726","name":"泌阳县"},{"area_code":"驻马店市","code":"411726","name":"泌阳县"},{"area_code":"驻马店市","code":"411726","name":"泌阳县"},{"area_code":"驻马店市","code":"411723","name":"平舆县"},{"area_code":"驻马店市","code":"411723","name":"平舆县"},{"area_code":"驻马店市","code":"411723","name":"平舆县"},{"area_code":"驻马店市","code":"411723","name":"平舆县"},{"area_code":"驻马店市","code":"411725","name":"确山县"},{"area_code":"驻马店市","code":"411725","name":"确山县"},{"area_code":"驻马店市","code":"411727","name":"汝南县"},{"area_code":"驻马店市","code":"411727","name":"汝南县"},{"area_code":"驻马店市","code":"411727","name":"汝南县"},{"area_code":"驻马店市","code":"411722","name":"上蔡县"},{"area_code":"驻马店市","code":"411722","name":"上蔡县"},{"area_code":"驻马店市","code":"411722","name":"上蔡县"},{"area_code":"驻马店市","code":"411728","name":"遂平县"},{"area_code":"驻马店市","code":"411728","name":"遂平县"},{"area_code":"驻马店市","code":"411721","name":"西平县"},{"area_code":"驻马店市","code":"411721","name":"西平县"},{"area_code":"驻马店市","code":"411721","name":"西平县"},{"area_code":"驻马店市","code":"411729","name":"新蔡县"},{"area_code":"驻马店市","code":"411729","name":"新蔡县"},{"area_code":"驻马店市","code":"411729","name":"新蔡县"},{"area_code":"驻马店市","code":"411702","name":"驿城区"},{"area_code":"驻马店市","code":"411702","name":"驿城区"},{"area_code":"驻马店市","code":"411702","name":"驿城区"},{"area_code":"驻马店市","code":"411702","name":"驿城区"},{"area_code":"驻马店市","code":"411702","name":"驿城区"},{"area_code":"驻马店市","code":"411702","name":"驿城区"},{"area_code":"驻马店市","code":"411702","name":"驿城区"},{"area_code":"驻马店市","code":"411702","name":"驿城区"},{"area_code":"驻马店市","code":"411724","name":"正阳县"},{"area_code":"驻马店市","code":"411724","name":"正阳县"},{"area_code":"驻马店市","code":"411724","name":"正阳县"},{"area_code":"驻马店市","code":"411724","name":"正阳县"}]