[{"area_code":"市辖区","code":"310101","name":"黄浦区 "},{"area_code":"市辖区","code":"310101","name":"黄浦区 "},{"area_code":"市辖区","code":"310101","name":"黄浦区 "},{"area_code":"市辖区","code":"310101","name":"黄浦区 "},{"area_code":"市辖区","code":"310101","name":"黄浦区 "},{"area_code":"市辖区","code":"310101","name":"黄浦区 "},{"area_code":"市辖区","code":"310101","name":"黄浦区 "},{"area_code":"市辖区","code":"310101","name":"黄浦区 "},{"area_code":"市辖区","code":"310101","name":"黄浦区 "},{"area_code":"市辖区","code":"310101","name":"黄浦区 "},{"area_code":"市辖区","code":"310101","name":"黄浦区 "},{"area_code":"市辖区","code":"310101","name":"卢湾区 "},{"area_code":"市辖区","code":"310101","name":"卢湾区 "},{"area_code":"市辖区","code":"310101","name":"卢湾区 "},{"area_code":"市辖区","code":"310101","name":"卢湾区 "},{"area_code":"市辖区","code":"310101","name":"卢湾区 "},{"area_code":"市辖区","code":"310101","name":"卢湾区 "},{"area_code":"市辖区","code":"310101","name":"卢湾区 "},{"area_code":"市辖区","code":"310101","name":"卢湾区 "},{"area_code":"市辖区","code":"310101","name":"卢湾区 "},{"area_code":"市辖区","code":"310101","name":"卢湾区 "},{"area_code":"市辖区","code":"310101","name":"卢湾区 "},{"area_code":"市辖区","code":"310101","name":"卢湾区 "},{"area_code":"市辖区","code":"310101","name":"卢湾区 "},{"area_code":"市辖区","code":"310101","name":"卢湾区 "},{"area_code":"市辖区","code":"310104","name":"徐汇区 "},{"area_code":"市辖区","code":"310104","name":"徐汇区 "},{"area_code":"市辖区","code":"310104","name":"徐汇区 "},{"area_code":"市辖区","code":"310104","name":"徐汇区 "},{"area_code":"市辖区","code":"310104","name":"徐汇区 "},{"area_code":"市辖区","code":"310104","name":"徐汇区 "},{"area_code":"市辖区","code":"310104","name":"徐汇区 "},{"area_code":"市辖区","code":"310104","name":"徐汇区 "},{"area_code":"市辖区","code":"310104","name":"徐汇区 "},{"area_code":"市辖区","code":"310104","name":"徐汇区 "},{"area_code":"市辖区","code":"310104","name":"徐汇区 "},{"area_code":"市辖区","code":"310104","name":"徐汇区 "},{"area_code":"市辖区","code":"310104","name":"徐汇区 "},{"area_code":"市辖区","code":"310104","name":"徐汇区 "},{"area_code":"市辖区","code":"310104","name":"徐汇区 "},{"area_code":"市辖区","code":"310104","name":"徐汇区 "},{"area_code":"市辖区","code":"310104","name":"徐汇区 "},{"area_code":"市辖区","code":"310104","name":"徐汇区 "},{"area_code":"市辖区","code":"310104","name":"徐汇区 "},{"area_code":"市辖区","code":"310104","name":"徐汇区 "},{"area_code":"市辖区","code":"310104","name":"徐汇区 "},{"area_code":"市辖区","code":"310104","name":"徐汇区 "},{"area_code":"市辖区","code":"310104","name":"徐汇区 "},{"area_code":"市辖区","code":"310104","name":"徐汇区 "},{"area_code":"市辖区","code":"310104","name":"徐汇区 "},{"area_code":"市辖区","code":"310104","name":"徐汇区 "},{"area_code":"市辖区","code":"310104","name":"徐汇区 "},{"area_code":"市辖区","code":"310104","name":"徐汇区 "},{"area_code":"市辖区","code":"310104","name":"徐汇区 "},{"area_code":"市辖区","code":"310104","name":"徐汇区 "},{"area_code":"市辖区","code":"310104","name":"徐汇区 "},{"area_code":"市辖区","code":"310104","name":"徐汇区 "},{"area_code":"市辖区","code":"310104","name":"徐汇区 "},{"area_code":"市辖区","code":"310104","name":"徐汇区 "},{"area_code":"市辖区","code":"310104","name":"徐汇区 "},{"area_code":"市辖区","code":"310107","name":"普陀区 "},{"area_code":"市辖区","code":"310107","name":"普陀区 "},{"area_code":"市辖区","code":"310107","name":"普陀区 "},{"area_code":"市辖区","code":"310107","name":"普陀区 "},{"area_code":"市辖区","code":"310107","name":"普陀区 "},{"area_code":"市辖区","code":"310107","name":"普陀区 "},{"area_code":"市辖区","code":"310107","name":"普陀区 "},{"area_code":"市辖区","code":"310107","name":"普陀区 "},{"area_code":"市辖区","code":"310107","name":"普陀区 "},{"area_code":"市辖区","code":"310107","name":"普陀区 "},{"area_code":"市辖区","code":"310109","name":"虹口区 "},{"area_code":"市辖区","code":"310109","name":"虹口区 "},{"area_code":"市辖区","code":"310109","name":"虹口区 "},{"area_code":"市辖区","code":"310109","name":"虹口区 "},{"area_code":"市辖区","code":"310109","name":"虹口区 "},{"area_code":"市辖区","code":"310109","name":"虹口区 "},{"area_code":"市辖区","code":"310109","name":"虹口区 "},{"area_code":"市辖区","code":"310109","name":"虹口区 "},{"area_code":"市辖区","code":"310109","name":"虹口区 "},{"area_code":"市辖区","code":"310109","name":"虹口区 "},{"area_code":"市辖区","code":"310109","name":"虹口区 "},{"area_code":"市辖区","code":"310109","name":"虹口区 "},{"area_code":"市辖区","code":"310110","name":"杨浦区 "},{"area_code":"市辖区","code":"310110","name":"杨浦区 "},{"area_code":"市辖区","code":"310110","name":"杨浦区 "},{"area_code":"市辖区","code":"310110","name":"杨浦区 "},{"area_code":"市辖区","code":"310110","name":"杨浦区 "},{"area_code":"市辖区","code":"310110","name":"杨浦区 "},{"area_code":"市辖区","code":"310110","name":"杨浦区 "},{"area_code":"市辖区","code":"310110","name":"杨浦区 "},{"area_code":"市辖区","code":"310110","name":"杨浦区 "},{"area_code":"市辖区","code":"310110","name":"杨浦区 "},{"area_code":"市辖区","code":"310110","name":"杨浦区 "},{"area_code":"市辖区","code":"310110","name":"杨浦区 "},{"area_code":"市辖区","code":"310110","name":"杨浦区 "},{"area_code":"市辖区","code":"310110","name":"杨浦区 "},{"area_code":"市辖区","code":"310110","name":"杨浦区 "},{"area_code":"市辖区","code":"310110","name":"杨浦区 "},{"area_code":"市辖区","code":"310110","name":"杨浦区 "},{"area_code":"市辖区","code":"310112","name":"闵行区 "},{"area_code":"市辖区","code":"310112","name":"闵行区 "},{"area_code":"市辖区","code":"310112","name":"闵行区 "},{"area_code":"市辖区","code":"310112","name":"闵行区 "},{"area_code":"市辖区","code":"310112","name":"闵行区 "},{"area_code":"市辖区","code":"310112","name":"闵行区 "},{"area_code":"市辖区","code":"310112","name":"闵行区 "},{"area_code":"市辖区","code":"310112","name":"闵行区 "},{"area_code":"市辖区","code":"310112","name":"闵行区 "},{"area_code":"市辖区","code":"310112","name":"闵行区 "},{"area_code":"市辖区","code":"310112","name":"闵行区 "},{"area_code":"市辖区","code":"310112","name":"闵行区 "},{"area_code":"市辖区","code":"310112","name":"闵行区 "},{"area_code":"市辖区","code":"310112","name":"闵行区 "},{"area_code":"市辖区","code":"310112","name":"闵行区 "},{"area_code":"市辖区","code":"310113","name":"宝山区 "},{"area_code":"市辖区","code":"310113","name":"宝山区 "},{"area_code":"市辖区","code":"310113","name":"宝山区 "},{"area_code":"市辖区","code":"310113","name":"宝山区 "},{"area_code":"市辖区","code":"310113","name":"宝山区 "},{"area_code":"市辖区","code":"310113","name":"宝山区 "},{"area_code":"市辖区","code":"310113","name":"宝山区 "},{"area_code":"市辖区","code":"310113","name":"宝山区 "},{"area_code":"市辖区","code":"310113","name":"宝山区 "},{"area_code":"市辖区","code":"310113","name":"宝山区 "},{"area_code":"市辖区","code":"310114","name":"嘉定区 "},{"area_code":"市辖区","code":"310114","name":"嘉定区 "},{"area_code":"市辖区","code":"310114","name":"嘉定区 "},{"area_code":"市辖区","code":"310114","name":"嘉定区 "},{"area_code":"市辖区","code":"310114","name":"嘉定区 "},{"area_code":"市辖区","code":"310114","name":"嘉定区 "},{"area_code":"市辖区","code":"310114","name":"嘉定区 "},{"area_code":"市辖区","code":"310114","name":"嘉定区 "},{"area_code":"市辖区","code":"310114","name":"嘉定区 "},{"area_code":"市辖区","code":"310114","name":"嘉定区 "},{"area_code":"市辖区","code":"310114","name":"嘉定区 "},{"area_code":"市辖区","code":"310114","name":"嘉定区 "},{"area_code":"市辖区","code":"310114","name":"嘉定区 "},{"area_code":"市辖区","code":"310114","name":"嘉定区 "},{"area_code":"市辖区","code":"310114","name":"嘉定区 "},{"area_code":"市辖区","code":"310114","name":"嘉定区 "},{"area_code":"市辖区","code":"310114","name":"嘉定区 "},{"area_code":"市辖区","code":"310114","name":"嘉定区 "},{"area_code":"市辖区","code":"310114","name":"嘉定区 "},{"area_code":"市辖区","code":"310114","name":"嘉定区 "},{"area_code":"市辖区","code":"310114","name":"嘉定区 "},{"area_code":"市辖区","code":"310114","name":"嘉定区 "},{"area_code":"市辖区","code":"310114","name":"嘉定区 "},{"area_code":"市辖区","code":"310114","name":"嘉定区 "},{"area_code":"市辖区","code":"310114","name":"嘉定区 "},{"area_code":"市辖区","code":"310114","name":"嘉定区 "},{"area_code":"市辖区","code":"310114","name":"嘉定区 "},{"area_code":"市辖区","code":"310115","name":"浦东新区 "},{"area_code":"市辖区","code":"310115","name":"浦东新区 "},{"area_code":"市辖区","code":"310115","name":"浦东新区 "},{"area_code":"市辖区","code":"310115","name":"浦东新区 "},{"area_code":"市辖区","code":"310115","name":"浦东新区 "},{"area_code":"市辖区","code":"310115","name":"浦东新区 "},{"area_code":"市辖区","code":"310115","name":"浦东新区 "},{"area_code":"市辖区","code":"310115","name":"浦东新区 "},{"area_code":"市辖区","code":"310115","name":"浦东新区 "},{"area_code":"市辖区","code":"310115","name":"浦东新区 "},{"area_code":"市辖区","code":"310115","name":"浦东新区 "},{"area_code":"市辖区","code":"310115","name":"浦东新区 "},{"area_code":"市辖区","code":"310115","name":"浦东新区 "},{"area_code":"市辖区","code":"310115","name":"浦东新区 "},{"area_code":"市辖区","code":"310115","name":"浦东新区 "},{"area_code":"市辖区","code":"310115","name":"浦东新区 "},{"area_code":"市辖区","code":"310115","name":"浦东新区 "},{"area_code":"市辖区","code":"310115","name":"浦东新区 "},{"area_code":"市辖区","code":"310115","name":"浦东新区 "},{"area_code":"市辖区","code":"310115","name":"浦东新区 "},{"area_code":"市辖区","code":"310115","name":"浦东新区 "},{"area_code":"市辖区","code":"310115","name":"浦东新区 "},{"area_code":"市辖区","code":"310115","name":"浦东新区 "},{"area_code":"市辖区","code":"310115","name":"浦东新区 "},{"area_code":"市辖区","code":"310115","name":"浦东新区 "},{"area_code":"市辖区","code":"310115","name":"浦东新区 "},{"area_code":"市辖区","code":"310115","name":"浦东新区 "},{"area_code":"市辖区","code":"310115","name":"浦东新区 "},{"area_code":"市辖区","code":"310115","name":"浦东新区 "},{"area_code":"市辖区","code":"310115","name":"浦东新区 "},{"area_code":"市辖区","code":"310115","name":"浦东新区 "},{"area_code":"市辖区","code":"310115","name":"浦东新区 "},{"area_code":"市辖区","code":"310115","name":"浦东新区 "},{"area_code":"市辖区","code":"310115","name":"浦东新区 "},{"area_code":"市辖区","code":"310115","name":"浦东新区 "},{"area_code":"市辖区","code":"310115","name":"浦东新区 "},{"area_code":"市辖区","code":"310115","name":"浦东新区 "},{"area_code":"市辖区","code":"310116","name":"金山区 "},{"area_code":"市辖区","code":"310116","name":"金山区 "},{"area_code":"市辖区","code":"310116","name":"金山区 "},{"area_code":"市辖区","code":"310116","name":"金山区 "},{"area_code":"市辖区","code":"310116","name":"金山区 "},{"area_code":"市辖区","code":"310116","name":"金山区 "},{"area_code":"市辖区","code":"310116","name":"金山区 "},{"area_code":"市辖区","code":"310116","name":"金山区 "},{"area_code":"市辖区","code":"310117","name":"松江区 "},{"area_code":"市辖区","code":"310117","name":"松江区 "},{"area_code":"市辖区","code":"310117","name":"松江区 "},{"area_code":"市辖区","code":"310117","name":"松江区 "},{"area_code":"市辖区","code":"310117","name":"松江区 "},{"area_code":"市辖区","code":"310117","name":"松江区 "},{"area_code":"市辖区","code":"310117","name":"松江区 "},{"area_code":"市辖区","code":"310117","name":"松江区 "},{"area_code":"市辖区","code":"310117","name":"松江区 "},{"area_code":"市辖区","code":"310118","name":"青浦区 "},{"area_code":"市辖区","code":"310118","name":"青浦区 "},{"area_code":"市辖区","code":"310118","name":"青浦区 "},{"area_code":"市辖区","code":"310118","name":"青浦区 "},{"area_code":"市辖区","code":"310118","name":"青浦区 "},{"area_code":"市辖区","code":"310115","name":"南汇区 "},{"area_code":"市辖区","code":"310115","name":"南汇区 "},{"area_code":"市辖区","code":"310115","name":"南汇区 "},{"area_code":"市辖区","code":"310115","name":"南汇区 "},{"area_code":"市辖区","code":"310115","name":"南汇区 "},{"area_code":"市辖区","code":"310115","name":"南汇区 "},{"area_code":"市辖区","code":"310115","name":"南汇区 "},{"area_code":"市辖区","code":"310115","name":"南汇区 "},{"area_code":"市辖区","code":"310115","name":"南汇区 "},{"area_code":"市辖区","code":"310115","name":"南汇区 "},{"area_code":"市辖区","code":"310115","name":"南汇区 "},{"area_code":"市辖区","code":"310120","name":"奉贤区 "},{"area_code":"市辖区","code":"310120","name":"奉贤区 "},{"area_code":"市辖区","code":"310120","name":"奉贤区 "},{"area_code":"市辖区","code":"310120","name":"奉贤区 "},{"area_code":"市辖区","code":"310120","name":"奉贤区 "},{"area_code":"市辖区","code":"310120","name":"奉贤区 "},{"area_code":"市辖区","code":"310120","name":"奉贤区 "},{"area_code":"县","code":"310230","name":"崇明县 "},{"area_code":"县","code":"310230","name":"崇明县 "},{"area_code":"县","code":"310230","name":"崇明县 "},{"area_code":"县","code":"310230","name":"崇明县 "},{"area_code":"县","code":"310230","name":"崇明县 "},{"area_code":"县","code":"310230","name":"崇明县 "},{"area_code":"县","code":"310230","name":"崇明县 "},{"area_code":"县","code":"310230","name":"崇明县 "},{"area_code":"县","code":"","name":"崇明县 "},{"area_code":"县","code":"500236","name":"奉节县 "},{"area_code":"县","code":"500236","name":"奉节县 "},{"area_code":"县","code":"500237","name":"巫山县 "},{"area_code":"县","code":"500237","name":"巫山县 "},{"area_code":"县","code":"500237","name":"巫山县 "},{"area_code":"县","code":"500238","name":"巫溪县 "},{"area_code":"县","code":"500238","name":"巫溪县 "},{"area_code":"县","code":"500238","name":"巫溪县 "},{"area_code":"县","code":"500238","name":"巫溪县 "},{"area_code":"县","code":"500240","name":"石柱县 "},{"area_code":"县","code":"500240","name":"石柱县 "},{"area_code":"县","code":"500240","name":"石柱县 "},{"area_code":"县","code":"500241","name":"秀山县 "},{"area_code":"县","code":"500241","name":"秀山县 "},{"area_code":"县","code":"500242","name":"酉阳县 "},{"area_code":"县","code":"500242","name":"酉阳县 "},{"area_code":"县","code":"500242","name":"酉阳县 "},{"area_code":"县","code":"500242","name":"酉阳县 "},{"area_code":"县","code":"500243","name":"彭水县 "},{"area_code":"县","code":"500243","name":"彭水县 "},{"area_code":"岳阳市","code":"430611","name":"君山区 "},{"area_code":"岳阳市","code":"430621","name":"岳阳县 "},{"area_code":"岳阳市","code":"430621","name":"岳阳县 "},{"area_code":"岳阳市","code":"430621","name":"岳阳县 "},{"area_code":"岳阳市","code":"430621","name":"岳阳县 "},{"area_code":"岳阳市","code":"430623","name":"华容县 "},{"area_code":"岳阳市","code":"430623","name":"华容县 "},{"area_code":"岳阳市","code":"430623","name":"华容县 "},{"area_code":"岳阳市","code":"430623","name":"华容县 "},{"area_code":"岳阳市","code":"430623","name":"华容县 "},{"area_code":"岳阳市","code":"430624","name":"湘阴县 "},{"area_code":"岳阳市","code":"430624","name":"湘阴县 "},{"area_code":"岳阳市","code":"430624","name":"湘阴县 "},{"area_code":"岳阳市","code":"430624","name":"湘阴县 "},{"area_code":"岳阳市","code":"430624","name":"湘阴县 "},{"area_code":"岳阳市","code":"430624","name":"湘阴县 "},{"area_code":"岳阳市","code":"430626","name":"平江县 "},{"area_code":"岳阳市","code":"430626","name":"平江县 "},{"area_code":"岳阳市","code":"430626","name":"平江县 "},{"area_code":"岳阳市","code":"430626","name":"平江县 "},{"area_code":"岳阳市","code":"430626","name":"平江县 "},{"area_code":"岳阳市","code":"430681","name":"汨罗市 "},{"area_code":"岳阳市","code":"430681","name":"汨罗市 "},{"area_code":"岳阳市","code":"430681","name":"汨罗市 "},{"area_code":"岳阳市","code":"430681","name":"汨罗市 "},{"area_code":"岳阳市","code":"430681","name":"汨罗市 "},{"area_code":"岳阳市","code":"430682","name":"临湘市 "},{"area_code":"岳阳市","code":"430682","name":"临湘市 "},{"area_code":"岳阳市","code":"430682","name":"临湘市 "},{"area_code":"岳阳市","code":"430682","name":"临湘市 "},{"area_code":"岳阳市","code":"430681","name":"屈原管理区 "},{"area_code":"常德市","code":"430702","name":"武陵区 "},{"area_code":"常德市","code":"430702","name":"武陵区 "},{"area_code":"常德市","code":"430702","name":"武陵区 "},{"area_code":"常德市","code":"430702","name":"武陵区 "},{"area_code":"常德市","code":"430702","name":"武陵区 "},{"area_code":"常德市","code":"430702","name":"武陵区 "},{"area_code":"常德市","code":"430702","name":"武陵区 "},{"area_code":"常德市","code":"430702","name":"武陵区 "},{"area_code":"常德市","code":"430703","name":"鼎城区 "},{"area_code":"常德市","code":"430703","name":"鼎城区 "},{"area_code":"常德市","code":"430703","name":"鼎城区 "},{"area_code":"常德市","code":"430703","name":"鼎城区 "},{"area_code":"常德市","code":"430703","name":"鼎城区 "},{"area_code":"常德市","code":"430703","name":"鼎城区 "},{"area_code":"常德市","code":"430703","name":"鼎城区 "},{"area_code":"常德市","code":"430721","name":"安乡县 "},{"area_code":"常德市","code":"430721","name":"安乡县 "},{"area_code":"常德市","code":"430721","name":"安乡县 "},{"area_code":"常德市","code":"430721","name":"安乡县 "},{"area_code":"常德市","code":"430722","name":"汉寿县 "},{"area_code":"常德市","code":"430722","name":"汉寿县 "},{"area_code":"常德市","code":"430722","name":"汉寿县 "},{"area_code":"常德市","code":"430722","name":"汉寿县 "},{"area_code":"常德市","code":"430723","name":"澧县 "},{"area_code":"常德市","code":"430723","name":"澧县 "},{"area_code":"常德市","code":"430723","name":"澧县 "},{"area_code":"常德市","code":"430723","name":"澧县 "},{"area_code":"常德市","code":"430723","name":"澧县 "},{"area_code":"常德市","code":"430724","name":"临澧县 "},{"area_code":"常德市","code":"430724","name":"临澧县 "},{"area_code":"常德市","code":"430724","name":"临澧县 "},{"area_code":"常德市","code":"430725","name":"桃源县 "},{"area_code":"常德市","code":"430725","name":"桃源县 "},{"area_code":"常德市","code":"430725","name":"桃源县 "},{"area_code":"常德市","code":"430725","name":"桃源县 "},{"area_code":"常德市","code":"430725","name":"桃源县 "},{"area_code":"常德市","code":"430726","name":"石门县 "},{"area_code":"常德市","code":"430726","name":"石门县 "},{"area_code":"常德市","code":"430726","name":"石门县 "},{"area_code":"常德市","code":"430726","name":"石门县 "},{"area_code":"常德市","code":"430726","name":"石门县 "},{"area_code":"常德市","code":"430781","name":"津市市 "},{"area_code":"常德市","code":"430781","name":"津市市 "},{"area_code":"常德市","code":"430722","name":"西湖管理区 "},{"area_code":"常德市","code":"430802","name":"永定区 "},{"area_code":"常德市","code":"430802","name":"永定区 "},{"area_code":"常德市","code":"430802","name":"永定区 "},{"area_code":"常德市","code":"430811","name":"武陵源区 "},{"area_code":"常德市","code":"430822","name":"桑植县 "},{"area_code":"常德市","code":"430822","name":"桑植县 "},{"area_code":"常德市","code":"430822","name":"桑植县 "},{"area_code":"常德市","code":"430821","name":"慈利县 "},{"area_code":"常德市","code":"430821","name":"慈利县 "},{"area_code":"常德市","code":"430821","name":"慈利县 "},{"area_code":"常德市","code":"430821","name":"慈利县 "},{"area_code":"常德市","code":"430821","name":"慈利县 "},{"area_code":"益阳市","code":"430902","name":"资阳区 "},{"area_code":"益阳市","code":"430902","name":"资阳区 "},{"area_code":"益阳市","code":"430902","name":"资阳区 "},{"area_code":"益阳市","code":"430902","name":"资阳区 "},{"area_code":"益阳市","code":"430902","name":"资阳区 "},{"area_code":"益阳市","code":"430902","name":"资阳区 "},{"area_code":"益阳市","code":"430902","name":"资阳区 "},{"area_code":"益阳市","code":"430902","name":"资阳区 "},{"area_code":"益阳市","code":"430902","name":"资阳区 "},{"area_code":"益阳市","code":"430902","name":"资阳区 "},{"area_code":"益阳市","code":"430902","name":"资阳区 "},{"area_code":"益阳市","code":"430902","name":"资阳区 "},{"area_code":"益阳市","code":"430903","name":"赫山区 "},{"area_code":"益阳市","code":"430921","name":"南县 "},{"area_code":"益阳市","code":"430921","name":"南县 "},{"area_code":"益阳市","code":"430921","name":"南县 "},{"area_code":"益阳市","code":"430921","name":"南县 "},{"area_code":"益阳市","code":"430921","name":"南县 "},{"area_code":"益阳市","code":"430922","name":"桃江县 "},{"area_code":"益阳市","code":"430922","name":"桃江县 "},{"area_code":"益阳市","code":"430922","name":"桃江县 "},{"area_code":"益阳市","code":"430922","name":"桃江县 "},{"area_code":"益阳市","code":"430922","name":"桃江县 "},{"area_code":"益阳市","code":"430923","name":"安化县 "},{"area_code":"益阳市","code":"430923","name":"安化县 "},{"area_code":"益阳市","code":"430923","name":"安化县 "},{"area_code":"益阳市","code":"430923","name":"安化县 "},{"area_code":"益阳市","code":"430981","name":"沅江市 "},{"area_code":"益阳市","code":"430981","name":"沅江市 "},{"area_code":"益阳市","code":"430981","name":"沅江市 "},{"area_code":"益阳市","code":"430981","name":"沅江市 "},{"area_code":"益阳市","code":"430981","name":"沅江市 "},{"area_code":"益阳市","code":"430981","name":"沅江市 "},{"area_code":"郴州市","code":"431002","name":"北湖区 "},{"area_code":"郴州市","code":"431002","name":"北湖区 "},{"area_code":"郴州市","code":"431002","name":"北湖区 "},{"area_code":"郴州市","code":"431002","name":"北湖区 "},{"area_code":"郴州市","code":"431003","name":"苏仙区 "},{"area_code":"郴州市","code":"431003","name":"苏仙区 "},{"area_code":"郴州市","code":"431003","name":"苏仙区 "},{"area_code":"郴州市","code":"431003","name":"苏仙区 "},{"area_code":"郴州市","code":"431021","name":"桂阳县 "},{"area_code":"郴州市","code":"431021","name":"桂阳县 "},{"area_code":"郴州市","code":"431021","name":"桂阳县 "},{"area_code":"郴州市","code":"431022","name":"宜章县 "},{"area_code":"郴州市","code":"431022","name":"宜章县 "},{"area_code":"郴州市","code":"431022","name":"宜章县 "},{"area_code":"郴州市","code":"431023","name":"永兴县 "},{"area_code":"郴州市","code":"431023","name":"永兴县 "},{"area_code":"郴州市","code":"431023","name":"永兴县 "},{"area_code":"郴州市","code":"431023","name":"永兴县 "},{"area_code":"郴州市","code":"431024","name":"嘉禾县 "},{"area_code":"郴州市","code":"431025","name":"临武县 "},{"area_code":"郴州市","code":"431025","name":"临武县 "},{"area_code":"郴州市","code":"431026","name":"汝城县 "},{"area_code":"郴州市","code":"431026","name":"汝城县 "},{"area_code":"郴州市","code":"431027","name":"桂东县 "},{"area_code":"郴州市","code":"431028","name":"安仁县 "},{"area_code":"郴州市","code":"431028","name":"安仁县 "},{"area_code":"郴州市","code":"431081","name":"资兴市 "},{"area_code":"郴州市","code":"431081","name":"资兴市 "},{"area_code":"永州市","code":"431102","name":"零陵区 "},{"area_code":"永州市","code":"431102","name":"零陵区 "},{"area_code":"永州市","code":"431102","name":"零陵区 "},{"area_code":"永州市","code":"431102","name":"零陵区 "},{"area_code":"永州市","code":"431103","name":"冷水滩区 "},{"area_code":"永州市","code":"431103","name":"冷水滩区 "},{"area_code":"永州市","code":"431103","name":"冷水滩区 "},{"area_code":"永州市","code":"431103","name":"冷水滩区 "},{"area_code":"永州市","code":"431121","name":"祁阳县 "},{"area_code":"永州市","code":"431121","name":"祁阳县 "},{"area_code":"永州市","code":"431121","name":"祁阳县 "},{"area_code":"永州市","code":"431121","name":"祁阳县 "},{"area_code":"永州市","code":"431121","name":"祁阳县 "},{"area_code":"永州市","code":"431121","name":"祁阳县 "},{"area_code":"永州市","code":"431122","name":"东安县 "},{"area_code":"永州市","code":"431122","name":"东安县 "},{"area_code":"永州市","code":"431123","name":"双牌县 "},{"area_code":"永州市","code":"431124","name":"道县 "},{"area_code":"永州市","code":"431124","name":"道县 "},{"area_code":"永州市","code":"431124","name":"道县 "},{"area_code":"永州市","code":"431125","name":"江永县 "},{"area_code":"永州市","code":"431125","name":"江永县 "},{"area_code":"永州市","code":"431125","name":"江永县 "},{"area_code":"永州市","code":"431126","name":"宁远县 "},{"area_code":"永州市","code":"431126","name":"宁远县 "},{"area_code":"永州市","code":"431126","name":"宁远县 "},{"area_code":"永州市","code":"431128","name":"新田县 "},{"area_code":"永州市","code":"431128","name":"新田县 "},{"area_code":"永州市","code":"431127","name":"蓝山县 "},{"area_code":"永州市","code":"431127","name":"蓝山县 "},{"area_code":"永州市","code":"431129","name":"江华自治县 "},{"area_code":"永州市","code":"431129","name":"江华自治县 "},{"area_code":"永州市","code":"431129","name":"江华自治县 "},{"area_code":"怀化市","code":"431201","name":"市辖区 "},{"area_code":"怀化市","code":"431201","name":"市辖区 "},{"area_code":"怀化市","code":"431201","name":"市辖区 "},{"area_code":"怀化市","code":"431201","name":"市辖区 "},{"area_code":"怀化市","code":"431221","name":"中方县 "},{"area_code":"怀化市","code":"431221","name":"中方县 "},{"area_code":"怀化市","code":"431222","name":"沅陵县 "},{"area_code":"怀化市","code":"431222","name":"沅陵县 "},{"area_code":"怀化市","code":"431222","name":"沅陵县 "},{"area_code":"怀化市","code":"431222","name":"沅陵县 "},{"area_code":"怀化市","code":"431222","name":"沅陵县 "},{"area_code":"怀化市","code":"431223","name":"辰溪县 "},{"area_code":"怀化市","code":"431223","name":"辰溪县 "},{"area_code":"怀化市","code":"431224","name":"溆浦县 "},{"area_code":"怀化市","code":"431224","name":"溆浦县 "},{"area_code":"怀化市","code":"431224","name":"溆浦县 "},{"area_code":"怀化市","code":"431224","name":"溆浦县 "},{"area_code":"怀化市","code":"431224","name":"溆浦县 "},{"area_code":"怀化市","code":"431224","name":"溆浦县 "},{"area_code":"怀化市","code":"431224","name":"溆浦县 "},{"area_code":"怀化市","code":"431225","name":"会同县 "},{"area_code":"怀化市","code":"431225","name":"会同县 "},{"area_code":"怀化市","code":"431225","name":"会同县 "},{"area_code":"怀化市","code":"431226","name":"麻阳自治县 "},{"area_code":"怀化市","code":"431226","name":"麻阳自治县 "},{"area_code":"怀化市","code":"431226","name":"麻阳自治县 "},{"area_code":"怀化市","code":"431227","name":"新晃自治县 "},{"area_code":"怀化市","code":"431228","name":"芷江自治县 "},{"area_code":"怀化市","code":"431229","name":"靖州自治县 "},{"area_code":"怀化市","code":"431230","name":"通道自治县 "},{"area_code":"怀化市","code":"431230","name":"通道自治县 "},{"area_code":"怀化市","code":"431281","name":"洪江市 "},{"area_code":"怀化市","code":"431281","name":"洪江市 "},{"area_code":"怀化市","code":"431281","name":"洪江市 "},{"area_code":"怀化市","code":"431281","name":"洪江市 "},{"area_code":"怀化市","code":"431281","name":"洪江市 "},{"area_code":"娄底市","code":"431302","name":"娄星区 "},{"area_code":"娄底市","code":"431302","name":"娄星区 "},{"area_code":"娄底市","code":"431302","name":"娄星区 "},{"area_code":"娄底市","code":"431302","name":"娄星区 "},{"area_code":"娄底市","code":"431302","name":"娄星区 "},{"area_code":"娄底市","code":"431302","name":"娄星区 "},{"area_code":"娄底市","code":"431302","name":"娄星区 "},{"area_code":"娄底市","code":"431302","name":"娄星区 "},{"area_code":"娄底市","code":"431321","name":"双峰县 "},{"area_code":"娄底市","code":"431321","name":"双峰县 "},{"area_code":"娄底市","code":"431321","name":"双峰县 "},{"area_code":"娄底市","code":"431321","name":"双峰县 "},{"area_code":"娄底市","code":"431321","name":"双峰县 "},{"area_code":"娄底市","code":"431321","name":"双峰县 "},{"area_code":"娄底市","code":"431321","name":"双峰县 "},{"area_code":"娄底市","code":"431321","name":"双峰县 "},{"area_code":"娄底市","code":"431321","name":"双峰县 "},{"area_code":"娄底市","code":"431322","name":"新化县 "},{"area_code":"娄底市","code":"431322","name":"新化县 "},{"area_code":"娄底市","code":"431322","name":"新化县 "},{"area_code":"娄底市","code":"431322","name":"新化县 "},{"area_code":"娄底市","code":"431322","name":"新化县 "},{"area_code":"娄底市","code":"431322","name":"新化县 "},{"area_code":"娄底市","code":"431322","name":"新化县 "},{"area_code":"娄底市","code":"431322","name":"新化县 "},{"area_code":"娄底市","code":"431322","name":"新化县 "},{"area_code":"娄底市","code":"431381","name":"冷水江市 "},{"area_code":"娄底市","code":"431381","name":"冷水江市 "},{"area_code":"娄底市","code":"431381","name":"冷水江市 "},{"area_code":"娄底市","code":"431381","name":"冷水江市 "},{"area_code":"娄底市","code":"431382","name":"涟源市 "},{"area_code":"娄底市","code":"431382","name":"涟源市 "},{"area_code":"娄底市","code":"431382","name":"涟源市 "},{"area_code":"娄底市","code":"431382","name":"涟源市 "},{"area_code":"娄底市","code":"431382","name":"涟源市 "},{"area_code":"娄底市","code":"431382","name":"涟源市 "},{"area_code":"湘西土家族苗族自治州","code":"433101","name":"吉首市 "},{"area_code":"湘西土家族苗族自治州","code":"433101","name":"吉首市 "},{"area_code":"湘西土家族苗族自治州","code":"433101","name":"吉首市 "},{"area_code":"湘西土家族苗族自治州","code":"433101","name":"吉首市 "},{"area_code":"湘西土家族苗族自治州","code":"433101","name":"吉首市 "},{"area_code":"湘西土家族苗族自治州","code":"433122","name":"泸溪县 "},{"area_code":"湘西土家族苗族自治州","code":"433122","name":"泸溪县 "},{"area_code":"湘西土家族苗族自治州","code":"433122","name":"泸溪县 "},{"area_code":"湘西土家族苗族自治州","code":"433123","name":"凤凰县 "},{"area_code":"湘西土家族苗族自治州","code":"433123","name":"凤凰县 "},{"area_code":"湘西土家族苗族自治州","code":"433123","name":"凤凰县 "},{"area_code":"湘西土家族苗族自治州","code":"433124","name":"花垣县 "},{"area_code":"湘西土家族苗族自治州","code":"433124","name":"花垣县 "},{"area_code":"湘西土家族苗族自治州","code":"433125","name":"保靖县 "},{"area_code":"湘西土家族苗族自治州","code":"433126","name":"古丈县 "},{"area_code":"湘西土家族苗族自治州","code":"433127","name":"永顺县 "},{"area_code":"湘西土家族苗族自治州","code":"433127","name":"永顺县 "},{"area_code":"湘西土家族苗族自治州","code":"433127","name":"永顺县 "},{"area_code":"湘西土家族苗族自治州","code":"433127","name":"永顺县 "},{"area_code":"湘西土家族苗族自治州","code":"433130","name":"龙山县 "},{"area_code":"湘西土家族苗族自治州","code":"433130","name":"龙山县 "},{"area_code":"湘西土家族苗族自治州","code":"433130","name":"龙山县 "},{"area_code":"郑州市","code":"410103","name":"二七区"},{"area_code":"郑州市","code":"410103","name":"二七区"},{"area_code":"郑州市","code":"410181","name":"巩义市"},{"area_code":"郑州市","code":"410181","name":"巩义市"},{"area_code":"郑州市","code":"410181","name":"巩义市"},{"area_code":"郑州市","code":"410181","name":"巩义市"},{"area_code":"郑州市","code":"410181","name":"巩义市"},{"area_code":"郑州市","code":"410181","name":"巩义市"},{"area_code":"郑州市","code":"410181","name":"巩义市"},{"area_code":"郑州市","code":"410181","name":"巩义市"},{"area_code":"郑州市","code":"410181","name":"巩义市"},{"area_code":"郑州市","code":"410181","name":"巩义市"},{"area_code":"郑州市","code":"410104","name":"管城回族区"},{"area_code":"郑州市","code":"410104","name":"管城回族区"},{"area_code":"郑州市","code":"410104","name":"管城回族区"},{"area_code":"郑州市","code":"410104","name":"管城回族区"},{"area_code":"郑州市","code":"410108","name":"惠济区"},{"area_code":"郑州市","code":"410108","name":"惠济区"},{"area_code":"郑州市","code":"410105","name":"金水区"},{"area_code":"郑州市","code":"410105","name":"金水区"},{"area_code":"郑州市","code":"410105","name":"金水区"},{"area_code":"郑州市","code":"410105","name":"金水区"},{"area_code":"郑州市","code":"410105","name":"金水区"},{"area_code":"郑州市","code":"410105","name":"金水区"},{"area_code":"郑州市","code":"410105","name":"金水区"},{"area_code":"郑州市","code":"410105","name":"金水区"},{"area_code":"郑州市","code":"410105","name":"金水区"},{"area_code":"郑州市","code":"410105","name":"金水区"},{"area_code":"郑州市","code":"410105","name":"金水区"},{"area_code":"郑州市","code":"410105","name":"金水区"},{"area_code":"郑州市","code":"410105","name":"金水区"},{"area_code":"郑州市","code":"410105","name":"金水区"},{"area_code":"郑州市","code":"410105","name":"金水区"},{"area_code":"郑州市","code":"410105","name":"金水区"},{"area_code":"郑州市","code":"410105","name":"金水区"},{"area_code":"郑州市","code":"410105","name":"金水区"},{"area_code":"郑州市","code":"410105","name":"金水区"},{"area_code":"郑州市","code":"410105","name":"金水区"},{"area_code":"郑州市","code":"410106","name":"上街区"},{"area_code":"郑州市","code":"410106","name":"上街区"},{"area_code":"郑州市","code":"410101","name":"市辖区"},{"area_code":"郑州市","code":"410101","name":"市辖区"},{"area_code":"郑州市","code":"410183","name":"新密市"},{"area_code":"郑州市","code":"410183","name":"新密市"},{"area_code":"郑州市","code":"410183","name":"新密市"},{"area_code":"郑州市","code":"410183","name":"新密市"},{"area_code":"郑州市","code":"410184","name":"新郑市"},{"area_code":"郑州市","code":"410184","name":"新郑市"},{"area_code":"郑州市","code":"410184","name":"新郑市"},{"area_code":"郑州市","code":"410184","name":"新郑市"},{"area_code":"郑州市","code":"410184","name":"新郑市"},{"area_code":"郑州市","code":"410184","name":"新郑市"},{"area_code":"郑州市","code":"410184","name":"新郑市"},{"area_code":"郑州市","code":"410182","name":"荥阳市"},{"area_code":"郑州市","code":"410182","name":"荥阳市"},{"area_code":"郑州市","code":"410182","name":"荥阳市"},{"area_code":"郑州市","code":"410182","name":"荥阳市"},{"area_code":"郑州市","code":"410122","name":"中牟县"},{"area_code":"郑州市","code":"410122","name":"中牟县"},{"area_code":"郑州市","code":"410122","name":"中牟县"},{"area_code":"郑州市","code":"410102","name":"中原区"},{"area_code":"郑州市","code":"410102","name":"中原区"},{"area_code":"郑州市","code":"410102","name":"中原区"},{"area_code":"郑州市","code":"410102","name":"中原区"},{"area_code":"郑州市","code":"410102","name":"中原区"},{"area_code":"郑州市","code":"410102","name":"中原区"},{"area_code":"郑州市","code":"410102","name":"中原区"},{"area_code":"郑州市","code":"410102","name":"中原区"},{"area_code":"郑州市","code":"410102","name":"中原区"},{"area_code":"郑州市","code":"410102","name":"中原区"},{"area_code":"郑州市","code":"410102","name":"中原区"},{"area_code":"郑州市","code":"410102","name":"中原区"},{"area_code":"周口市","code":"411602","name":"川汇区"},{"area_code":"周口市","code":"411602","name":"川汇区"},{"area_code":"周口市","code":"411602","name":"川汇区"},{"area_code":"周口市","code":"411602","name":"川汇区"},{"area_code":"周口市","code":"411602","name":"川汇区"},{"area_code":"周口市","code":"411602","name":"川汇区"},{"area_code":"周口市","code":"411602","name":"川汇区"},{"area_code":"周口市","code":"411602","name":"川汇区"},{"area_code":"周口市","code":"411625","name":"郸城县"},{"area_code":"周口市","code":"411625","name":"郸城县"},{"area_code":"周口市","code":"411625","name":"郸城县"},{"area_code":"周口市","code":"411625","name":"郸城县"},{"area_code":"周口市","code":"411625","name":"郸城县"},{"area_code":"周口市","code":"411625","name":"郸城县"},{"area_code":"周口市","code":"411621","name":"扶沟县"},{"area_code":"周口市","code":"411621","name":"扶沟县"},{"area_code":"周口市","code":"411621","name":"扶沟县"},{"area_code":"周口市","code":"411621","name":"扶沟县"},{"area_code":"周口市","code":"411621","name":"扶沟县"},{"area_code":"周口市","code":"411621","name":"扶沟县"},{"area_code":"周口市","code":"411626","name":"淮阳县"},{"area_code":"周口市","code":"411626","name":"淮阳县"},{"area_code":"周口市","code":"411626","name":"淮阳县"},{"area_code":"周口市","code":"411626","name":"淮阳县"},{"area_code":"周口市","code":"411626","name":"淮阳县"},{"area_code":"周口市","code":"411626","name":"淮阳县"},{"area_code":"周口市","code":"411626","name":"淮阳县"},{"area_code":"周口市","code":"411628","name":"鹿邑县"},{"area_code":"周口市","code":"411628","name":"鹿邑县"},{"area_code":"周口市","code":"411628","name":"鹿邑县"},{"area_code":"周口市","code":"411628","name":"鹿邑县"},{"area_code":"周口市","code":"411628","name":"鹿邑县"},{"area_code":"周口市","code":"411623","name":"商水县"},{"area_code":"周口市","code":"411623","name":"商水县"},{"area_code":"周口市","code":"411623","name":"商水县"},{"area_code":"周口市","code":"411623","name":"商水县"},{"area_code":"周口市","code":"411624","name":"沈丘县"},{"area_code":"周口市","code":"411624","name":"沈丘县"},{"area_code":"周口市","code":"411624","name":"沈丘县"},{"area_code":"周口市","code":"411624","name":"沈丘县"},{"area_code":"周口市","code":"411624","name":"沈丘县"},{"area_code":"周口市","code":"411624","name":"沈丘县"},{"area_code":"周口市","code":"411624","name":"沈丘县"},{"area_code":"周口市","code":"411624","name":"沈丘县"},{"area_code":"周口市","code":"411624","name":"沈丘县"},{"area_code":"周口市","code":"411627","name":"太康县"},{"area_code":"周口市","code":"411627","name":"太康县"},{"area_code":"周口市","code":"411627","name":"太康县"},{"area_code":"周口市","code":"411627","name":"太康县"},{"area_code":"周口市","code":"411622","name":"西华县"},{"area_code":"周口市","code":"411622","name":"西华县"},{"area_code":"周口市","code":"411622","name":"西华县"},{"area_code":"周口市","code":"411622","name":"西华县"},{"area_code":"周口市","code":"411622","name":"西华县"},{"area_code":"周口市","code":"411681","name":"项城市"},{"area_code":"周口市","code":"411681","name":"项城市"},{"area_code":"周口市","code":"411681","name":"项城市"},{"area_code":"周口市","code":"411681","name":"项城市"},{"area_code":"周口市","code":"411681","name":"项城市"},{"area_code":"周口市","code":"411681","name":"项城市"},{"area_code":"驻马店市","code":"411726","name":"泌阳县"},{"area_code":"驻马店市","code":"411726","name":"泌阳县"},{"area_code":"驻马店市","code":"411726","name":"泌阳县"},{"area_code":"驻马店市","code":"411723","name":"平舆县"},{"area_code":"驻马店市","code":"411723","name":"平舆县"},{"area_code":"驻马店市","code":"411723","name":"平舆县"},{"area_code":"驻马店市","code":"411723","name":"平舆县"},{"area_code":"驻马店市","code":"411725","name":"确山县"},{"area_code":"驻马店市","code":"411725","name":"确山县"},{"area_code":"驻马店市","code":"411727","name":"汝南县"},{"area_code":"驻马店市","code":"411727","name":"汝南县"},{"area_code":"驻马店市","code":"411727","name":"汝南县"},{"area_code":"驻马店市","code":"411722","name":"上蔡县"},{"area_code":"驻马店市","code":"411722","name":"上蔡县"},{"area_code":"驻马店市","code":"411722","name":"上蔡县"},{"area_code":"驻马店市","code":"411728","name":"遂平县"},{"area_code":"驻马店市","code":"411728","name":"遂平县"},{"area_code":"驻马店市","code":"411721","name":"西平县"},{"area_code":"驻马店市","code":"411721","name":"西平县"},{"area_code":"驻马店市","code":"411721","name":"西平县"},{"area_code":"驻马店市","code":"411729","name":"新蔡县"},{"area_code":"驻马店市","code":"411729","name":"新蔡县"},{"area_code":"驻马店市","code":"411729","name":"新蔡县"},{"area_code":"驻马店市","code":"411702","name":"驿城区"},{"area_code":"驻马店市","code":"411702","name":"驿城区"},{"area_code":"驻马店市","code":"411702","name":"驿城区"},{"area_code":"驻马店市","code":"411702","name":"驿城区"},{"area_code":"驻马店市","code":"411702","name":"驿城区"},{"area_code":"驻马店市","code":"411702","name":"驿城区"},{"area_code":"驻马店市","code":"411702","name":"驿城区"},{"area_code":"驻马店市","code":"411702","name":"驿城区"},{"area_code":"驻马店市","code":"411724","name":"正阳县"},{"area_code":"驻马店市","code":"411724","name":"正阳县"},{"area_code":"驻马店市","code":"411724","name":"正阳县"},{"area_code":"驻马店市","code":"411724","name":"正阳县"}]