[{"area_code":"太原市","code":"140101","name":"市辖区"},{"area_code":"太原市","code":"140101","name":"市辖区"},{"area_code":"太原市","code":"140101","name":"市辖区"},{"area_code":"太原市","code":"140101","name":"市辖区"},{"area_code":"太原市","code":"140101","name":"市辖区"},{"area_code":"太原市","code":"140101","name":"市辖区"},{"area_code":"太原市","code":"140101","name":"市辖区"},{"area_code":"太原市","code":"140101","name":"市辖区"},{"area_code":"太原市","code":"140101","name":"市辖区"},{"area_code":"太原市","code":"140101","name":"市辖区"},{"area_code":"太原市","code":"140101","name":"市辖区"},{"area_code":"太原市","code":"140101","name":"市辖区"},{"area_code":"太原市","code":"140101","name":"市辖区"},{"area_code":"太原市","code":"140101","name":"市辖区"},{"area_code":"太原市","code":"140101","name":"市辖区"},{"area_code":"太原市","code":"140101","name":"市辖区"},{"area_code":"太原市","code":"140101","name":"市辖区"},{"area_code":"太原市","code":"140101","name":"市辖区"},{"area_code":"太原市","code":"140101","name":"市辖区"},{"area_code":"太原市","code":"140101","name":"市辖区"},{"area_code":"太原市","code":"140101","name":"市辖区"},{"area_code":"太原市","code":"140101","name":"市辖区"},{"area_code":"太原市","code":"140101","name":"市辖区"},{"area_code":"太原市","code":"140101","name":"市辖区"},{"area_code":"太原市","code":"140101","name":"市辖区"},{"area_code":"太原市","code":"140101","name":"市辖区"},{"area_code":"太原市","code":"140101","name":"市辖区"},{"area_code":"太原市","code":"140101","name":"市辖区"},{"area_code":"太原市","code":"140101","name":"市辖区"},{"area_code":"太原市","code":"140101","name":"市辖区"},{"area_code":"太原市","code":"140101","name":"市辖区"},{"area_code":"太原市","code":"140101","name":"市辖区"},{"area_code":"太原市","code":"140101","name":"市辖区"},{"area_code":"太原市","code":"140101","name":"市辖区"},{"area_code":"太原市","code":"140101","name":"市辖区"},{"area_code":"太原市","code":"140101","name":"市辖区"},{"area_code":"太原市","code":"140101","name":"市辖区"},{"area_code":"太原市","code":"140101","name":"市辖区"},{"area_code":"太原市","code":"140101","name":"市辖区"},{"area_code":"太原市","code":"140101","name":"市辖区"},{"area_code":"太原市","code":"140101","name":"市辖区"},{"area_code":"太原市","code":"140101","name":"市辖区"},{"area_code":"太原市","code":"140101","name":"市辖区"},{"area_code":"太原市","code":"140101","name":"市辖区"},{"area_code":"太原市","code":"140101","name":"市辖区"},{"area_code":"太原市","code":"140101","name":"市辖区"},{"area_code":"太原市","code":"140101","name":"市辖区"},{"area_code":"太原市","code":"140101","name":"市辖区"},{"area_code":"太原市","code":"140101","name":"市辖区"},{"area_code":"太原市","code":"140101","name":"市辖区"},{"area_code":"太原市","code":"140101","name":"市辖区"},{"area_code":"太原市","code":"140101","name":"市辖区"},{"area_code":"太原市","code":"140101","name":"市辖区"},{"area_code":"太原市","code":"140101","name":"市辖区"},{"area_code":"太原市","code":"140101","name":"市辖区"},{"area_code":"太原市","code":"140101","name":"市辖区"},{"area_code":"太原市","code":"140101","name":"市辖区"},{"area_code":"太原市","code":"140101","name":"市辖区"},{"area_code":"太原市","code":"140101","name":"市辖区"},{"area_code":"太原市","code":"140101","name":"市辖区"},{"area_code":"太原市","code":"140101","name":"市辖区"},{"area_code":"太原市","code":"140101","name":"市辖区"},{"area_code":"太原市","code":"140101","name":"市辖区"},{"area_code":"太原市","code":"140101","name":"市辖区"},{"area_code":"太原市","code":"140101","name":"市辖区"},{"area_code":"太原市","code":"140101","name":"市辖区"},{"area_code":"太原市","code":"140101","name":"市辖区"},{"area_code":"太原市","code":"140101","name":"市辖区"},{"area_code":"太原市","code":"140101","name":"市辖区"},{"area_code":"太原市","code":"140101","name":"市辖区"},{"area_code":"太原市","code":"140101","name":"市辖区"},{"area_code":"太原市","code":"140101","name":"市辖区"},{"area_code":"太原市","code":"140181","name":"古交市"},{"area_code":"太原市","code":"140181","name":"古交市"},{"area_code":"太原市","code":"140105","name":"小店区"},{"area_code":"太原市","code":"140105","name":"小店区"},{"area_code":"太原市","code":"140110","name":"晋源区"},{"area_code":"太原市","code":"140110","name":"晋源区"},{"area_code":"太原市","code":"140110","name":"晋源区"},{"area_code":"太原市","code":"140121","name":"清徐县"},{"area_code":"太原市","code":"140121","name":"清徐县"},{"area_code":"太原市","code":"140121","name":"清徐县"},{"area_code":"太原市","code":"140121","name":"清徐县"},{"area_code":"太原市","code":"140122","name":"阳曲县"},{"area_code":"太原市","code":"140123","name":"娄烦县"},{"area_code":"大同市","code":"140201","name":"市辖区"},{"area_code":"大同市","code":"140201","name":"市辖区"},{"area_code":"大同市","code":"140201","name":"市辖区"},{"area_code":"大同市","code":"140201","name":"市辖区"},{"area_code":"大同市","code":"140201","name":"市辖区"},{"area_code":"大同市","code":"140201","name":"市辖区"},{"area_code":"大同市","code":"140201","name":"市辖区"},{"area_code":"大同市","code":"140201","name":"市辖区"},{"area_code":"大同市","code":"140201","name":"市辖区"},{"area_code":"大同市","code":"140201","name":"市辖区"},{"area_code":"大同市","code":"140201","name":"市辖区"},{"area_code":"大同市","code":"140201","name":"市辖区"},{"area_code":"大同市","code":"140201","name":"市辖区"},{"area_code":"大同市","code":"140202","name":"城区"},{"area_code":"大同市","code":"140203","name":"矿区"},{"area_code":"大同市","code":"140203","name":"矿区"},{"area_code":"大同市","code":"140203","name":"矿区"},{"area_code":"大同市","code":"140203","name":"矿区"},{"area_code":"大同市","code":"140203","name":"矿区"},{"area_code":"大同市","code":"140203","name":"矿区"},{"area_code":"大同市","code":"140203","name":"矿区"},{"area_code":"大同市","code":"140203","name":"矿区"},{"area_code":"大同市","code":"140203","name":"矿区"},{"area_code":"大同市","code":"140203","name":"矿区"},{"area_code":"大同市","code":"140203","name":"矿区"},{"area_code":"大同市","code":"140203","name":"矿区"},{"area_code":"大同市","code":"140211","name":"南郊区"},{"area_code":"大同市","code":"140211","name":"南郊区"},{"area_code":"大同市","code":"140211","name":"南郊区"},{"area_code":"大同市","code":"140211","name":"南郊区"},{"area_code":"大同市","code":"140211","name":"南郊区"},{"area_code":"大同市","code":"140212","name":"新荣区"},{"area_code":"大同市","code":"140221","name":"阳高县"},{"area_code":"大同市","code":"140221","name":"阳高县"},{"area_code":"大同市","code":"140221","name":"阳高县"},{"area_code":"大同市","code":"140221","name":"阳高县"},{"area_code":"大同市","code":"140222","name":"天镇县"},{"area_code":"大同市","code":"140222","name":"天镇县"},{"area_code":"大同市","code":"140223","name":"广灵县"},{"area_code":"大同市","code":"140223","name":"广灵县"},{"area_code":"大同市","code":"140223","name":"广灵县"},{"area_code":"大同市","code":"140224","name":"灵丘县"},{"area_code":"大同市","code":"140224","name":"灵丘县"},{"area_code":"大同市","code":"140224","name":"灵丘县"},{"area_code":"大同市","code":"140225","name":"浑源县"},{"area_code":"大同市","code":"140225","name":"浑源县"},{"area_code":"大同市","code":"140225","name":"浑源县"},{"area_code":"大同市","code":"140226","name":"左云县"},{"area_code":"大同市","code":"140226","name":"左云县"},{"area_code":"大同市","code":"140226","name":"左云县"},{"area_code":"大同市","code":"140226","name":"左云县"},{"area_code":"大同市","code":"140227","name":"大同县"},{"area_code":"大同市","code":"140227","name":"大同县"},{"area_code":"大同市","code":"140227","name":"大同县"},{"area_code":"阳泉市","code":"140301","name":"市辖区 "},{"area_code":"阳泉市","code":"140301","name":"市辖区 "},{"area_code":"阳泉市","code":"140301","name":"市辖区 "},{"area_code":"阳泉市","code":"140301","name":"市辖区 "},{"area_code":"阳泉市","code":"140302","name":"城区"},{"area_code":"阳泉市","code":"140303","name":"矿区"},{"area_code":"阳泉市","code":"140303","name":"矿区"},{"area_code":"阳泉市","code":"140303","name":"矿区"},{"area_code":"阳泉市","code":"140303","name":"矿区"},{"area_code":"阳泉市","code":"140311","name":"郊区"},{"area_code":"阳泉市","code":"140311","name":"郊区"},{"area_code":"阳泉市","code":"140321","name":"平定县"},{"area_code":"阳泉市","code":"140321","name":"平定县"},{"area_code":"阳泉市","code":"140322","name":"盂县"},{"area_code":"阳泉市","code":"140322","name":"盂县"},{"area_code":"长治市","code":"140402","name":"城区"},{"area_code":"长治市","code":"140402","name":"城区"},{"area_code":"长治市","code":"140402","name":"城区"},{"area_code":"长治市","code":"140402","name":"城区"},{"area_code":"长治市","code":"140402","name":"城区"},{"area_code":"长治市","code":"140402","name":"城区"},{"area_code":"长治市","code":"140402","name":"城区"},{"area_code":"长治市","code":"140402","name":"城区"},{"area_code":"长治市","code":"140402","name":"城区"},{"area_code":"长治市","code":"140402","name":"城区"},{"area_code":"长治市","code":"140411","name":"郊区"},{"area_code":"长治市","code":"140411","name":"郊区"},{"area_code":"长治市","code":"140411","name":"郊区"},{"area_code":"长治市","code":"140411","name":"郊区"},{"area_code":"长治市","code":"140411","name":"郊区"},{"area_code":"长治市","code":"140411","name":"郊区"},{"area_code":"长治市","code":"140411","name":"郊区"},{"area_code":"长治市","code":"140411","name":"郊区"},{"area_code":"长治市","code":"140411","name":"郊区"},{"area_code":"长治市","code":"140411","name":"郊区"},{"area_code":"长治市","code":"140411","name":"郊区"},{"area_code":"长治市","code":"140421","name":"长治县"},{"area_code":"长治市","code":"140421","name":"长治县"},{"area_code":"长治市","code":"140421","name":"长治县"},{"area_code":"长治市","code":"140421","name":"长治县"},{"area_code":"长治市","code":"140423","name":"襄垣县"},{"area_code":"长治市","code":"140423","name":"襄垣县"},{"area_code":"长治市","code":"140423","name":"襄垣县"},{"area_code":"长治市","code":"140423","name":"襄垣县"},{"area_code":"长治市","code":"140424","name":"屯留县"},{"area_code":"长治市","code":"140425","name":"平顺县"},{"area_code":"长治市","code":"140426","name":"黎城县"},{"area_code":"长治市","code":"140427","name":"壶关县"},{"area_code":"长治市","code":"140427","name":"壶关县"},{"area_code":"长治市","code":"140427","name":"壶关县"},{"area_code":"长治市","code":"140427","name":"壶关县"},{"area_code":"长治市","code":"140428","name":"长子县"},{"area_code":"长治市","code":"140428","name":"长子县"},{"area_code":"长治市","code":"140428","name":"长子县"},{"area_code":"长治市","code":"140428","name":"长子县"},{"area_code":"长治市","code":"140429","name":"武乡县"},{"area_code":"长治市","code":"140430","name":"沁县"},{"area_code":"长治市","code":"140430","name":"沁县"},{"area_code":"长治市","code":"140430","name":"沁县"},{"area_code":"长治市","code":"140430","name":"沁县"},{"area_code":"长治市","code":"140431","name":"沁源县"},{"area_code":"长治市","code":"140481","name":"潞城市"},{"area_code":"长治市","code":"140481","name":"潞城市"},{"area_code":"长治市","code":"140481","name":"潞城市"},{"area_code":"长治市","code":"140481","name":"潞城市"},{"area_code":"晋城市","code":"140502","name":"城区"},{"area_code":"晋城市","code":"140502","name":"城区"},{"area_code":"晋城市","code":"140502","name":"城区"},{"area_code":"晋城市","code":"140502","name":"城区"},{"area_code":"晋城市","code":"140502","name":"城区"},{"area_code":"晋城市","code":"140502","name":"城区"},{"area_code":"晋城市","code":"140502","name":"城区"},{"area_code":"晋城市","code":"140502","name":"城区"},{"area_code":"晋城市","code":"140502","name":"城区"},{"area_code":"晋城市","code":"140521","name":"沁水县"},{"area_code":"晋城市","code":"140521","name":"沁水县"},{"area_code":"晋城市","code":"140522","name":"阳城县"},{"area_code":"晋城市","code":"140522","name":"阳城县"},{"area_code":"晋城市","code":"140522","name":"阳城县"},{"area_code":"晋城市","code":"140525","name":"泽州县"},{"area_code":"晋城市","code":"140525","name":"泽州县"},{"area_code":"晋城市","code":"140525","name":"泽州县"},{"area_code":"晋城市","code":"140525","name":"泽州县"},{"area_code":"晋城市","code":"140525","name":"泽州县"},{"area_code":"晋城市","code":"140525","name":"泽州县"},{"area_code":"晋城市","code":"140524","name":"陵川县"},{"area_code":"晋城市","code":"140524","name":"陵川县"},{"area_code":"晋城市","code":"140524","name":"陵川县"},{"area_code":"晋城市","code":"140524","name":"陵川县"},{"area_code":"晋城市","code":"140581","name":"高平市"},{"area_code":"晋城市","code":"140581","name":"高平市"},{"area_code":"晋城市","code":"140581","name":"高平市"},{"area_code":"晋城市","code":"140581","name":"高平市"},{"area_code":"晋城市","code":"140581","name":"高平市"},{"area_code":"晋城市","code":"140581","name":"高平市"},{"area_code":"晋城市","code":"140581","name":"高平市"},{"area_code":"朔州市","code":"140601","name":"市辖区"},{"area_code":"朔州市","code":"140601","name":"市辖区"},{"area_code":"朔州市","code":"140602","name":"朔城区"},{"area_code":"朔州市","code":"140602","name":"朔城区"},{"area_code":"朔州市","code":"140602","name":"朔城区"},{"area_code":"朔州市","code":"140602","name":"朔城区"},{"area_code":"朔州市","code":"140602","name":"朔城区"},{"area_code":"朔州市","code":"140602","name":"朔城区"},{"area_code":"朔州市","code":"140602","name":"朔城区"},{"area_code":"朔州市","code":"140603","name":"平鲁区"},{"area_code":"朔州市","code":"140621","name":"山阴县"},{"area_code":"朔州市","code":"140621","name":"山阴县"},{"area_code":"朔州市","code":"140623","name":"右玉县"},{"area_code":"朔州市","code":"140622","name":"应县"},{"area_code":"朔州市","code":"140622","name":"应县"},{"area_code":"朔州市","code":"140622","name":"应县"},{"area_code":"朔州市","code":"140624","name":"怀仁县"},{"area_code":"朔州市","code":"140624","name":"怀仁县"},{"area_code":"朔州市","code":"140624","name":"怀仁县"},{"area_code":"朔州市","code":"140624","name":"怀仁县"},{"area_code":"晋中市","code":"140702","name":"榆次区"},{"area_code":"晋中市","code":"140702","name":"榆次区"},{"area_code":"晋中市","code":"140702","name":"榆次区"},{"area_code":"晋中市","code":"140702","name":"榆次区"},{"area_code":"晋中市","code":"140702","name":"榆次区"},{"area_code":"晋中市","code":"140702","name":"榆次区"},{"area_code":"晋中市","code":"140702","name":"榆次区"},{"area_code":"晋中市","code":"140702","name":"榆次区"},{"area_code":"晋中市","code":"140702","name":"榆次区"},{"area_code":"晋中市","code":"140702","name":"榆次区"},{"area_code":"晋中市","code":"140702","name":"榆次区"},{"area_code":"晋中市","code":"140702","name":"榆次区"},{"area_code":"晋中市","code":"140702","name":"榆次区"},{"area_code":"晋中市","code":"140721","name":"榆社县"},{"area_code":"晋中市","code":"140722","name":"左权县"},{"area_code":"晋中市","code":"140723","name":"和顺县"},{"area_code":"晋中市","code":"140724","name":"昔阳县"},{"area_code":"晋中市","code":"140724","name":"昔阳县"},{"area_code":"晋中市","code":"140724","name":"昔阳县"},{"area_code":"晋中市","code":"140725","name":"寿阳县  "},{"area_code":"晋中市","code":"140725","name":"寿阳县  "},{"area_code":"晋中市","code":"140725","name":"寿阳县  "},{"area_code":"晋中市","code":"140726","name":"太谷县"},{"area_code":"晋中市","code":"140726","name":"太谷县"},{"area_code":"晋中市","code":"140726","name":"太谷县"},{"area_code":"晋中市","code":"140726","name":"太谷县"},{"area_code":"晋中市","code":"140726","name":"太谷县"},{"area_code":"晋中市","code":"140726","name":"太谷县"},{"area_code":"晋中市","code":"140727","name":"祁县"},{"area_code":"晋中市","code":"140727","name":"祁县"},{"area_code":"晋中市","code":"140727","name":"祁县"},{"area_code":"晋中市","code":"140728","name":"平遥县"},{"area_code":"晋中市","code":"140728","name":"平遥县"},{"area_code":"晋中市","code":"140728","name":"平遥县"},{"area_code":"晋中市","code":"140728","name":"平遥县"},{"area_code":"晋中市","code":"140728","name":"平遥县"},{"area_code":"晋中市","code":"140728","name":"平遥县"},{"area_code":"晋中市","code":"140728","name":"平遥县"},{"area_code":"晋中市","code":"140729","name":"灵石县"},{"area_code":"晋中市","code":"140729","name":"灵石县"},{"area_code":"晋中市","code":"140781","name":"介休市"},{"area_code":"晋中市","code":"140781","name":"介休市"},{"area_code":"晋中市","code":"140781","name":"介休市"},{"area_code":"晋中市","code":"140781","name":"介休市"},{"area_code":"晋中市","code":"140781","name":"介休市"},{"area_code":"运城市","code":"140801","name":"市辖区"},{"area_code":"运城市","code":"140801","name":"市辖区"},{"area_code":"运城市","code":"140802","name":"盐湖区"},{"area_code":"运城市","code":"140802","name":"盐湖区"},{"area_code":"运城市","code":"140802","name":"盐湖区"},{"area_code":"运城市","code":"140802","name":"盐湖区"},{"area_code":"运城市","code":"140802","name":"盐湖区"},{"area_code":"运城市","code":"140802","name":"盐湖区"},{"area_code":"运城市","code":"140802","name":"盐湖区"},{"area_code":"运城市","code":"140802","name":"盐湖区"},{"area_code":"运城市","code":"140802","name":"盐湖区"},{"area_code":"运城市","code":"140802","name":"盐湖区"},{"area_code":"运城市","code":"140802","name":"盐湖区"},{"area_code":"运城市","code":"140802","name":"盐湖区"},{"area_code":"运城市","code":"140802","name":"盐湖区"},{"area_code":"运城市","code":"140802","name":"盐湖区"},{"area_code":"运城市","code":"140802","name":"盐湖区"},{"area_code":"运城市","code":"140802","name":"盐湖区"},{"area_code":"运城市","code":"140802","name":"盐湖区"},{"area_code":"运城市","code":"140802","name":"盐湖区"},{"area_code":"运城市","code":"140821","name":"临猗县"},{"area_code":"运城市","code":"140821","name":"临猗县"},{"area_code":"运城市","code":"140821","name":"临猗县"},{"area_code":"运城市","code":"140821","name":"临猗县"},{"area_code":"运城市","code":"140821","name":"临猗县"},{"area_code":"运城市","code":"140821","name":"临猗县"},{"area_code":"运城市","code":"140821","name":"临猗县"},{"area_code":"运城市","code":"140821","name":"临猗县"},{"area_code":"运城市","code":"140821","name":"临猗县"},{"area_code":"运城市","code":"140822","name":"万荣县"},{"area_code":"运城市","code":"140822","name":"万荣县"},{"area_code":"运城市","code":"140822","name":"万荣县"},{"area_code":"运城市","code":"140822","name":"万荣县"},{"area_code":"运城市","code":"140822","name":"万荣县"},{"area_code":"运城市","code":"140822","name":"万荣县"},{"area_code":"运城市","code":"140822","name":"万荣县"},{"area_code":"运城市","code":"140822","name":"万荣县"},{"area_code":"运城市","code":"140822","name":"万荣县"},{"area_code":"运城市","code":"140823","name":"闻喜县"},{"area_code":"运城市","code":"140823","name":"闻喜县"},{"area_code":"运城市","code":"140823","name":"闻喜县"},{"area_code":"运城市","code":"140823","name":"闻喜县"},{"area_code":"运城市","code":"140823","name":"闻喜县"},{"area_code":"运城市","code":"140824","name":"稷山县"},{"area_code":"运城市","code":"140824","name":"稷山县"},{"area_code":"运城市","code":"140824","name":"稷山县"},{"area_code":"运城市","code":"140825","name":"新绛县"},{"area_code":"运城市","code":"140825","name":"新绛县"},{"area_code":"运城市","code":"140825","name":"新绛县"},{"area_code":"运城市","code":"140825","name":"新绛县"},{"area_code":"运城市","code":"140825","name":"新绛县"},{"area_code":"运城市","code":"140825","name":"新绛县"},{"area_code":"运城市","code":"140826","name":"绛县"},{"area_code":"运城市","code":"140826","name":"绛县"},{"area_code":"运城市","code":"140826","name":"绛县"},{"area_code":"运城市","code":"140827","name":"垣曲县"},{"area_code":"运城市","code":"140827","name":"垣曲县"},{"area_code":"运城市","code":"140827","name":"垣曲县"},{"area_code":"运城市","code":"140827","name":"垣曲县"},{"area_code":"运城市","code":"140828","name":"夏县"},{"area_code":"运城市","code":"140828","name":"夏县"},{"area_code":"运城市","code":"140828","name":"夏县"},{"area_code":"运城市","code":"140829","name":"平陆县"},{"area_code":"运城市","code":"140829","name":"平陆县"},{"area_code":"运城市","code":"140829","name":"平陆县"},{"area_code":"运城市","code":"140830","name":"芮城县"},{"area_code":"运城市","code":"140830","name":"芮城县"},{"area_code":"运城市","code":"140830","name":"芮城县"},{"area_code":"运城市","code":"140830","name":"芮城县"},{"area_code":"运城市","code":"140830","name":"芮城县"},{"area_code":"运城市","code":"140830","name":"芮城县"},{"area_code":"运城市","code":"140881","name":"永济市"},{"area_code":"运城市","code":"140881","name":"永济市"},{"area_code":"运城市","code":"140881","name":"永济市"},{"area_code":"运城市","code":"140881","name":"永济市"},{"area_code":"运城市","code":"140881","name":"永济市"},{"area_code":"运城市","code":"140881","name":"永济市"},{"area_code":"运城市","code":"140881","name":"永济市"},{"area_code":"运城市","code":"140882","name":"河津市"},{"area_code":"运城市","code":"140882","name":"河津市"},{"area_code":"运城市","code":"140882","name":"河津市"},{"area_code":"运城市","code":"140882","name":"河津市"},{"area_code":"运城市","code":"140882","name":"河津市"},{"area_code":"运城市","code":"140882","name":"河津市"},{"area_code":"忻州市","code":"140901","name":"市辖区"},{"area_code":"忻州市","code":"140901","name":"市辖区"},{"area_code":"忻州市","code":"140901","name":"市辖区"},{"area_code":"忻州市","code":"140901","name":"市辖区"},{"area_code":"忻州市","code":"140901","name":"市辖区"},{"area_code":"忻州市","code":"140902","name":"忻府区  "},{"area_code":"忻州市","code":"140902","name":"忻府区  "},{"area_code":"忻州市","code":"140902","name":"忻府区  "},{"area_code":"忻州市","code":"140921","name":"定襄县"},{"area_code":"忻州市","code":"140921","name":"定襄县"},{"area_code":"忻州市","code":"140921","name":"定襄县"},{"area_code":"忻州市","code":"140921","name":"定襄县"},{"area_code":"忻州市","code":"140922","name":"五台县"},{"area_code":"忻州市","code":"140922","name":"五台县"},{"area_code":"忻州市","code":"140922","name":"五台县"},{"area_code":"忻州市","code":"140922","name":"五台县"},{"area_code":"忻州市","code":"140922","name":"五台县"},{"area_code":"忻州市","code":"140922","name":"五台县"},{"area_code":"忻州市","code":"140923","name":"代县  "},{"area_code":"忻州市","code":"140923","name":"代县  "},{"area_code":"忻州市","code":"140924","name":"繁峙县"},{"area_code":"忻州市","code":"140924","name":"繁峙县"},{"area_code":"忻州市","code":"140924","name":"繁峙县"},{"area_code":"忻州市","code":"140925","name":"宁武县"},{"area_code":"忻州市","code":"140925","name":"宁武县"},{"area_code":"忻州市","code":"140926","name":"静乐县"},{"area_code":"忻州市","code":"140926","name":"静乐县"},{"area_code":"忻州市","code":"140927","name":"神池县"},{"area_code":"忻州市","code":"140927","name":"神池县"},{"area_code":"忻州市","code":"140928","name":"五寨县"},{"area_code":"忻州市","code":"140928","name":"五寨县"},{"area_code":"忻州市","code":"140929","name":"岢岚县"},{"area_code":"忻州市","code":"140930","name":"河曲县"},{"area_code":"忻州市","code":"140930","name":"河曲县"},{"area_code":"忻州市","code":"140930","name":"河曲县"},{"area_code":"忻州市","code":"140931","name":"保德县"},{"area_code":"忻州市","code":"140932","name":"偏关县"},{"area_code":"忻州市","code":"140932","name":"偏关县"},{"area_code":"忻州市","code":"140981","name":"原平市"},{"area_code":"忻州市","code":"140981","name":"原平市"},{"area_code":"忻州市","code":"140981","name":"原平市"},{"area_code":"忻州市","code":"140981","name":"原平市"},{"area_code":"忻州市","code":"140981","name":"原平市"},{"area_code":"忻州市","code":"140981","name":"原平市"},{"area_code":"忻州市","code":"140981","name":"原平市"},{"area_code":"忻州市","code":"140981","name":"原平市"},{"area_code":"忻州市","code":"140981","name":"原平市"},{"area_code":"临汾市","code":"141001","name":"市辖区"},{"area_code":"临汾市","code":"141001","name":"市辖区"},{"area_code":"临汾市","code":"141001","name":"市辖区"},{"area_code":"临汾市","code":"141001","name":"市辖区"},{"area_code":"临汾市","code":"141001","name":"市辖区"},{"area_code":"临汾市","code":"141001","name":"市辖区"},{"area_code":"临汾市","code":"141001","name":"市辖区"},{"area_code":"临汾市","code":"141001","name":"市辖区"},{"area_code":"临汾市","code":"141001","name":"市辖区"},{"area_code":"临汾市","code":"141001","name":"市辖区"},{"area_code":"临汾市","code":"141001","name":"市辖区"},{"area_code":"临汾市","code":"141001","name":"市辖区"},{"area_code":"临汾市","code":"141001","name":"市辖区"},{"area_code":"临汾市","code":"141001","name":"市辖区"},{"area_code":"临汾市","code":"141001","name":"市辖区"},{"area_code":"临汾市","code":"141001","name":"市辖区"},{"area_code":"临汾市","code":"141001","name":"市辖区"},{"area_code":"临汾市","code":"141001","name":"市辖区"},{"area_code":"临汾市","code":"141001","name":"市辖区"},{"area_code":"临汾市","code":"141001","name":"市辖区"},{"area_code":"临汾市","code":"141001","name":"市辖区"},{"area_code":"临汾市","code":"141001","name":"市辖区"},{"area_code":"临汾市","code":"141001","name":"市辖区"},{"area_code":"临汾市","code":"141001","name":"市辖区"},{"area_code":"临汾市","code":"141001","name":"市辖区"},{"area_code":"临汾市","code":"141001","name":"市辖区"},{"area_code":"临汾市","code":"141001","name":"市辖区"},{"area_code":"临汾市","code":"141021","name":"曲沃县"},{"area_code":"临汾市","code":"141021","name":"曲沃县"},{"area_code":"临汾市","code":"141021","name":"曲沃县"},{"area_code":"临汾市","code":"141022","name":"翼城县"},{"area_code":"临汾市","code":"141022","name":"翼城县"},{"area_code":"临汾市","code":"141022","name":"翼城县"},{"area_code":"临汾市","code":"141022","name":"翼城县"},{"area_code":"临汾市","code":"141023","name":"襄汾县"},{"area_code":"临汾市","code":"141023","name":"襄汾县"},{"area_code":"临汾市","code":"141023","name":"襄汾县"},{"area_code":"临汾市","code":"141023","name":"襄汾县"},{"area_code":"临汾市","code":"141023","name":"襄汾县"},{"area_code":"临汾市","code":"141023","name":"襄汾县"},{"area_code":"临汾市","code":"141023","name":"襄汾县"},{"area_code":"临汾市","code":"141023","name":"襄汾县"},{"area_code":"临汾市","code":"141023","name":"襄汾县"},{"area_code":"临汾市","code":"141024","name":"洪洞县"},{"area_code":"临汾市","code":"141024","name":"洪洞县"},{"area_code":"临汾市","code":"141024","name":"洪洞县"},{"area_code":"临汾市","code":"141024","name":"洪洞县"},{"area_code":"临汾市","code":"141024","name":"洪洞县"},{"area_code":"临汾市","code":"141024","name":"洪洞县"},{"area_code":"临汾市","code":"141024","name":"洪洞县"},{"area_code":"临汾市","code":"141024","name":"洪洞县"},{"area_code":"临汾市","code":"141024","name":"洪洞县"},{"area_code":"临汾市","code":"141024","name":"洪洞县"},{"area_code":"临汾市","code":"141024","name":"洪洞县"},{"area_code":"临汾市","code":"141024","name":"洪洞县"},{"area_code":"临汾市","code":"141024","name":"洪洞县"},{"area_code":"临汾市","code":"141025","name":"古县"},{"area_code":"临汾市","code":"141025","name":"古县"},{"area_code":"临汾市","code":"141026","name":"安泽县"},{"area_code":"临汾市","code":"141027","name":"浮山县"},{"area_code":"临汾市","code":"141028","name":"吉县"},{"area_code":"临汾市","code":"141029","name":"乡宁县"},{"area_code":"临汾市","code":"141029","name":"乡宁县"},{"area_code":"临汾市","code":"141030","name":"大宁县"},{"area_code":"临汾市","code":"141031","name":"隰县"},{"area_code":"临汾市","code":"141032","name":"永和县"},{"area_code":"临汾市","code":"141033","name":"蒲县"},{"area_code":"临汾市","code":"141034","name":"汾西县"},{"area_code":"临汾市","code":"141034","name":"汾西县"},{"area_code":"临汾市","code":"141034","name":"汾西县"},{"area_code":"临汾市","code":"141081","name":"侯马市"},{"area_code":"临汾市","code":"141081","name":"侯马市"},{"area_code":"临汾市","code":"141081","name":"侯马市"},{"area_code":"临汾市","code":"141081","name":"侯马市"},{"area_code":"临汾市","code":"141082","name":"霍州市  "},{"area_code":"临汾市","code":"141082","name":"霍州市  "},{"area_code":"临汾市","code":"141082","name":"霍州市  "},{"area_code":"临汾市","code":"141082","name":"霍州市  "},{"area_code":"吕梁市","code":"141101","name":"市辖区"},{"area_code":"吕梁市","code":"141101","name":"市辖区"},{"area_code":"吕梁市","code":"141101","name":"市辖区"},{"area_code":"吕梁市","code":"141101","name":"市辖区"},{"area_code":"吕梁市","code":"141101","name":"市辖区"},{"area_code":"吕梁市","code":"141101","name":"市辖区"},{"area_code":"吕梁市","code":"141121","name":"文水县"},{"area_code":"吕梁市","code":"141121","name":"文水县"},{"area_code":"吕梁市","code":"141121","name":"文水县"},{"area_code":"吕梁市","code":"141121","name":"文水县"},{"area_code":"吕梁市","code":"141121","name":"文水县"},{"area_code":"吕梁市","code":"141121","name":"文水县"},{"area_code":"吕梁市","code":"141121","name":"文水县"},{"area_code":"吕梁市","code":"141121","name":"文水县"},{"area_code":"吕梁市","code":"141121","name":"文水县"},{"area_code":"吕梁市","code":"141122","name":"交城县"},{"area_code":"吕梁市","code":"141122","name":"交城县"},{"area_code":"吕梁市","code":"141122","name":"交城县"},{"area_code":"吕梁市","code":"141123","name":"兴县"},{"area_code":"吕梁市","code":"141123","name":"兴县"},{"area_code":"吕梁市","code":"141123","name":"兴县"},{"area_code":"吕梁市","code":"141123","name":"兴县"},{"area_code":"吕梁市","code":"141123","name":"兴县"},{"area_code":"吕梁市","code":"141123","name":"兴县"},{"area_code":"吕梁市","code":"141123","name":"兴县"},{"area_code":"吕梁市","code":"141124","name":"临县"},{"area_code":"吕梁市","code":"141124","name":"临县"},{"area_code":"吕梁市","code":"141124","name":"临县"},{"area_code":"吕梁市","code":"141125","name":"柳林县"},{"area_code":"吕梁市","code":"141125","name":"柳林县"},{"area_code":"吕梁市","code":"141125","name":"柳林县"},{"area_code":"吕梁市","code":"141125","name":"柳林县"},{"area_code":"吕梁市","code":"141125","name":"柳林县"},{"area_code":"吕梁市","code":"141126","name":"石楼县"},{"area_code":"吕梁市","code":"141126","name":"石楼县"},{"area_code":"吕梁市","code":"141127","name":"岚县"},{"area_code":"吕梁市","code":"141128","name":"方山县"},{"area_code":"吕梁市","code":"141129","name":"中阳县"},{"area_code":"吕梁市","code":"141130","name":"交口县"},{"area_code":"吕梁市","code":"141181","name":"孝义市"},{"area_code":"吕梁市","code":"141181","name":"孝义市"},{"area_code":"吕梁市","code":"141181","name":"孝义市"},{"area_code":"吕梁市","code":"141181","name":"孝义市"},{"area_code":"吕梁市","code":"141181","name":"孝义市"},{"area_code":"吕梁市","code":"141181","name":"孝义市"},{"area_code":"吕梁市","code":"141181","name":"孝义市"},{"area_code":"吕梁市","code":"141181","name":"孝义市"},{"area_code":"吕梁市","code":"141182","name":"汾阳市"},{"area_code":"吕梁市","code":"141182","name":"汾阳市"},{"area_code":"吕梁市","code":"141182","name":"汾阳市"},{"area_code":"吕梁市","code":"141182","name":"汾阳市"},{"area_code":"吕梁市","code":"141182","name":"汾阳市"}]