[{"area_code":"台北市","code":"710000","name":"北投区"},{"area_code":"台北市","code":"710000","name":"北投区"},{"area_code":"台北市","code":"710000","name":"北投区"},{"area_code":"台北市","code":"710000","name":"北投区"},{"area_code":"台北市","code":"710000","name":"成功路"},{"area_code":"台北市","code":"710000","name":"大安区"},{"area_code":"台北市","code":"710000","name":"大安区"},{"area_code":"台北市","code":"710000","name":"大安区"},{"area_code":"台北市","code":"710000","name":"大安区"},{"area_code":"台北市","code":"710000","name":"大同区"},{"area_code":"台北市","code":"710000","name":"大同区"},{"area_code":"台北市","code":"710000","name":"南港区"},{"area_code":"台北市","code":"710000","name":"内湖区"},{"area_code":"台北市","code":"710000","name":"内湖区"},{"area_code":"台北市","code":"710000","name":"内湖区"},{"area_code":"台北市","code":"710000","name":"宁夏路"},{"area_code":"台北市","code":"710000","name":"士林区"},{"area_code":"台北市","code":"710000","name":"士林区"},{"area_code":"台北市","code":"710000","name":"士林区"},{"area_code":"台北市","code":"710000","name":"士林区"},{"area_code":"台北市","code":"710000","name":"士林区"},{"area_code":"台北市","code":"710000","name":"松山区"},{"area_code":"台北市","code":"710000","name":"松山区"},{"area_code":"台北市","code":"710000","name":"台北县"},{"area_code":"台北市","code":"710000","name":"台北县"},{"area_code":"台北市","code":"710000","name":"台北县"},{"area_code":"台北市","code":"710000","name":"台北县"},{"area_code":"台北市","code":"710000","name":"台北县"},{"area_code":"台北市","code":"710000","name":"台北县"},{"area_code":"台北市","code":"710000","name":"台北县"},{"area_code":"台北市","code":"710000","name":"台北县"},{"area_code":"台北市","code":"710000","name":"万华区"},{"area_code":"台北市","code":"710000","name":"文山区"},{"area_code":"台北市","code":"710000","name":"文山区"},{"area_code":"台北市","code":"710000","name":"文山区"},{"area_code":"台北市","code":"710000","name":"文山区"},{"area_code":"台北市","code":"710000","name":"文山区"},{"area_code":"台北市","code":"710000","name":"文山区"},{"area_code":"台北市","code":"710000","name":"文山区"},{"area_code":"台北市","code":"710000","name":"信义区"},{"area_code":"台北市","code":"710000","name":"信义区"},{"area_code":"台北市","code":"710000","name":"中山区"},{"area_code":"台北市","code":"710000","name":"中山区"},{"area_code":"台北市","code":"710000","name":"中山区"},{"area_code":"台北市","code":"710000","name":"中山区"},{"area_code":"台北市","code":"710000","name":"中正区"},{"area_code":"台北市","code":"710000","name":"中正区"},{"area_code":"台北市","code":"710000","name":"中正区"},{"area_code":"台北市","code":"710000","name":"中正区 "},{"area_code":"高雄市","code":"710000","name":" 苓雅区"},{"area_code":"高雄市","code":"710000","name":"大树区"},{"area_code":"高雄市","code":"710000","name":"凤山区"},{"area_code":"高雄市","code":"710000","name":"凤山区"},{"area_code":"高雄市","code":"710000","name":"高雄县"},{"area_code":"高雄市","code":"710000","name":"高雄县"},{"area_code":"高雄市","code":"710000","name":"高雄县"},{"area_code":"高雄市","code":"710000","name":"鼓山区"},{"area_code":"高雄市","code":"710000","name":"鼓山区"},{"area_code":"高雄市","code":"710000","name":"鼓山区"},{"area_code":"高雄市","code":"710000","name":"林园区"},{"area_code":"高雄市","code":"710000","name":"苓雅区"},{"area_code":"高雄市","code":"710000","name":"苓雅区"},{"area_code":"高雄市","code":"710000","name":"六龟区"},{"area_code":"高雄市","code":"710000","name":"路竹区"},{"area_code":"高雄市","code":"710000","name":"路竹区"},{"area_code":"高雄市","code":"710000","name":"楠梓区"},{"area_code":"高雄市","code":"710000","name":"楠梓区"},{"area_code":"高雄市","code":"710000","name":"楠梓区"},{"area_code":"高雄市","code":"710000","name":"鸟松区"},{"area_code":"高雄市","code":"710000","name":"前金区"},{"area_code":"高雄市","code":"710000","name":"前镇区"},{"area_code":"高雄市","code":"710000","name":"前镇区"},{"area_code":"高雄市","code":"710000","name":"仁武区"},{"area_code":"高雄市","code":"710000","name":"三民区"},{"area_code":"高雄市","code":"710000","name":"三民区"},{"area_code":"高雄市","code":"710000","name":"小港区"},{"area_code":"高雄市","code":"710000","name":"新兴区"},{"area_code":"高雄市","code":"710000","name":"左营区"},{"area_code":"高雄市","code":"710000","name":"左营区"},{"area_code":"基隆市","code":"710000","name":"安乐区"},{"area_code":"基隆市","code":"710000","name":"暖暖区"},{"area_code":"基隆市","code":"710000","name":"暖暖区"},{"area_code":"基隆市","code":"710000","name":"中山区"},{"area_code":"基隆市","code":"710000","name":"中山区"},{"area_code":"基隆市","code":"710000","name":"中正区"},{"area_code":"台中市","code":"710000","name":"北区"},{"area_code":"台中市","code":"710000","name":"北区"},{"area_code":"台中市","code":"710000","name":"北区"},{"area_code":"台中市","code":"710000","name":"北屯区"},{"area_code":"台中市","code":"710000","name":"大里区"},{"area_code":"台中市","code":"710000","name":"大里区"},{"area_code":"台中市","code":"710000","name":"大里区"},{"area_code":"台中市","code":"710000","name":"大里区"},{"area_code":"台中市","code":"710000","name":"大里区"},{"area_code":"台中市","code":"710000","name":"丰原区"},{"area_code":"台中市","code":"710000","name":"后里区"},{"area_code":"台中市","code":"710000","name":"南区国"},{"area_code":"台中市","code":"710000","name":"南屯区"},{"area_code":"台中市","code":"710000","name":"南屯区"},{"area_code":"台中市","code":"710001","name":"南屯区"},{"area_code":"台中市","code":"710001","name":"清水区"},{"area_code":"台中市","code":"710001","name":"清水区"},{"area_code":"台中市","code":"710001","name":"太平区"},{"area_code":"台中市","code":"710001","name":"太平区"},{"area_code":"台中市","code":"710001","name":"太平区"},{"area_code":"台中市","code":"710001","name":"雾峰区"},{"area_code":"台中市","code":"710001","name":"西区"},{"area_code":"台中市","code":"710001","name":"西区"},{"area_code":"台中市","code":"710001","name":"西屯区"},{"area_code":"台中市","code":"710001","name":"西屯区"},{"area_code":"台中市","code":"710001","name":"西屯区"},{"area_code":"台中市","code":"710001","name":"西屯区"},{"area_code":"台中市","code":"710001","name":"新社区"},{"area_code":"台南市","code":"710001","name":" 白河区"},{"area_code":"台南市","code":"710001","name":"安南区"},{"area_code":"台南市","code":"710001","name":"安南区"},{"area_code":"台南市","code":"710001","name":"安平区"},{"area_code":"台南市","code":"710001","name":"北区"},{"area_code":"台南市","code":"710001","name":"北区"},{"area_code":"台南市","code":"710001","name":"东区"},{"area_code":"台南市","code":"710001","name":"东区"},{"area_code":"台南市","code":"710001","name":"东区"},{"area_code":"台南市","code":"710001","name":"东山区"},{"area_code":"台南市","code":"710001","name":"归仁区"},{"area_code":"台南市","code":"710001","name":"后壁区"},{"area_code":"台南市","code":"710001","name":"佳里区"},{"area_code":"台南市","code":"710001","name":"柳营区"},{"area_code":"台南市","code":"710001","name":"南区"},{"area_code":"台南市","code":"710001","name":"南区"},{"area_code":"台南市","code":"710001","name":"善化区"},{"area_code":"台南市","code":"710001","name":"台南县"},{"area_code":"台南市","code":"710001","name":"台南县"},{"area_code":"台南市","code":"710001","name":"西港区"},{"area_code":"台南市","code":"710001","name":"新化区"},{"area_code":"台南市","code":"710001","name":"新市区"},{"area_code":"台南市","code":"710001","name":"新营区"},{"area_code":"台南市","code":"710001","name":"新营区"},{"area_code":"台南市","code":"710001","name":"新营区"},{"area_code":"台南市","code":"710001","name":"盐水区"},{"area_code":"台南市","code":"710001","name":"永康区"},{"area_code":"台南市","code":"710001","name":"永康区"},{"area_code":"台南市","code":"710001","name":"永康区"},{"area_code":"台南市","code":"710001","name":"中西"},{"area_code":"新竹县","code":"710001","name":"县区"},{"area_code":"新竹县","code":"710001","name":"县区"},{"area_code":"新竹县","code":"710001","name":"县区"},{"area_code":"新竹县","code":"710001","name":"县区"},{"area_code":"新竹县","code":"710001","name":"县区"},{"area_code":"新竹县","code":"710001","name":"县区"},{"area_code":"新竹县","code":"710001","name":"县区"},{"area_code":"新竹县","code":"710001","name":"县区"},{"area_code":"新竹县","code":"710001","name":"县区"},{"area_code":"新竹县","code":"710001","name":"县区"},{"area_code":"新竹县","code":"710001","name":"县区"},{"area_code":"新竹县","code":"710001","name":"县区"},{"area_code":"新竹县","code":"710001","name":"县区"},{"area_code":"新竹县","code":"710001","name":"县区"},{"area_code":"新竹县","code":"710001","name":"县区"},{"area_code":"新竹县","code":"710001","name":"县区"},{"area_code":"新竹县","code":"710001","name":"县区"},{"area_code":"嘉义县","code":"710001","name":"县区"},{"area_code":"嘉义县","code":"710001","name":"县区"},{"area_code":"嘉义县","code":"710001","name":"县区"},{"area_code":"嘉义县","code":"710001","name":"县区"},{"area_code":"嘉义县","code":"710001","name":"县区"},{"area_code":"嘉义县","code":"710001","name":"县区"},{"area_code":"嘉义县","code":"710001","name":"县区"},{"area_code":"嘉义县","code":"710001","name":"县区"},{"area_code":"嘉义县","code":"710001","name":"县区"},{"area_code":"嘉义县","code":"710001","name":"县区"},{"area_code":"宜兰县","code":"710001","name":"县区"},{"area_code":"宜兰县","code":"710001","name":"县区"},{"area_code":"桃园县","code":"710001","name":"县区"},{"area_code":"桃园县","code":"710001","name":"县区"},{"area_code":"桃园县","code":"710001","name":"县区"},{"area_code":"桃园县","code":"710001","name":"县区"},{"area_code":"桃园县","code":"710001","name":"县区"},{"area_code":"桃园县","code":"710001","name":"县区"},{"area_code":"桃园县","code":"710001","name":"县区"},{"area_code":"桃园县","code":"710001","name":"县区"},{"area_code":"桃园县","code":"710001","name":"县区"},{"area_code":"桃园县","code":"710001","name":"县区"},{"area_code":"桃园县","code":"710001","name":"县区"},{"area_code":"桃园县","code":"710001","name":"县区"},{"area_code":"桃园县","code":"710001","name":"县区"},{"area_code":"桃园县","code":"710001","name":"县区"},{"area_code":"桃园县","code":"710001","name":"县区"},{"area_code":"桃园县","code":"710001","name":"县区"},{"area_code":"桃园县","code":"710001","name":"县区"},{"area_code":"桃园县","code":"710001","name":"县区"},{"area_code":"桃园县","code":"710001","name":"县区"},{"area_code":"苗栗县","code":"710001","name":"县区"},{"area_code":"苗栗县","code":"710001","name":"县区"},{"area_code":"苗栗县","code":"710001","name":"县区"},{"area_code":"苗栗县","code":"710001","name":"县区"},{"area_code":"苗栗县","code":"710001","name":"县区"},{"area_code":"苗栗县","code":"710001","name":"县区"},{"area_code":"苗栗县","code":"710001","name":"县区"},{"area_code":"苗栗县","code":"710001","name":"县区"},{"area_code":"苗栗县","code":"710002","name":"县区"},{"area_code":"彰化县","code":"710002","name":"县区"},{"area_code":"彰化县","code":"710002","name":"县区"},{"area_code":"彰化县","code":"710002","name":"县区"},{"area_code":"彰化县","code":"710002","name":"县区"},{"area_code":"彰化县","code":"710002","name":"县区"},{"area_code":"彰化县","code":"710002","name":"县区"},{"area_code":"彰化县","code":"710002","name":"县区"},{"area_code":"彰化县","code":"710002","name":"县区"},{"area_code":"彰化县","code":"710002","name":"县区"},{"area_code":"彰化县","code":"710002","name":"县区"},{"area_code":"彰化县","code":"710002","name":"县区"},{"area_code":"彰化县","code":"710002","name":"县区"},{"area_code":"南投县","code":"710002","name":"县区"},{"area_code":"南投县","code":"710002","name":"县区"},{"area_code":"南投县","code":"710002","name":"县区"},{"area_code":"南投县","code":"710002","name":"县区"},{"area_code":"南投县","code":"710002","name":"县区"},{"area_code":"南投县","code":"710002","name":"县区"},{"area_code":"南投县","code":"710002","name":"县区"},{"area_code":"南投县","code":"710002","name":"县区"},{"area_code":"云林县","code":"710002","name":"县区"},{"area_code":"云林县","code":"710002","name":"县区"},{"area_code":"云林县","code":"710002","name":"县区"},{"area_code":"云林县","code":"710002","name":"县区"},{"area_code":"云林县","code":"710002","name":"县区"},{"area_code":"云林县","code":"710002","name":"县区"},{"area_code":"云林县","code":"710002","name":"县区"},{"area_code":"云林县","code":"710002","name":"县区"},{"area_code":"云林县","code":"710002","name":"县区"},{"area_code":"云林县","code":"710002","name":"县区"},{"area_code":"云林县","code":"710002","name":"县区"},{"area_code":"云林县","code":"710002","name":"县区"},{"area_code":"屏东县","code":"710002","name":"县区"},{"area_code":"屏东县","code":"710002","name":"县区"},{"area_code":"屏东县","code":"710002","name":"县区"},{"area_code":"屏东县","code":"710002","name":"县区"},{"area_code":"屏东县","code":"710002","name":"县区"},{"area_code":"屏东县","code":"710002","name":"县区"},{"area_code":"屏东县","code":"710002","name":"县区"},{"area_code":"屏东县","code":"710002","name":"县区"},{"area_code":"屏东县","code":"710002","name":"县区"},{"area_code":"屏东县","code":"710002","name":"县区"},{"area_code":"台东县","code":"710002","name":"县区"},{"area_code":"台东县","code":"710002","name":"县区"},{"area_code":"台东县","code":"710002","name":"县区"},{"area_code":"台东县","code":"710002","name":"县区"},{"area_code":"台东县","code":"710002","name":"县区"},{"area_code":"花莲县","code":"710002","name":"县区"},{"area_code":"花莲县","code":"710002","name":"县区"},{"area_code":"花莲县","code":"710002","name":"县区"},{"area_code":"花莲县","code":"710002","name":"县区"},{"area_code":"思茅地区","code":"530824","name":"景东彝族自治县"},{"area_code":"思茅地区","code":"530825","name":"镇沅县"},{"area_code":"思茅地区","code":"530825","name":"镇沅县"},{"area_code":"临沧地区","code":"530927","name":"沧源佤族自治县"},{"area_code":"临沧地区","code":"530926","name":"耿马傣族佤族自治县"},{"area_code":"临沧地区","code":"530901","name":"临沧县"},{"area_code":"临沧地区","code":"530922","name":"云县"},{"area_code":"临沧地区","code":"530921","name":"凤庆县"},{"area_code":"临沧地区","code":"530923","name":"永德县"},{"area_code":"临沧地区","code":"530924","name":"镇康县"},{"area_code":"楚雄彝族自治州","code":"532301","name":"楚雄市"},{"area_code":"楚雄彝族自治州","code":"532301","name":"楚雄市"},{"area_code":"楚雄彝族自治州","code":"532301","name":"楚雄市"},{"area_code":"楚雄彝族自治州","code":"532301","name":"楚雄市"},{"area_code":"楚雄彝族自治州","code":"532301","name":"楚雄市"},{"area_code":"楚雄彝族自治州","code":"532322","name":"双柏县"},{"area_code":"楚雄彝族自治州","code":"532324","name":"南华县"},{"area_code":"楚雄彝族自治州","code":"532325","name":"姚安县"},{"area_code":"楚雄彝族自治州","code":"532326","name":"大姚县"},{"area_code":"楚雄彝族自治州","code":"532328","name":"元谋县"},{"area_code":"楚雄彝族自治州","code":"532331","name":"禄丰县"},{"area_code":"楚雄彝族自治州","code":"532329","name":"武定县"},{"area_code":"红河哈尼族彝族自治州","code":"532523","name":"屏边苗族自治县"},{"area_code":"红河哈尼族彝族自治州","code":"532530","name":"金平苗族瑶族傣族自治县"},{"area_code":"红河哈尼族彝族自治州","code":"532530","name":"金平苗族瑶族傣族自治县"},{"area_code":"红河哈尼族彝族自治州","code":"532501","name":"个旧市"},{"area_code":"红河哈尼族彝族自治州","code":"532501","name":"个旧市"},{"area_code":"红河哈尼族彝族自治州","code":"532501","name":"个旧市"},{"area_code":"红河哈尼族彝族自治州","code":"532501","name":"个旧市"},{"area_code":"红河哈尼族彝族自治州","code":"532501","name":"个旧市"},{"area_code":"红河哈尼族彝族自治州","code":"532501","name":"个旧市"},{"area_code":"红河哈尼族彝族自治州","code":"532502","name":"开远市"},{"area_code":"红河哈尼族彝族自治州","code":"532502","name":"开远市"},{"area_code":"红河哈尼族彝族自治州","code":"532502","name":"开远市"},{"area_code":"红河哈尼族彝族自治州","code":"532502","name":"开远市"},{"area_code":"红河哈尼族彝族自治州","code":"532502","name":"开远市"},{"area_code":"红河哈尼族彝族自治州","code":"532503","name":"蒙自县"},{"area_code":"红河哈尼族彝族自治州","code":"532524","name":"建水县"},{"area_code":"红河哈尼族彝族自治州","code":"532524","name":"建水县"},{"area_code":"红河哈尼族彝族自治州","code":"532524","name":"建水县"},{"area_code":"红河哈尼族彝族自治州","code":"532524","name":"建水县"},{"area_code":"红河哈尼族彝族自治州","code":"532524","name":"建水县"},{"area_code":"红河哈尼族彝族自治州","code":"532524","name":"建水县"},{"area_code":"红河哈尼族彝族自治州","code":"532525","name":"石屏县"},{"area_code":"红河哈尼族彝族自治州","code":"532525","name":"石屏县"},{"area_code":"红河哈尼族彝族自治州","code":"532525","name":"石屏县"},{"area_code":"红河哈尼族彝族自治州","code":"532528","name":"元阳县"},{"area_code":"红河哈尼族彝族自治州","code":"532526","name":"弥勒县"},{"area_code":"红河哈尼族彝族自治州","code":"532527","name":"泸西县"},{"area_code":"红河哈尼族彝族自治州","code":"532527","name":"泸西县"},{"area_code":"红河哈尼族彝族自治州","code":"530422","name":"澄江县"},{"area_code":"红河哈尼族彝族自治州","code":"530422","name":"澄江县"},{"area_code":"红河哈尼族彝族自治州","code":"532529","name":"红河县"},{"area_code":"红河哈尼族彝族自治州","code":"532531","name":"绿春县"},{"area_code":"红河哈尼族彝族自治州","code":"532532","name":"河口县"},{"area_code":"文山壮族苗族自治州　","code":"532601","name":"文山县"},{"area_code":"文山壮族苗族自治州　","code":"532601","name":"文山县"},{"area_code":"文山壮族苗族自治州　","code":"532601","name":"文山县"},{"area_code":"文山壮族苗族自治州　","code":"532601","name":"文山县"},{"area_code":"文山壮族苗族自治州　","code":"532622","name":"砚山县"},{"area_code":"文山壮族苗族自治州　","code":"532626","name":"邱北县"},{"area_code":"文山壮族苗族自治州　","code":"532627","name":"广南县"},{"area_code":"文山壮族苗族自治州　","code":"532623","name":"西畴县"},{"area_code":"文山壮族苗族自治州　","code":"532623","name":"西畴县"},{"area_code":"文山壮族苗族自治州　","code":"532624","name":"麻栗坡县"},{"area_code":"文山壮族苗族自治州　","code":"532624","name":"麻栗坡县"},{"area_code":"文山壮族苗族自治州　","code":"532625","name":"马关县"},{"area_code":"文山壮族苗族自治州　","code":"532625","name":"马关县"},{"area_code":"西双版纳傣族自治州　","code":"532801","name":"景洪市"},{"area_code":"西双版纳傣族自治州　","code":"532801","name":"景洪市"},{"area_code":"西双版纳傣族自治州　","code":"532801","name":"景洪市"},{"area_code":"西双版纳傣族自治州　","code":"532801","name":"景洪市"},{"area_code":"西双版纳傣族自治州　","code":"532801","name":"景洪市"},{"area_code":"西双版纳傣族自治州　","code":"532801","name":"景洪市"},{"area_code":"西双版纳傣族自治州　","code":"532801","name":"景洪市"},{"area_code":"西双版纳傣族自治州　","code":"532801","name":"景洪市"},{"area_code":"西双版纳傣族自治州　","code":"532801","name":"景洪市"},{"area_code":"西双版纳傣族自治州　","code":"532801","name":"景洪市"},{"area_code":"西双版纳傣族自治州　","code":"532801","name":"景洪市"},{"area_code":"西双版纳傣族自治州　","code":"532801","name":"景洪市"},{"area_code":"西双版纳傣族自治州　","code":"532822","name":"勐海县"},{"area_code":"西双版纳傣族自治州　","code":"532823","name":"勐腊县"},{"area_code":"大理白族自治州　","code":"532901","name":"大理市"},{"area_code":"大理白族自治州　","code":"532901","name":"大理市"},{"area_code":"大理白族自治州　","code":"532901","name":"大理市"},{"area_code":"大理白族自治州　","code":"532901","name":"大理市"},{"area_code":"大理白族自治州　","code":"532901","name":"大理市"},{"area_code":"大理白族自治州　","code":"532901","name":"大理市"},{"area_code":"大理白族自治州　","code":"532901","name":"大理市"},{"area_code":"大理白族自治州　","code":"532901","name":"大理市"},{"area_code":"大理白族自治州　","code":"532901","name":"大理市"},{"area_code":"大理白族自治州　","code":"532901","name":"大理市"},{"area_code":"大理白族自治州　","code":"532926","name":"南涧彝族自治县"},{"area_code":"大理白族自治州　","code":"532923","name":"祥云县"},{"area_code":"大理白族自治州　","code":"532928","name":"永平县"},{"area_code":"大理白族自治州　","code":"532930","name":"洱源县"},{"area_code":"大理白族自治州　","code":"532931","name":"剑川县"},{"area_code":"大理白族自治州　","code":"532932","name":"鹤庆县"},{"area_code":"大理白族自治州　","code":"532924","name":"宾川县"},{"area_code":"大理白族自治州　","code":"532925","name":"弥渡县"},{"area_code":"德宏傣族景颇族自治州　","code":"533124","name":"陇川县"},{"area_code":"德宏傣族景颇族自治州　","code":"533103","name":"芒市"},{"area_code":"德宏傣族景颇族自治州　","code":"533103","name":"芒市"},{"area_code":"德宏傣族景颇族自治州　","code":"533122","name":"梁河县"},{"area_code":"怒江僳族自治州","code":"533325","name":"兰坪县"},{"area_code":"怒江僳族自治州","code":"533321","name":"泸水县"},{"area_code":"迪庆藏族自治州","code":"533423","name":"维西傈僳族自治县"},{"area_code":"河池市","code":"451281","name":"宜州市"},{"area_code":"河池市","code":"451281","name":"宜州市"},{"area_code":"河池市","code":"451281","name":"宜州市"},{"area_code":"河池市","code":"451281","name":"宜州市"},{"area_code":"河池市","code":"451223","name":"凤山县"},{"area_code":"河池市","code":"451225","name":"罗城仫佬族自治县"},{"area_code":"河池市","code":"451225","name":"罗城仫佬族自治县"},{"area_code":"河池市","code":"451225","name":"罗城仫佬族自治县"},{"area_code":"河池市","code":"451226","name":"环江毛南族自治县"},{"area_code":"河池市","code":"451226","name":"环江毛南族自治县"},{"area_code":"河池市","code":"451221","name":"南丹县"},{"area_code":"河池市","code":"451224","name":"东兰县"},{"area_code":"河池市","code":"451224","name":"东兰县"},{"area_code":"河池市","code":"451227","name":"巴马瑶族自治县"},{"area_code":"河池市","code":"451222","name":"天峨县"},{"area_code":"河池市","code":"451229","name":"大化县"},{"area_code":"河池市","code":"451229","name":"大化县"},{"area_code":"河池市","code":"451229","name":"大化县"},{"area_code":"河池市","code":"451228","name":"都安县"},{"area_code":"河池市","code":"451228","name":"都安县"},{"area_code":"河池市","code":"451228","name":"都安县"},{"area_code":"来宾市","code":"451301","name":"来宾县"},{"area_code":"来宾市","code":"451301","name":"来宾县"},{"area_code":"来宾市","code":"451322","name":"象州县"},{"area_code":"来宾市","code":"451322","name":"象州县"},{"area_code":"来宾市","code":"451322","name":"象州县"},{"area_code":"来宾市","code":"451324","name":"金秀瑶族自治县"},{"area_code":"来宾市","code":"451324","name":"金秀瑶族自治县"},{"area_code":"来宾市","code":"451323","name":"武宣县"},{"area_code":"来宾市","code":"451323","name":"武宣县"},{"area_code":"来宾市","code":"451323","name":"武宣县"},{"area_code":"来宾市","code":"451323","name":"武宣县"},{"area_code":"来宾市","code":"451323","name":"武宣县"},{"area_code":"来宾市","code":"451323","name":"武宣县"},{"area_code":"来宾市","code":"451321","name":"忻城县"},{"area_code":"来宾市","code":"451321","name":"忻城县"},{"area_code":"来宾市","code":"451381","name":"合山市"},{"area_code":"崇左市","code":"451402","name":"江洲区"},{"area_code":"崇左市","code":"451421","name":"扶绥县"},{"area_code":"崇左市","code":"451421","name":"扶绥县"},{"area_code":"崇左市","code":"451421","name":"扶绥县"},{"area_code":"崇左市","code":"451422","name":"宁明县"},{"area_code":"崇左市","code":"451423","name":"龙州县"},{"area_code":"崇左市","code":"451424","name":"大新县"},{"area_code":"崇左市","code":"451424","name":"大新县"},{"area_code":"崇左市","code":"451425","name":"天等县"},{"area_code":"崇左市","code":"451425","name":"天等县"},{"area_code":"崇左市","code":"451481","name":"凭祥市"}]