[{"area_code":"市辖区","code":"120101","name":"和平区 "},{"area_code":"市辖区","code":"120101","name":"和平区 "},{"area_code":"市辖区","code":"120101","name":"和平区 "},{"area_code":"市辖区","code":"120101","name":"和平区 "},{"area_code":"市辖区","code":"120101","name":"和平区 "},{"area_code":"市辖区","code":"120101","name":"和平区 "},{"area_code":"市辖区","code":"120101","name":"和平区 "},{"area_code":"市辖区","code":"120101","name":"和平区 "},{"area_code":"市辖区","code":"120101","name":"和平区 "},{"area_code":"市辖区","code":"120101","name":"和平区 "},{"area_code":"市辖区","code":"120101","name":"和平区 "},{"area_code":"市辖区","code":"120101","name":"和平区 "},{"area_code":"市辖区","code":"120101","name":"和平区 "},{"area_code":"市辖区","code":"120101","name":"和平区 "},{"area_code":"市辖区","code":"120102","name":"河东区 "},{"area_code":"市辖区","code":"120102","name":"河东区 "},{"area_code":"市辖区","code":"120102","name":"河东区 "},{"area_code":"市辖区","code":"120102","name":"河东区 "},{"area_code":"市辖区","code":"120102","name":"河东区 "},{"area_code":"市辖区","code":"120102","name":"河东区 "},{"area_code":"市辖区","code":"120102","name":"河东区 "},{"area_code":"市辖区","code":"120102","name":"河东区 "},{"area_code":"市辖区","code":"120102","name":"河东区 "},{"area_code":"市辖区","code":"120102","name":"河东区 "},{"area_code":"市辖区","code":"120102","name":"河东区 "},{"area_code":"市辖区","code":"120103","name":"河西区 "},{"area_code":"市辖区","code":"120103","name":"河西区 "},{"area_code":"市辖区","code":"120103","name":"河西区 "},{"area_code":"市辖区","code":"120103","name":"河西区 "},{"area_code":"市辖区","code":"120103","name":"河西区 "},{"area_code":"市辖区","code":"120103","name":"河西区 "},{"area_code":"市辖区","code":"120103","name":"河西区 "},{"area_code":"市辖区","code":"120103","name":"河西区 "},{"area_code":"市辖区","code":"120103","name":"河西区 "},{"area_code":"市辖区","code":"120103","name":"河西区 "},{"area_code":"市辖区","code":"120103","name":"河西区 "},{"area_code":"市辖区","code":"120103","name":"河西区 "},{"area_code":"市辖区","code":"120103","name":"河西区 "},{"area_code":"市辖区","code":"120103","name":"河西区 "},{"area_code":"市辖区","code":"120103","name":"河西区 "},{"area_code":"市辖区","code":"120103","name":"河西区 "},{"area_code":"市辖区","code":"120104","name":"南开区 "},{"area_code":"市辖区","code":"120104","name":"南开区 "},{"area_code":"市辖区","code":"120104","name":"南开区 "},{"area_code":"市辖区","code":"120104","name":"南开区 "},{"area_code":"市辖区","code":"120104","name":"南开区 "},{"area_code":"市辖区","code":"120104","name":"南开区 "},{"area_code":"市辖区","code":"120104","name":"南开区 "},{"area_code":"市辖区","code":"120104","name":"南开区 "},{"area_code":"市辖区","code":"120104","name":"南开区 "},{"area_code":"市辖区","code":"120104","name":"南开区 "},{"area_code":"市辖区","code":"120104","name":"南开区 "},{"area_code":"市辖区","code":"120104","name":"南开区 "},{"area_code":"市辖区","code":"120104","name":"南开区 "},{"area_code":"市辖区","code":"120104","name":"南开区 "},{"area_code":"市辖区","code":"120104","name":"南开区 "},{"area_code":"市辖区","code":"120104","name":"南开区 "},{"area_code":"市辖区","code":"120104","name":"南开区 "},{"area_code":"市辖区","code":"120104","name":"南开区 "},{"area_code":"市辖区","code":"120104","name":"南开区 "},{"area_code":"市辖区","code":"120104","name":"南开区 "},{"area_code":"市辖区","code":"120105","name":"河北区 "},{"area_code":"市辖区","code":"120105","name":"河北区 "},{"area_code":"市辖区","code":"120105","name":"河北区 "},{"area_code":"市辖区","code":"120105","name":"河北区 "},{"area_code":"市辖区","code":"120105","name":"河北区 "},{"area_code":"市辖区","code":"120105","name":"河北区 "},{"area_code":"市辖区","code":"120105","name":"河北区 "},{"area_code":"市辖区","code":"120105","name":"河北区 "},{"area_code":"市辖区","code":"120105","name":"河北区 "},{"area_code":"市辖区","code":"120105","name":"河北区 "},{"area_code":"市辖区","code":"120105","name":"河北区 "},{"area_code":"市辖区","code":"120105","name":"河北区 "},{"area_code":"市辖区","code":"120105","name":"河北区 "},{"area_code":"市辖区","code":"120105","name":"河北区 "},{"area_code":"市辖区","code":"120106","name":"红桥区 "},{"area_code":"市辖区","code":"120106","name":"红桥区 "},{"area_code":"市辖区","code":"120106","name":"红桥区 "},{"area_code":"市辖区","code":"120106","name":"红桥区 "},{"area_code":"市辖区","code":"120106","name":"红桥区 "},{"area_code":"市辖区","code":"120106","name":"红桥区 "},{"area_code":"市辖区","code":"120106","name":"红桥区 "},{"area_code":"市辖区","code":"120106","name":"红桥区 "},{"area_code":"市辖区","code":"120106","name":"红桥区 "},{"area_code":"市辖区","code":"120106","name":"红桥区 "},{"area_code":"市辖区","code":"120106","name":"红桥区 "},{"area_code":"市辖区","code":"120106","name":"红桥区 "},{"area_code":"市辖区","code":"120106","name":"红桥区 "},{"area_code":"市辖区","code":"120116","name":"塘沽区 "},{"area_code":"市辖区","code":"120116","name":"塘沽区 "},{"area_code":"市辖区","code":"120116","name":"塘沽区 "},{"area_code":"市辖区","code":"120116","name":"塘沽区 "},{"area_code":"市辖区","code":"120116","name":"塘沽区 "},{"area_code":"市辖区","code":"120116","name":"塘沽区 "},{"area_code":"市辖区","code":"120116","name":"塘沽区 "},{"area_code":"市辖区","code":"120116","name":"塘沽区 "},{"area_code":"市辖区","code":"120116","name":"塘沽区 "},{"area_code":"市辖区","code":"120116","name":"塘沽区 "},{"area_code":"市辖区","code":"120116","name":"汉沽区 "},{"area_code":"市辖区","code":"120116","name":"汉沽区 "},{"area_code":"市辖区","code":"120116","name":"汉沽区 "},{"area_code":"市辖区","code":"120116","name":"大港区 "},{"area_code":"市辖区","code":"120116","name":"大港区 "},{"area_code":"市辖区","code":"120116","name":"大港区 "},{"area_code":"市辖区","code":"120116","name":"大港区 "},{"area_code":"市辖区","code":"120116","name":"大港区 "},{"area_code":"市辖区","code":"120116","name":"大港区 "},{"area_code":"市辖区","code":"120116","name":"大港区 "},{"area_code":"市辖区","code":"120116","name":"大港区 "},{"area_code":"市辖区","code":"120116","name":"大港区 "},{"area_code":"市辖区","code":"120116","name":"大港区 "},{"area_code":"市辖区","code":"120116","name":"大港区 "},{"area_code":"市辖区","code":"120110","name":"东丽区 "},{"area_code":"市辖区","code":"120110","name":"东丽区 "},{"area_code":"市辖区","code":"120110","name":"东丽区 "},{"area_code":"市辖区","code":"120110","name":"东丽区 "},{"area_code":"市辖区","code":"120110","name":"东丽区 "},{"area_code":"市辖区","code":"120110","name":"东丽区 "},{"area_code":"市辖区","code":"120111","name":"西青区 "},{"area_code":"市辖区","code":"120111","name":"西青区 "},{"area_code":"市辖区","code":"120111","name":"西青区 "},{"area_code":"市辖区","code":"120111","name":"西青区 "},{"area_code":"市辖区","code":"120111","name":"西青区 "},{"area_code":"市辖区","code":"120111","name":"西青区 "},{"area_code":"市辖区","code":"120111","name":"西青区 "},{"area_code":"市辖区","code":"120111","name":"西青区 "},{"area_code":"市辖区","code":"120112","name":"津南区 "},{"area_code":"市辖区","code":"120112","name":"津南区 "},{"area_code":"市辖区","code":"120112","name":"津南区 "},{"area_code":"市辖区","code":"120112","name":"津南区 "},{"area_code":"市辖区","code":"120112","name":"津南区 "},{"area_code":"市辖区","code":"120112","name":"津南区 "},{"area_code":"市辖区","code":"120113","name":"北辰区 "},{"area_code":"市辖区","code":"120113","name":"北辰区 "},{"area_code":"市辖区","code":"120113","name":"北辰区 "},{"area_code":"市辖区","code":"120113","name":"北辰区 "},{"area_code":"市辖区","code":"120113","name":"北辰区 "},{"area_code":"市辖区","code":"120113","name":"北辰区 "},{"area_code":"市辖区","code":"120114","name":"武清区 "},{"area_code":"市辖区","code":"120114","name":"武清区 "},{"area_code":"市辖区","code":"120114","name":"武清区 "},{"area_code":"市辖区","code":"120114","name":"武清区 "},{"area_code":"市辖区","code":"120114","name":"武清区 "},{"area_code":"市辖区","code":"120114","name":"武清区 "},{"area_code":"市辖区","code":"120114","name":"武清区 "},{"area_code":"市辖区","code":"120114","name":"武清区 "},{"area_code":"市辖区","code":"120114","name":"武清区 "},{"area_code":"市辖区","code":"120114","name":"武清区 "},{"area_code":"市辖区","code":"120114","name":"武清区 "},{"area_code":"市辖区","code":"120114","name":"武清区 "},{"area_code":"市辖区","code":"120115","name":"宝坻区 "},{"area_code":"市辖区","code":"120115","name":"宝坻区 "},{"area_code":"市辖区","code":"120115","name":"宝坻区 "},{"area_code":"市辖区","code":"120115","name":"宝坻区 "},{"area_code":"市辖区","code":"120115","name":"宝坻区 "},{"area_code":"市辖区","code":"120115","name":"宝坻区 "},{"area_code":"市辖区","code":"120115","name":"宝坻区 "},{"area_code":"市辖区","code":"120115","name":"宝坻区 "},{"area_code":"市辖区","code":"120115","name":"宝坻区 "},{"area_code":"市辖区","code":"120115","name":"宝坻区 "},{"area_code":"市辖区","code":"120115","name":"宝坻区 "},{"area_code":"县","code":"120221","name":"宁河县 "},{"area_code":"县","code":"120221","name":"宁河县 "},{"area_code":"县","code":"120221","name":"宁河县 "},{"area_code":"县","code":"120221","name":"宁河县 "},{"area_code":"县","code":"120221","name":"宁河县 "},{"area_code":"县","code":"120221","name":"宁河县 "},{"area_code":"县","code":"120221","name":"宁河县 "},{"area_code":"县","code":"120223","name":"静海县 "},{"area_code":"县","code":"120223","name":"静海县 "},{"area_code":"县","code":"120223","name":"静海县 "},{"area_code":"县","code":"120223","name":"静海县 "},{"area_code":"县","code":"120223","name":"静海县 "},{"area_code":"县","code":"120223","name":"静海县 "},{"area_code":"县","code":"120223","name":"静海县 "},{"area_code":"县","code":"120223","name":"静海县 "},{"area_code":"县","code":"120223","name":"静海县 "},{"area_code":"县","code":"120223","name":"静海县 "},{"area_code":"县","code":"120223","name":"静海县 "},{"area_code":"县","code":"120223","name":"静海县 "},{"area_code":"县","code":"120225","name":"蓟县 "},{"area_code":"县","code":"120225","name":"蓟县 "},{"area_code":"县","code":"120225","name":"蓟县 "},{"area_code":"县","code":"120225","name":"蓟县 "},{"area_code":"县","code":"120225","name":"蓟县 "},{"area_code":"县","code":"120225","name":"蓟县 "},{"area_code":"县","code":"120225","name":"蓟县 "},{"area_code":"县","code":"120225","name":"蓟县 "},{"area_code":"县","code":"120225","name":"蓟县 "},{"area_code":"县","code":"120225","name":"蓟县 "},{"area_code":"县","code":"120225","name":"蓟县 "},{"area_code":"县","code":"120225","name":"蓟县 "},{"area_code":"县","code":"120225","name":"蓟县 "},{"area_code":"县","code":"120225","name":"蓟县 "},{"area_code":"县","code":"120225","name":"蓟县 "},{"area_code":"","code":"","name":"新北区"},{"area_code":"","code":"","name":"武进区"},{"area_code":"","code":"","name":"溧阳市"},{"area_code":"","code":"","name":"金坛市"},{"area_code":"苏州市","code":"","name":"市辖区"},{"area_code":"","code":"","name":"常熟市"},{"area_code":"","code":"","name":"张家港市"},{"area_code":"","code":"","name":"昆山市"},{"area_code":"","code":"","name":"吴江市"},{"area_code":"","code":"","name":"太仓市"},{"area_code":"南通市","code":"","name":"市辖区"},{"area_code":"","code":"","name":"海安县"},{"area_code":"","code":"","name":"如东县"},{"area_code":"","code":"","name":"启东市"},{"area_code":"","code":"","name":"如皋市"},{"area_code":"","code":"","name":"通州市"},{"area_code":"","code":"","name":"海门市"},{"area_code":"连云港市","code":"","name":"市辖区"},{"area_code":"","code":"","name":"赣榆县"},{"area_code":"","code":"","name":"东海县"},{"area_code":"","code":"","name":"灌云县"},{"area_code":"","code":"","name":"灌南县"},{"area_code":"淮安市","code":"","name":"市辖区"},{"area_code":"","code":"","name":"涟水县"},{"area_code":"","code":"","name":"洪泽县"},{"area_code":"","code":"","name":"盱眙县"},{"area_code":"","code":"","name":"金湖县"},{"area_code":"盐城市","code":"","name":"响水县"},{"area_code":"","code":"","name":"滨海县"},{"area_code":"","code":"","name":"阜宁县"},{"area_code":"","code":"","name":"射阳县"},{"area_code":"","code":"","name":"建湖县"},{"area_code":"","code":"","name":"东台市"},{"area_code":"","code":"","name":"大丰市"},{"area_code":"","code":"","name":"盐都区"},{"area_code":"","code":"","name":"亭湖区"},{"area_code":"","code":"","name":"市辖区"},{"area_code":"扬州市","code":"","name":"市辖区"},{"area_code":"","code":"","name":"宝应县"},{"area_code":"","code":"","name":"仪征市"},{"area_code":"","code":"","name":"高邮市"},{"area_code":"","code":"","name":"江都市"},{"area_code":"镇江市","code":"","name":"市辖区"},{"area_code":"","code":"","name":"丹阳市"},{"area_code":"","code":"","name":"扬中市"},{"area_code":"","code":"","name":"句容市"},{"area_code":"泰州市","code":"","name":"海陵区"},{"area_code":"","code":"","name":"高港区"},{"area_code":"","code":"","name":"兴化市"},{"area_code":"","code":"","name":"靖江市"},{"area_code":"","code":"","name":"泰兴市"},{"area_code":"","code":"","name":"姜堰市"},{"area_code":"宿迁市","code":"","name":"宿城区"},{"area_code":"","code":"","name":"宿豫区"},{"area_code":"","code":"","name":"沭阳县"},{"area_code":"","code":"","name":"泗阳县"},{"area_code":"","code":"","name":"泗洪县"},{"area_code":"","code":"361127","name":""},{"area_code":"","code":"361128","name":"鄱阳县"},{"area_code":"","code":"361128","name":""},{"area_code":"","code":"361128","name":""},{"area_code":"","code":"361128","name":""},{"area_code":"","code":"361128","name":""},{"area_code":"","code":"361128","name":""},{"area_code":"","code":"361128","name":""},{"area_code":"","code":"361128","name":""},{"area_code":"","code":"361129","name":"万年县"},{"area_code":"","code":"361129","name":""},{"area_code":"","code":"361129","name":""},{"area_code":"","code":"361130","name":"婺源县"},{"area_code":"","code":"361130","name":""},{"area_code":"","code":"361130","name":""},{"area_code":"","code":"361181","name":"德兴市"},{"area_code":"","code":"361181","name":""},{"area_code":"周口市","code":"411624","name":"沈丘县"},{"area_code":"周口市","code":"411624","name":"沈丘县"},{"area_code":"周口市","code":"411624","name":"沈丘县"},{"area_code":"周口市","code":"411624","name":"沈丘县"},{"area_code":"周口市","code":"411624","name":"沈丘县"},{"area_code":"周口市","code":"411624","name":"沈丘县"},{"area_code":"周口市","code":"411627","name":"太康县"},{"area_code":"周口市","code":"411627","name":"太康县"},{"area_code":"周口市","code":"411627","name":"太康县"},{"area_code":"周口市","code":"411627","name":"太康县"},{"area_code":"周口市","code":"411622","name":"西华县"},{"area_code":"周口市","code":"411622","name":"西华县"},{"area_code":"周口市","code":"411622","name":"西华县"},{"area_code":"周口市","code":"411622","name":"西华县"},{"area_code":"周口市","code":"411622","name":"西华县"},{"area_code":"周口市","code":"411681","name":"项城市"},{"area_code":"周口市","code":"411681","name":"项城市"},{"area_code":"周口市","code":"411681","name":"项城市"},{"area_code":"周口市","code":"411681","name":"项城市"},{"area_code":"周口市","code":"411681","name":"项城市"},{"area_code":"周口市","code":"411681","name":"项城市"},{"area_code":"驻马店市","code":"411726","name":"泌阳县"},{"area_code":"驻马店市","code":"411726","name":"泌阳县"},{"area_code":"驻马店市","code":"411726","name":"泌阳县"},{"area_code":"驻马店市","code":"411723","name":"平舆县"},{"area_code":"驻马店市","code":"411723","name":"平舆县"},{"area_code":"驻马店市","code":"411723","name":"平舆县"},{"area_code":"驻马店市","code":"411723","name":"平舆县"},{"area_code":"驻马店市","code":"411725","name":"确山县"},{"area_code":"驻马店市","code":"411725","name":"确山县"},{"area_code":"驻马店市","code":"411727","name":"汝南县"},{"area_code":"驻马店市","code":"411727","name":"汝南县"},{"area_code":"驻马店市","code":"411727","name":"汝南县"},{"area_code":"驻马店市","code":"411722","name":"上蔡县"},{"area_code":"驻马店市","code":"411722","name":"上蔡县"},{"area_code":"驻马店市","code":"411722","name":"上蔡县"},{"area_code":"驻马店市","code":"411728","name":"遂平县"},{"area_code":"驻马店市","code":"411728","name":"遂平县"},{"area_code":"驻马店市","code":"411721","name":"西平县"},{"area_code":"驻马店市","code":"411721","name":"西平县"},{"area_code":"驻马店市","code":"411721","name":"西平县"},{"area_code":"驻马店市","code":"411729","name":"新蔡县"},{"area_code":"驻马店市","code":"411729","name":"新蔡县"},{"area_code":"驻马店市","code":"411729","name":"新蔡县"},{"area_code":"驻马店市","code":"411702","name":"驿城区"},{"area_code":"驻马店市","code":"411702","name":"驿城区"},{"area_code":"驻马店市","code":"411702","name":"驿城区"},{"area_code":"驻马店市","code":"411702","name":"驿城区"},{"area_code":"驻马店市","code":"411702","name":"驿城区"},{"area_code":"驻马店市","code":"411702","name":"驿城区"},{"area_code":"驻马店市","code":"411702","name":"驿城区"},{"area_code":"驻马店市","code":"411702","name":"驿城区"},{"area_code":"驻马店市","code":"411724","name":"正阳县"},{"area_code":"驻马店市","code":"411724","name":"正阳县"},{"area_code":"驻马店市","code":"411724","name":"正阳县"},{"area_code":"驻马店市","code":"411724","name":"正阳县"}]