[{"area_code":"乌鲁木齐市","code":"650101","name":"市辖区"},{"area_code":"乌鲁木齐市","code":"650101","name":"市辖区"},{"area_code":"乌鲁木齐市","code":"650101","name":"市辖区"},{"area_code":"乌鲁木齐市","code":"650101","name":"市辖区"},{"area_code":"乌鲁木齐市","code":"650101","name":"市辖区"},{"area_code":"乌鲁木齐市","code":"650101","name":"市辖区"},{"area_code":"乌鲁木齐市","code":"650101","name":"市辖区"},{"area_code":"乌鲁木齐市","code":"650101","name":"市辖区"},{"area_code":"乌鲁木齐市","code":"650101","name":"市辖区"},{"area_code":"乌鲁木齐市","code":"650101","name":"市辖区"},{"area_code":"乌鲁木齐市","code":"650101","name":"市辖区"},{"area_code":"乌鲁木齐市","code":"650101","name":"市辖区"},{"area_code":"乌鲁木齐市","code":"650101","name":"市辖区"},{"area_code":"乌鲁木齐市","code":"650101","name":"市辖区"},{"area_code":"乌鲁木齐市","code":"650101","name":"市辖区"},{"area_code":"乌鲁木齐市","code":"650101","name":"市辖区"},{"area_code":"乌鲁木齐市","code":"650101","name":"市辖区"},{"area_code":"乌鲁木齐市","code":"650101","name":"市辖区"},{"area_code":"乌鲁木齐市","code":"650101","name":"市辖区"},{"area_code":"乌鲁木齐市","code":"650101","name":"市辖区"},{"area_code":"乌鲁木齐市","code":"650101","name":"市辖区"},{"area_code":"乌鲁木齐市","code":"650101","name":"市辖区"},{"area_code":"乌鲁木齐市","code":"650101","name":"市辖区"},{"area_code":"乌鲁木齐市","code":"650101","name":"市辖区"},{"area_code":"乌鲁木齐市","code":"650101","name":"市辖区"},{"area_code":"乌鲁木齐市","code":"650101","name":"市辖区"},{"area_code":"乌鲁木齐市","code":"650101","name":"市辖区"},{"area_code":"乌鲁木齐市","code":"650101","name":"市辖区"},{"area_code":"乌鲁木齐市","code":"650101","name":"市辖区"},{"area_code":"乌鲁木齐市","code":"650101","name":"市辖区"},{"area_code":"乌鲁木齐市","code":"650101","name":"市辖区"},{"area_code":"乌鲁木齐市","code":"650101","name":"市辖区"},{"area_code":"乌鲁木齐市","code":"650101","name":"市辖区"},{"area_code":"乌鲁木齐市","code":"650101","name":"市辖区"},{"area_code":"乌鲁木齐市","code":"650101","name":"市辖区"},{"area_code":"乌鲁木齐市","code":"650101","name":"市辖区"},{"area_code":"乌鲁木齐市","code":"650101","name":"市辖区"},{"area_code":"乌鲁木齐市","code":"650101","name":"市辖区"},{"area_code":"乌鲁木齐市","code":"650101","name":"市辖区"},{"area_code":"乌鲁木齐市","code":"650101","name":"市辖区"},{"area_code":"乌鲁木齐市","code":"650101","name":"市辖区"},{"area_code":"乌鲁木齐市","code":"650101","name":"市辖区"},{"area_code":"乌鲁木齐市","code":"650101","name":"市辖区"},{"area_code":"乌鲁木齐市","code":"650101","name":"市辖区"},{"area_code":"乌鲁木齐市","code":"650101","name":"市辖区"},{"area_code":"乌鲁木齐市","code":"650101","name":"市辖区"},{"area_code":"乌鲁木齐市","code":"650101","name":"市辖区"},{"area_code":"乌鲁木齐市","code":"650101","name":"市辖区"},{"area_code":"乌鲁木齐市","code":"650101","name":"市辖区"},{"area_code":"乌鲁木齐市","code":"650101","name":"市辖区"},{"area_code":"乌鲁木齐市","code":"650101","name":"市辖区"},{"area_code":"乌鲁木齐市","code":"650101","name":"市辖区"},{"area_code":"乌鲁木齐市","code":"650101","name":"市辖区"},{"area_code":"乌鲁木齐市","code":"650101","name":"市辖区"},{"area_code":"乌鲁木齐市","code":"650101","name":"市辖区"},{"area_code":"乌鲁木齐市","code":"650101","name":"市辖区"},{"area_code":"乌鲁木齐市","code":"650101","name":"市辖区"},{"area_code":"乌鲁木齐市","code":"650101","name":"市辖区"},{"area_code":"乌鲁木齐市","code":"650121","name":"乌鲁木齐县"},{"area_code":"乌鲁木齐市","code":"650121","name":"乌鲁木齐县"},{"area_code":"乌鲁木齐市","code":"650121","name":"乌鲁木齐县"},{"area_code":"乌鲁木齐市","code":"650121","name":"乌鲁木齐县"},{"area_code":"克拉玛依市","code":"650201","name":"市辖区"},{"area_code":"克拉玛依市","code":"650201","name":"市辖区"},{"area_code":"克拉玛依市","code":"650201","name":"市辖区"},{"area_code":"克拉玛依市","code":"650201","name":"市辖区"},{"area_code":"克拉玛依市","code":"650201","name":"市辖区"},{"area_code":"克拉玛依市","code":"650201","name":"市辖区"},{"area_code":"克拉玛依市","code":"650201","name":"市辖区"},{"area_code":"克拉玛依市","code":"650201","name":"市辖区"},{"area_code":"克拉玛依市","code":"650201","name":"市辖区"},{"area_code":"克拉玛依市","code":"650201","name":"市辖区"},{"area_code":"克拉玛依市","code":"650201","name":"市辖区"},{"area_code":"克拉玛依市","code":"650201","name":"市辖区"},{"area_code":"克拉玛依市","code":"650201","name":"市辖区"},{"area_code":"克拉玛依市","code":"650201","name":"市辖区"},{"area_code":"克拉玛依市","code":"650201","name":"市辖区"},{"area_code":"克拉玛依市","code":"650201","name":"市辖区"},{"area_code":"吐鲁番地区","code":"652101","name":"吐鲁番市"},{"area_code":"吐鲁番地区","code":"652101","name":"吐鲁番市"},{"area_code":"吐鲁番地区","code":"652101","name":"吐鲁番市"},{"area_code":"吐鲁番地区","code":"652101","name":"吐鲁番市"},{"area_code":"吐鲁番地区","code":"652101","name":"吐鲁番市"},{"area_code":"吐鲁番地区","code":"652101","name":"吐鲁番市"},{"area_code":"吐鲁番地区","code":"652101","name":"吐鲁番市"},{"area_code":"吐鲁番地区","code":"652101","name":"吐鲁番市"},{"area_code":"吐鲁番地区","code":"652101","name":"吐鲁番市"},{"area_code":"吐鲁番地区","code":"652122","name":"鄯善县"},{"area_code":"吐鲁番地区","code":"652122","name":"鄯善县"},{"area_code":"吐鲁番地区","code":"652122","name":"鄯善县"},{"area_code":"吐鲁番地区","code":"652122","name":"鄯善县"},{"area_code":"吐鲁番地区","code":"652122","name":"鄯善县"},{"area_code":"吐鲁番地区","code":"652122","name":"鄯善县"},{"area_code":"吐鲁番地区","code":"652123","name":"托克逊县"},{"area_code":"吐鲁番地区","code":"652123","name":"托克逊县"},{"area_code":"吐鲁番地区","code":"652123","name":"托克逊县"},{"area_code":"吐鲁番地区","code":"652123","name":"托克逊县"},{"area_code":"吐鲁番地区","code":"652123","name":"托克逊县"},{"area_code":"吐鲁番地区","code":"652123","name":"托克逊县"},{"area_code":"哈密地区","code":"652201","name":"哈密市"},{"area_code":"哈密地区","code":"652201","name":"哈密市"},{"area_code":"哈密地区","code":"652201","name":"哈密市"},{"area_code":"哈密地区","code":"652201","name":"哈密市"},{"area_code":"哈密地区","code":"652201","name":"哈密市"},{"area_code":"哈密地区","code":"652201","name":"哈密市"},{"area_code":"哈密地区","code":"652201","name":"哈密市"},{"area_code":"哈密地区","code":"652201","name":"哈密市"},{"area_code":"哈密地区","code":"652201","name":"哈密市"},{"area_code":"哈密地区","code":"652201","name":"哈密市"},{"area_code":"哈密地区","code":"652201","name":"哈密市"},{"area_code":"哈密地区","code":"652201","name":"哈密市"},{"area_code":"哈密地区","code":"652201","name":"哈密市"},{"area_code":"哈密地区","code":"652201","name":"哈密市"},{"area_code":"哈密地区","code":"652201","name":"哈密市"},{"area_code":"哈密地区","code":"652201","name":"哈密市"},{"area_code":"哈密地区","code":"652201","name":"哈密市"},{"area_code":"哈密地区","code":"652222","name":"巴里坤县"},{"area_code":"哈密地区","code":"652222","name":"巴里坤县"},{"area_code":"哈密地区","code":"652223","name":"伊吾县"},{"area_code":"哈密地区","code":"652223","name":"伊吾县"},{"area_code":"哈密地区","code":"652223","name":"伊吾县"},{"area_code":"昌吉回族自治州","code":"652301","name":"昌吉市"},{"area_code":"昌吉回族自治州","code":"652301","name":"昌吉市"},{"area_code":"昌吉回族自治州","code":"652301","name":"昌吉市"},{"area_code":"昌吉回族自治州","code":"652301","name":"昌吉市"},{"area_code":"昌吉回族自治州","code":"652301","name":"昌吉市"},{"area_code":"昌吉回族自治州","code":"652301","name":"昌吉市"},{"area_code":"昌吉回族自治州","code":"652301","name":"昌吉市"},{"area_code":"昌吉回族自治州","code":"652301","name":"昌吉市"},{"area_code":"昌吉回族自治州","code":"652301","name":"昌吉市"},{"area_code":"昌吉回族自治州","code":"652302","name":"阜康市"},{"area_code":"昌吉回族自治州","code":"650109","name":"米东区"},{"area_code":"昌吉回族自治州","code":"650109","name":"米东区"},{"area_code":"昌吉回族自治州","code":"650109","name":"米东区"},{"area_code":"昌吉回族自治州","code":"650109","name":"米东区"},{"area_code":"昌吉回族自治州","code":"652324","name":"玛纳斯县"},{"area_code":"昌吉回族自治州","code":"652325","name":"奇台县"},{"area_code":"昌吉回族自治州","code":"652325","name":"奇台县"},{"area_code":"昌吉回族自治州","code":"652325","name":"奇台县"},{"area_code":"昌吉回族自治州","code":"652325","name":"奇台县"},{"area_code":"昌吉回族自治州","code":"652325","name":"奇台县"},{"area_code":"昌吉回族自治州","code":"652325","name":"奇台县"},{"area_code":"昌吉回族自治州","code":"652327","name":"吉木萨尔县"},{"area_code":"昌吉回族自治州","code":"652327","name":"木垒县"},{"area_code":"昌吉回族自治州","code":"652327","name":"木垒县"},{"area_code":"昌吉回族自治州","code":"652327","name":"木垒县"},{"area_code":"巴音郭楞蒙古自治州","code":"652801","name":"库尔勒市"},{"area_code":"巴音郭楞蒙古自治州","code":"652801","name":"库尔勒市"},{"area_code":"巴音郭楞蒙古自治州","code":"652801","name":"库尔勒市"},{"area_code":"巴音郭楞蒙古自治州","code":"652801","name":"库尔勒市"},{"area_code":"巴音郭楞蒙古自治州","code":"652801","name":"库尔勒市"},{"area_code":"巴音郭楞蒙古自治州","code":"652801","name":"库尔勒市"},{"area_code":"巴音郭楞蒙古自治州","code":"652801","name":"库尔勒市"},{"area_code":"巴音郭楞蒙古自治州","code":"652801","name":"库尔勒市"},{"area_code":"巴音郭楞蒙古自治州","code":"652801","name":"库尔勒市"},{"area_code":"巴音郭楞蒙古自治州","code":"652801","name":"库尔勒市"},{"area_code":"巴音郭楞蒙古自治州","code":"652801","name":"库尔勒市"},{"area_code":"巴音郭楞蒙古自治州","code":"652801","name":"库尔勒市"},{"area_code":"巴音郭楞蒙古自治州","code":"652801","name":"库尔勒市"},{"area_code":"巴音郭楞蒙古自治州","code":"652801","name":"库尔勒市"},{"area_code":"巴音郭楞蒙古自治州","code":"652822","name":"轮台县"},{"area_code":"巴音郭楞蒙古自治州","code":"652823","name":"尉犁县"},{"area_code":"巴音郭楞蒙古自治州","code":"652824","name":"若羌县"},{"area_code":"巴音郭楞蒙古自治州","code":"652825","name":"且末县"},{"area_code":"巴音郭楞蒙古自治州","code":"652826","name":"焉耆回族自治县"},{"area_code":"巴音郭楞蒙古自治州","code":"652826","name":"焉耆回族自治县"},{"area_code":"巴音郭楞蒙古自治州","code":"652827","name":"和静县"},{"area_code":"巴音郭楞蒙古自治州","code":"652827","name":"和静县"},{"area_code":"巴音郭楞蒙古自治州","code":"652828","name":"和硕县"},{"area_code":"巴音郭楞蒙古自治州","code":"652829","name":"博湖县"},{"area_code":"博尔塔拉蒙古自治州","code":"652701","name":"博乐市"},{"area_code":"博尔塔拉蒙古自治州","code":"652701","name":"博乐市"},{"area_code":"博尔塔拉蒙古自治州","code":"652701","name":"博乐市"},{"area_code":"博尔塔拉蒙古自治州","code":"652701","name":"博乐市"},{"area_code":"博尔塔拉蒙古自治州","code":"652701","name":"博乐市"},{"area_code":"博尔塔拉蒙古自治州","code":"652701","name":"博乐市"},{"area_code":"博尔塔拉蒙古自治州","code":"652701","name":"博乐市"},{"area_code":"博尔塔拉蒙古自治州","code":"652701","name":"博乐市"},{"area_code":"博尔塔拉蒙古自治州","code":"652701","name":"博乐市"},{"area_code":"博尔塔拉蒙古自治州","code":"652701","name":"博乐市"},{"area_code":"博尔塔拉蒙古自治州","code":"652701","name":"博乐市"},{"area_code":"博尔塔拉蒙古自治州","code":"652701","name":"博乐市"},{"area_code":"博尔塔拉蒙古自治州","code":"652722","name":"精河县"},{"area_code":"博尔塔拉蒙古自治州","code":"652723","name":"温泉县"},{"area_code":"阿克苏地区","code":"652901","name":"阿克苏市"},{"area_code":"阿克苏地区","code":"652901","name":"阿克苏市"},{"area_code":"阿克苏地区","code":"652901","name":"阿克苏市"},{"area_code":"阿克苏地区","code":"652901","name":"阿克苏市"},{"area_code":"阿克苏地区","code":"652922","name":"温宿县"},{"area_code":"阿克苏地区","code":"652922","name":"温宿县"},{"area_code":"阿克苏地区","code":"652922","name":"温宿县"},{"area_code":"阿克苏地区","code":"652922","name":"温宿县"},{"area_code":"阿克苏地区","code":"652922","name":"温宿县"},{"area_code":"阿克苏地区","code":"652923","name":"库车县"},{"area_code":"阿克苏地区","code":"652923","name":"库车县"},{"area_code":"阿克苏地区","code":"652923","name":"库车县"},{"area_code":"阿克苏地区","code":"652923","name":"库车县"},{"area_code":"阿克苏地区","code":"652923","name":"库车县"},{"area_code":"阿克苏地区","code":"652923","name":"库车县"},{"area_code":"阿克苏地区","code":"652923","name":"库车县"},{"area_code":"阿克苏地区","code":"652923","name":"库车县"},{"area_code":"阿克苏地区","code":"652923","name":"库车县"},{"area_code":"阿克苏地区","code":"652923","name":"库车县"},{"area_code":"阿克苏地区","code":"652923","name":"库车县"},{"area_code":"阿克苏地区","code":"652923","name":"库车县"},{"area_code":"阿克苏地区","code":"652923","name":"库车县"},{"area_code":"阿克苏地区","code":"652923","name":"库车县"},{"area_code":"阿克苏地区","code":"652923","name":"库车县"},{"area_code":"阿克苏地区","code":"652924","name":"沙雅县"},{"area_code":"阿克苏地区","code":"652924","name":"沙雅县"},{"area_code":"阿克苏地区","code":"652925","name":"新和县"},{"area_code":"阿克苏地区","code":"652925","name":"新和县"},{"area_code":"阿克苏地区","code":"652926","name":"拜城县"},{"area_code":"阿克苏地区","code":"652926","name":"拜城县"},{"area_code":"阿克苏地区","code":"652926","name":"拜城县"},{"area_code":"阿克苏地区","code":"652927","name":"乌什县"},{"area_code":"阿克苏地区","code":"652927","name":"乌什县"},{"area_code":"阿克苏地区","code":"652928","name":"阿瓦提县"},{"area_code":"阿克苏地区","code":"652928","name":"阿瓦提县"},{"area_code":"阿克苏地区","code":"652928","name":"阿瓦提县"},{"area_code":"阿克苏地区","code":"652929","name":"柯坪县"},{"area_code":"阿克苏地区","code":"652929","name":"柯坪县"},{"area_code":"阿克苏地区","code":"652929","name":"柯坪县"},{"area_code":"阿克苏地区","code":"652929","name":"柯坪县"},{"area_code":"阿克苏地区","code":"652929","name":"柯坪县"},{"area_code":"克孜勒苏柯尔克孜自治州","code":"653001","name":"阿图什市"},{"area_code":"克孜勒苏柯尔克孜自治州","code":"653001","name":"阿图什市"},{"area_code":"克孜勒苏柯尔克孜自治州","code":"653001","name":"阿图什市"},{"area_code":"克孜勒苏柯尔克孜自治州","code":"653001","name":"阿图什市"},{"area_code":"克孜勒苏柯尔克孜自治州","code":"653001","name":"阿图什市"},{"area_code":"克孜勒苏柯尔克孜自治州","code":"653001","name":"阿图什市"},{"area_code":"克孜勒苏柯尔克孜自治州","code":"653001","name":"阿图什市"},{"area_code":"克孜勒苏柯尔克孜自治州","code":"653022","name":"阿克陶县"},{"area_code":"克孜勒苏柯尔克孜自治州","code":"653022","name":"阿克陶县"},{"area_code":"克孜勒苏柯尔克孜自治州","code":"653023","name":"阿合奇县"},{"area_code":"喀什地区","code":"653101","name":"喀什市"},{"area_code":"喀什地区","code":"653101","name":"喀什市"},{"area_code":"喀什地区","code":"653101","name":"喀什市"},{"area_code":"喀什地区","code":"653101","name":"喀什市"},{"area_code":"喀什地区","code":"653101","name":"喀什市"},{"area_code":"喀什地区","code":"653101","name":"喀什市"},{"area_code":"喀什地区","code":"653101","name":"喀什市"},{"area_code":"喀什地区","code":"653101","name":"喀什市"},{"area_code":"喀什地区","code":"653101","name":"喀什市"},{"area_code":"喀什地区","code":"653101","name":"喀什市"},{"area_code":"喀什地区","code":"653101","name":"喀什市"},{"area_code":"喀什地区","code":"653101","name":"喀什市"},{"area_code":"喀什地区","code":"653101","name":"喀什市"},{"area_code":"喀什地区","code":"653101","name":"喀什市"},{"area_code":"喀什地区","code":"653101","name":"喀什市"},{"area_code":"喀什地区","code":"653101","name":"喀什市"},{"area_code":"喀什地区","code":"653101","name":"喀什市"},{"area_code":"喀什地区","code":"653101","name":"喀什市"},{"area_code":"喀什地区","code":"653101","name":"喀什市"},{"area_code":"喀什地区","code":"653121","name":"疏附县"},{"area_code":"喀什地区","code":"653121","name":"疏附县"},{"area_code":"喀什地区","code":"653121","name":"疏附县"},{"area_code":"喀什地区","code":"653121","name":"疏附县"},{"area_code":"喀什地区","code":"653121","name":"疏附县"},{"area_code":"喀什地区","code":"653121","name":"疏附县"},{"area_code":"喀什地区","code":"653121","name":"疏附县"},{"area_code":"喀什地区","code":"653122","name":"疏勒县"},{"area_code":"喀什地区","code":"653122","name":"疏勒县"},{"area_code":"喀什地区","code":"653122","name":"疏勒县"},{"area_code":"喀什地区","code":"653123","name":"英吉沙县"},{"area_code":"喀什地区","code":"653123","name":"英吉沙县"},{"area_code":"喀什地区","code":"653124","name":"泽普县"},{"area_code":"喀什地区","code":"653124","name":"泽普县"},{"area_code":"喀什地区","code":"653125","name":"莎车县"},{"area_code":"喀什地区","code":"653125","name":"莎车县"},{"area_code":"喀什地区","code":"653125","name":"莎车县"},{"area_code":"喀什地区","code":"653125","name":"莎车县"},{"area_code":"喀什地区","code":"653126","name":"叶城县"},{"area_code":"喀什地区","code":"653126","name":"叶城县"},{"area_code":"喀什地区","code":"653126","name":"叶城县"},{"area_code":"喀什地区","code":"653127","name":"麦盖提县"},{"area_code":"喀什地区","code":"653127","name":"麦盖提县"},{"area_code":"喀什地区","code":"653128","name":"岳普湖县"},{"area_code":"喀什地区","code":"653128","name":"岳普湖县"},{"area_code":"喀什地区","code":"653129","name":"伽师县"},{"area_code":"喀什地区","code":"653129","name":"伽师县"},{"area_code":"喀什地区","code":"653130","name":"巴楚县"},{"area_code":"喀什地区","code":"653130","name":"巴楚县"},{"area_code":"喀什地区","code":"653130","name":"巴楚县"},{"area_code":"喀什地区","code":"653131","name":"塔什县"},{"area_code":"和田地区","code":"653201","name":"和田市"},{"area_code":"和田地区","code":"653201","name":"和田市"},{"area_code":"和田地区","code":"653221","name":"和田县"},{"area_code":"和田地区","code":"653221","name":"和田县"},{"area_code":"和田地区","code":"653221","name":"和田县"},{"area_code":"和田地区","code":"653222","name":"墨玉县"},{"area_code":"和田地区","code":"653223","name":"皮山县"},{"area_code":"和田地区","code":"653223","name":"皮山县"},{"area_code":"和田地区","code":"653223","name":"皮山县"},{"area_code":"和田地区","code":"653224","name":"洛浦县"},{"area_code":"和田地区","code":"653225","name":"策勒县"},{"area_code":"和田地区","code":"653226","name":"于田县"},{"area_code":"和田地区","code":"653227","name":"民丰县"},{"area_code":"和田地区","code":"653227","name":"民丰县"},{"area_code":"和田地区","code":"653227","name":"民丰县"},{"area_code":"和田地区","code":"653227","name":"民丰县"},{"area_code":"伊犁哈萨克自治州","code":"654002","name":"伊宁市"},{"area_code":"伊犁哈萨克自治州","code":"654002","name":"伊宁市"},{"area_code":"伊犁哈萨克自治州","code":"654002","name":"伊宁市"},{"area_code":"伊犁哈萨克自治州","code":"654002","name":"伊宁市"},{"area_code":"伊犁哈萨克自治州","code":"654002","name":"伊宁市"},{"area_code":"伊犁哈萨克自治州","code":"654002","name":"伊宁市"},{"area_code":"伊犁哈萨克自治州","code":"654002","name":"伊宁市"},{"area_code":"伊犁哈萨克自治州","code":"654002","name":"伊宁市"},{"area_code":"伊犁哈萨克自治州","code":"654002","name":"伊宁市"},{"area_code":"伊犁哈萨克自治州","code":"654002","name":"伊宁市"},{"area_code":"伊犁哈萨克自治州","code":"654002","name":"伊宁市"},{"area_code":"伊犁哈萨克自治州","code":"654002","name":"伊宁市"},{"area_code":"伊犁哈萨克自治州","code":"654002","name":"伊宁市"},{"area_code":"伊犁哈萨克自治州","code":"654002","name":"伊宁市"},{"area_code":"伊犁哈萨克自治州","code":"654002","name":"伊宁市"},{"area_code":"伊犁哈萨克自治州","code":"654002","name":"伊宁市"},{"area_code":"伊犁哈萨克自治州","code":"654002","name":"伊宁市"},{"area_code":"伊犁哈萨克自治州","code":"654003","name":"奎屯市"},{"area_code":"伊犁哈萨克自治州","code":"654003","name":"奎屯市"},{"area_code":"伊犁哈萨克自治州","code":"654003","name":"奎屯市"},{"area_code":"伊犁哈萨克自治州","code":"654003","name":"奎屯市"},{"area_code":"伊犁哈萨克自治州","code":"654003","name":"奎屯市"},{"area_code":"伊犁哈萨克自治州","code":"654003","name":"奎屯市"},{"area_code":"伊犁哈萨克自治州","code":"654003","name":"奎屯市"},{"area_code":"伊犁哈萨克自治州","code":"654021","name":"伊宁县"},{"area_code":"伊犁哈萨克自治州","code":"654021","name":"伊宁县"},{"area_code":"伊犁哈萨克自治州","code":"654021","name":"伊宁县"},{"area_code":"伊犁哈萨克自治州","code":"654021","name":"伊宁县"},{"area_code":"伊犁哈萨克自治州","code":"654021","name":"伊宁县"},{"area_code":"伊犁哈萨克自治州","code":"654021","name":"伊宁县"},{"area_code":"伊犁哈萨克自治州","code":"654021","name":"伊宁县"},{"area_code":"伊犁哈萨克自治州","code":"654021","name":"伊宁县"},{"area_code":"伊犁哈萨克自治州","code":"654021","name":"伊宁县"},{"area_code":"伊犁哈萨克自治州","code":"654022","name":"察县"},{"area_code":"伊犁哈萨克自治州","code":"654022","name":"察县"},{"area_code":"伊犁哈萨克自治州","code":"654022","name":"察县"},{"area_code":"伊犁哈萨克自治州","code":"654022","name":"察县"},{"area_code":"伊犁哈萨克自治州","code":"654022","name":"察县"},{"area_code":"伊犁哈萨克自治州","code":"654022","name":"察县"},{"area_code":"伊犁哈萨克自治州","code":"654022","name":"察县"},{"area_code":"伊犁哈萨克自治州","code":"654022","name":"察县"},{"area_code":"伊犁哈萨克自治州","code":"654022","name":"察县"},{"area_code":"伊犁哈萨克自治州","code":"654022","name":"察县"},{"area_code":"伊犁哈萨克自治州","code":"654022","name":"察县"},{"area_code":"伊犁哈萨克自治州","code":"654022","name":"察县"},{"area_code":"伊犁哈萨克自治州","code":"654023","name":"霍城县"},{"area_code":"伊犁哈萨克自治州","code":"654023","name":"霍城县"},{"area_code":"伊犁哈萨克自治州","code":"654023","name":"霍城县"},{"area_code":"伊犁哈萨克自治州","code":"654023","name":"霍城县"},{"area_code":"伊犁哈萨克自治州","code":"654023","name":"霍城县"},{"area_code":"伊犁哈萨克自治州","code":"654023","name":"霍城县"},{"area_code":"伊犁哈萨克自治州","code":"654024","name":"巩留县"},{"area_code":"伊犁哈萨克自治州","code":"654024","name":"巩留县"},{"area_code":"伊犁哈萨克自治州","code":"654024","name":"巩留县"},{"area_code":"伊犁哈萨克自治州","code":"654025","name":"新源县"},{"area_code":"伊犁哈萨克自治州","code":"654025","name":"新源县"},{"area_code":"伊犁哈萨克自治州","code":"654025","name":"新源县"},{"area_code":"伊犁哈萨克自治州","code":"654025","name":"新源县"},{"area_code":"伊犁哈萨克自治州","code":"654025","name":"新源县"},{"area_code":"伊犁哈萨克自治州","code":"654025","name":"新源县"},{"area_code":"伊犁哈萨克自治州","code":"654025","name":"新源县"},{"area_code":"伊犁哈萨克自治州","code":"654025","name":"新源县"},{"area_code":"伊犁哈萨克自治州","code":"654025","name":"新源县"},{"area_code":"伊犁哈萨克自治州","code":"654025","name":"新源县"},{"area_code":"伊犁哈萨克自治州","code":"654026","name":"昭苏县"},{"area_code":"伊犁哈萨克自治州","code":"654026","name":"昭苏县"},{"area_code":"伊犁哈萨克自治州","code":"654026","name":"昭苏县"},{"area_code":"伊犁哈萨克自治州","code":"654026","name":"昭苏县"},{"area_code":"伊犁哈萨克自治州","code":"654026","name":"昭苏县"},{"area_code":"伊犁哈萨克自治州","code":"654026","name":"昭苏县"},{"area_code":"伊犁哈萨克自治州","code":"654027","name":"特克斯县"},{"area_code":"伊犁哈萨克自治州","code":"654027","name":"特克斯县"},{"area_code":"伊犁哈萨克自治州","code":"654027","name":"特克斯县"},{"area_code":"伊犁哈萨克自治州","code":"654027","name":"特克斯县"},{"area_code":"伊犁哈萨克自治州","code":"654028","name":"尼勒克县"},{"area_code":"塔城地区","code":"654201","name":"塔城市"},{"area_code":"塔城地区","code":"654201","name":"塔城市"},{"area_code":"塔城地区","code":"654201","name":"塔城市"},{"area_code":"塔城地区","code":"654201","name":"塔城市"},{"area_code":"塔城地区","code":"654202","name":"乌苏市"},{"area_code":"塔城地区","code":"654202","name":"乌苏市"},{"area_code":"塔城地区","code":"654202","name":"乌苏市"},{"area_code":"塔城地区","code":"654202","name":"乌苏市"},{"area_code":"塔城地区","code":"654202","name":"乌苏市"},{"area_code":"塔城地区","code":"654202","name":"乌苏市"},{"area_code":"塔城地区","code":"654202","name":"乌苏市"},{"area_code":"塔城地区","code":"654202","name":"乌苏市"},{"area_code":"塔城地区","code":"654202","name":"乌苏市"},{"area_code":"塔城地区","code":"654202","name":"乌苏市"},{"area_code":"塔城地区","code":"654202","name":"乌苏市"},{"area_code":"塔城地区","code":"654221","name":"额敏县"},{"area_code":"塔城地区","code":"654221","name":"额敏县"},{"area_code":"塔城地区","code":"654221","name":"额敏县"},{"area_code":"塔城地区","code":"654223","name":"沙湾县"},{"area_code":"塔城地区","code":"654223","name":"沙湾县"},{"area_code":"塔城地区","code":"654223","name":"沙湾县"},{"area_code":"塔城地区","code":"654223","name":"沙湾县"},{"area_code":"塔城地区","code":"654223","name":"沙湾县"},{"area_code":"塔城地区","code":"654224","name":"托里县"},{"area_code":"塔城地区","code":"654224","name":"托里县"},{"area_code":"塔城地区","code":"654224","name":"托里县"},{"area_code":"塔城地区","code":"654225","name":"裕民县"},{"area_code":"塔城地区","code":"654225","name":"裕民县"},{"area_code":"塔城地区","code":"654225","name":"裕民县"},{"area_code":"塔城地区","code":"654226","name":"和丰县"},{"area_code":"塔城地区","code":"654226","name":"和丰县"},{"area_code":"塔城地区","code":"654226","name":"和丰县"},{"area_code":"阿勒泰地区","code":"654301","name":"阿勒泰市 "},{"area_code":"阿勒泰地区","code":"654301","name":"阿勒泰市 "},{"area_code":"阿勒泰地区","code":"654301","name":"阿勒泰市 "},{"area_code":"阿勒泰地区","code":"654301","name":"阿勒泰市 "},{"area_code":"阿勒泰地区","code":"654321","name":"布尔津县"},{"area_code":"阿勒泰地区","code":"654322","name":"富蕴县"},{"area_code":"阿勒泰地区","code":"654322","name":"富蕴县"},{"area_code":"阿勒泰地区","code":"654322","name":"富蕴县"},{"area_code":"阿勒泰地区","code":"654323","name":"福海县"},{"area_code":"阿勒泰地区","code":"654324","name":"哈巴河县"},{"area_code":"阿勒泰地区","code":"654324","name":"哈巴河县"},{"area_code":"阿勒泰地区","code":"654325","name":"青河县"},{"area_code":"阿勒泰地区","code":"654326","name":"吉木乃县"},{"area_code":"阿勒泰地区","code":"654326","name":"吉木乃县"},{"area_code":"阿勒泰地区","code":"654326","name":"吉木乃县"},{"area_code":"阿勒泰地区","code":"654326","name":"吉木乃县"},{"area_code":"阿勒泰地区","code":"654326","name":"吉木乃县"},{"area_code":"直辖行政单位","code":"659001","name":"石河子市"},{"area_code":"直辖行政单位","code":"659001","name":"石河子市"},{"area_code":"直辖行政单位","code":"659001","name":"石河子市"},{"area_code":"直辖行政单位","code":"659001","name":"石河子市"},{"area_code":"直辖行政单位","code":"659001","name":"石河子市"},{"area_code":"直辖行政单位","code":"659001","name":"石河子市"},{"area_code":"直辖行政单位","code":"659001","name":"石河子市"},{"area_code":"直辖行政单位","code":"659001","name":"石河子市"},{"area_code":"直辖行政单位","code":"659001","name":"石河子市"},{"area_code":"直辖行政单位","code":"659001","name":"石河子市"},{"area_code":"直辖行政单位","code":"659001","name":"石河子市"},{"area_code":"直辖行政单位","code":"659001","name":"石河子市"},{"area_code":"直辖行政单位","code":"659001","name":"石河子市"},{"area_code":"直辖行政单位","code":"659001","name":"石河子市"},{"area_code":"直辖行政单位","code":"659001","name":"石河子市"},{"area_code":"直辖行政单位","code":"659001","name":"石河子市"},{"area_code":"直辖行政单位","code":"659001","name":"石河子市"},{"area_code":"直辖行政单位","code":"659001","name":"石河子市"},{"area_code":"直辖行政单位","code":"659001","name":"石河子市"},{"area_code":"直辖行政单位","code":"659001","name":"石河子市"},{"area_code":"直辖行政单位","code":"659002","name":"阿拉尔市"},{"area_code":"直辖行政单位","code":"659002","name":"阿拉尔市"},{"area_code":"直辖行政单位","code":"659002","name":"阿拉尔市"},{"area_code":"直辖行政单位","code":"659002","name":"阿拉尔市"},{"area_code":"直辖行政单位","code":"659002","name":"阿拉尔市"},{"area_code":"直辖行政单位","code":"659004","name":"五家渠市"},{"area_code":"直辖行政单位","code":"659004","name":"五家渠市"},{"area_code":"直辖行政单位","code":"659004","name":"五家渠市"},{"area_code":"直辖行政单位","code":"659004","name":"五家渠市"},{"area_code":"直辖行政单位","code":"659004","name":"五家渠市"},{"area_code":"直辖行政单位","code":"659004","name":"五家渠市"},{"area_code":"直辖行政单位","code":"659004","name":"五家渠市"},{"area_code":"直辖行政单位","code":"659004","name":"五家渠市"},{"area_code":"直辖行政单位","code":"659004","name":"五家渠市"},{"area_code":"直辖行政单位","code":"659004","name":"五家渠市"},{"area_code":"","code":"","name":"大丰市"},{"area_code":"","code":"","name":"盐都区"},{"area_code":"","code":"","name":"亭湖区"},{"area_code":"","code":"","name":"市辖区"},{"area_code":"扬州市","code":"","name":"市辖区"},{"area_code":"","code":"","name":"宝应县"},{"area_code":"","code":"","name":"仪征市"},{"area_code":"","code":"","name":"高邮市"},{"area_code":"","code":"","name":"江都市"},{"area_code":"镇江市","code":"","name":"市辖区"},{"area_code":"","code":"","name":"丹阳市"},{"area_code":"","code":"","name":"扬中市"},{"area_code":"","code":"","name":"句容市"},{"area_code":"泰州市","code":"","name":"海陵区"},{"area_code":"","code":"","name":"高港区"},{"area_code":"","code":"","name":"兴化市"},{"area_code":"","code":"","name":"靖江市"},{"area_code":"","code":"","name":"泰兴市"},{"area_code":"","code":"","name":"姜堰市"},{"area_code":"宿迁市","code":"","name":"宿城区"},{"area_code":"","code":"","name":"宿豫区"},{"area_code":"","code":"","name":"沭阳县"},{"area_code":"","code":"","name":"泗阳县"},{"area_code":"","code":"","name":"泗洪县"},{"area_code":"","code":"361127","name":""},{"area_code":"","code":"361128","name":"鄱阳县"},{"area_code":"","code":"361128","name":""},{"area_code":"","code":"361128","name":""},{"area_code":"","code":"361128","name":""},{"area_code":"","code":"361128","name":""},{"area_code":"","code":"361128","name":""},{"area_code":"","code":"361128","name":""},{"area_code":"","code":"361128","name":""},{"area_code":"","code":"361129","name":"万年县"},{"area_code":"","code":"361129","name":""},{"area_code":"","code":"361129","name":""},{"area_code":"","code":"361130","name":"婺源县"},{"area_code":"","code":"361130","name":""},{"area_code":"","code":"361130","name":""},{"area_code":"","code":"361181","name":"德兴市"},{"area_code":"","code":"361181","name":""},{"area_code":"周口市","code":"411624","name":"沈丘县"},{"area_code":"周口市","code":"411624","name":"沈丘县"},{"area_code":"周口市","code":"411624","name":"沈丘县"},{"area_code":"周口市","code":"411624","name":"沈丘县"},{"area_code":"周口市","code":"411624","name":"沈丘县"},{"area_code":"周口市","code":"411624","name":"沈丘县"},{"area_code":"周口市","code":"411627","name":"太康县"},{"area_code":"周口市","code":"411627","name":"太康县"},{"area_code":"周口市","code":"411627","name":"太康县"},{"area_code":"周口市","code":"411627","name":"太康县"},{"area_code":"周口市","code":"411622","name":"西华县"},{"area_code":"周口市","code":"411622","name":"西华县"},{"area_code":"周口市","code":"411622","name":"西华县"},{"area_code":"周口市","code":"411622","name":"西华县"},{"area_code":"周口市","code":"411622","name":"西华县"},{"area_code":"周口市","code":"411681","name":"项城市"},{"area_code":"周口市","code":"411681","name":"项城市"},{"area_code":"周口市","code":"411681","name":"项城市"},{"area_code":"周口市","code":"411681","name":"项城市"},{"area_code":"周口市","code":"411681","name":"项城市"},{"area_code":"周口市","code":"411681","name":"项城市"},{"area_code":"驻马店市","code":"411726","name":"泌阳县"},{"area_code":"驻马店市","code":"411726","name":"泌阳县"},{"area_code":"驻马店市","code":"411726","name":"泌阳县"},{"area_code":"驻马店市","code":"411723","name":"平舆县"},{"area_code":"驻马店市","code":"411723","name":"平舆县"},{"area_code":"驻马店市","code":"411723","name":"平舆县"},{"area_code":"驻马店市","code":"411723","name":"平舆县"},{"area_code":"驻马店市","code":"411725","name":"确山县"},{"area_code":"驻马店市","code":"411725","name":"确山县"},{"area_code":"驻马店市","code":"411727","name":"汝南县"},{"area_code":"驻马店市","code":"411727","name":"汝南县"},{"area_code":"驻马店市","code":"411727","name":"汝南县"},{"area_code":"驻马店市","code":"411722","name":"上蔡县"},{"area_code":"驻马店市","code":"411722","name":"上蔡县"},{"area_code":"驻马店市","code":"411722","name":"上蔡县"},{"area_code":"驻马店市","code":"411728","name":"遂平县"},{"area_code":"驻马店市","code":"411728","name":"遂平县"},{"area_code":"驻马店市","code":"411721","name":"西平县"},{"area_code":"驻马店市","code":"411721","name":"西平县"},{"area_code":"驻马店市","code":"411721","name":"西平县"},{"area_code":"驻马店市","code":"411729","name":"新蔡县"},{"area_code":"驻马店市","code":"411729","name":"新蔡县"},{"area_code":"驻马店市","code":"411729","name":"新蔡县"},{"area_code":"驻马店市","code":"411702","name":"驿城区"},{"area_code":"驻马店市","code":"411702","name":"驿城区"},{"area_code":"驻马店市","code":"411702","name":"驿城区"},{"area_code":"驻马店市","code":"411702","name":"驿城区"},{"area_code":"驻马店市","code":"411702","name":"驿城区"},{"area_code":"驻马店市","code":"411702","name":"驿城区"},{"area_code":"驻马店市","code":"411702","name":"驿城区"},{"area_code":"驻马店市","code":"411702","name":"驿城区"},{"area_code":"驻马店市","code":"411724","name":"正阳县"},{"area_code":"驻马店市","code":"411724","name":"正阳县"},{"area_code":"驻马店市","code":"411724","name":"正阳县"},{"area_code":"驻马店市","code":"411724","name":"正阳县"}]